{"features": [{"properties": {"fill-opacity": 0.33, "fillColor": "#bf4040", "opacity": 0.33, "fill": "#bf4040", "fillOpacity": 0.33, "color": "#bf4040", "contour": 15.0, "metric": "time"}, "geometry": {"coordinates": [[[115.162503, -8.618088], [115.161503, -8.618425], [115.161102, -8.619356], [115.159357, -8.619611], [115.159067, -8.620757], [115.158067, -8.621321], [115.157503, -8.623037], [115.156503, -8.622133], [115.155236, -8.622024], [115.155363, -8.619896], [115.154503, -8.619099], [115.153503, -8.619354], [115.153013, -8.621267], [115.152503, -8.621588], [115.151503, -8.621651], [115.150503, -8.62243], [115.147213, -8.622467], [115.145697, -8.623757], [115.147781, -8.625757], [115.146976, -8.62623], [115.146673, -8.627927], [115.14518, -8.62808], [115.144953, -8.627757], [115.145088, -8.626342], [115.145705, -8.625757], [115.145503, -8.625031], [115.144503, -8.624236], [115.143088, -8.625342], [115.141871, -8.627125], [115.141131, -8.627385], [115.140691, -8.628945], [115.139024, -8.629278], [115.137043, -8.631297], [115.136503, -8.631445], [115.13567, -8.630757], [115.135689, -8.628943], [115.136283, -8.626757], [115.135503, -8.626096], [115.134503, -8.626516], [115.132503, -8.628312], [115.130684, -8.627575], [115.129287, -8.627757], [115.129279, -8.62898], [115.131003, -8.632757], [115.130438, -8.633757], [115.131237, -8.634022], [115.131457, -8.635711], [115.130961, -8.635757], [115.131815, -8.636445], [115.13183, -8.637757], [115.132668, -8.637923], [115.134503, -8.636627], [115.134815, -8.637444], [115.135794, -8.637757], [115.134983, -8.638237], [115.134503, -8.640143], [115.133503, -8.639457], [115.132239, -8.639493], [115.130858, -8.640112], [115.130588, -8.640757], [115.131779, -8.641757], [115.131782, -8.642757], [115.132864, -8.644395], [115.132867, -8.645121], [115.132348, -8.645757], [115.132409, -8.646851], [115.135198, -8.647757], [115.134462, -8.649757], [115.134402, -8.651757], [115.136503, -8.652008], [115.13669, -8.652569], [115.136908, -8.653757], [115.136079, -8.654757], [115.136928, -8.655332], [115.137232, -8.656757], [115.136386, -8.657757], [115.136201, -8.660757], [115.136503, -8.661253], [115.137503, -8.661149], [115.138503, -8.663013], [115.139503, -8.663712], [115.140503, -8.663532], [115.141544, -8.662716], [115.141847, -8.664757], [115.14333, -8.665757], [115.143974, -8.667285], [115.144503, -8.667584], [115.145628, -8.666632], [115.147503, -8.668254], [115.148914, -8.668168], [115.148785, -8.667757], [115.149503, -8.666943], [115.149716, -8.66797], [115.149034, -8.668288], [115.148944, -8.668757], [115.148923, -8.669757], [115.14926, -8.669999], [115.1519, -8.670154], [115.152398, -8.669861], [115.1525, -8.670759], [115.155503, -8.671167], [115.157503, -8.669483], [115.158503, -8.67044], [115.159945, -8.670757], [115.160039, -8.671757], [115.160503, -8.672215], [115.161526, -8.671757], [115.162084, -8.670338], [115.163014, -8.669757], [115.163547, -8.668801], [115.164536, -8.66879], [115.164941, -8.667757], [115.164091, -8.666757], [115.166226, -8.66648], [115.166342, -8.663596], [115.168503, -8.663395], [115.168893, -8.663757], [115.168916, -8.666757], [115.167929, -8.667757], [115.167758, -8.670012], [115.166425, -8.671757], [115.16831, -8.67195], [115.168616, -8.67287], [115.169503, -8.67233], [115.170908, -8.672351], [115.172503, -8.673104], [115.175749, -8.669757], [115.174503, -8.668275], [115.173381, -8.667878], [115.173503, -8.666772], [115.175117, -8.665757], [115.175016, -8.66527], [115.176503, -8.666256], [115.177091, -8.665345], [115.178158, -8.664757], [115.177244, -8.662757], [115.177503, -8.66208], [115.178503, -8.662178], [115.178871, -8.661757], [115.178989, -8.660757], [115.178192, -8.660067], [115.178271, -8.659525], [115.179503, -8.659069], [115.181503, -8.659888], [115.183323, -8.657757], [115.184503, -8.655327], [115.186503, -8.656666], [115.191503, -8.652058], [115.193004, -8.651757], [115.192673, -8.650587], [115.190503, -8.648147], [115.189503, -8.648348], [115.189169, -8.646757], [115.186859, -8.644757], [115.187503, -8.643849], [115.188168, -8.643757], [115.187669, -8.642757], [115.185619, -8.640757], [115.18677, -8.639757], [115.187171, -8.637757], [115.186503, -8.636358], [115.185248, -8.635757], [115.185756, -8.63501], [115.185639, -8.633757], [115.183503, -8.632857], [115.182503, -8.631594], [115.179503, -8.632118], [115.177911, -8.631757], [115.177833, -8.630757], [115.178926, -8.62918], [115.178503, -8.627897], [115.177503, -8.626697], [115.176361, -8.626757], [115.175503, -8.624663], [115.174986, -8.624273], [115.174503, -8.623952], [115.173503, -8.624285], [115.172503, -8.621824], [115.171328, -8.621582], [115.169503, -8.622454], [115.168503, -8.621737], [115.167503, -8.622913], [115.166503, -8.623273], [115.165503, -8.622736], [115.16523, -8.622029], [115.165566, -8.620693], [115.162413, -8.619846], [115.162503, -8.618088]]], "type": "Polygon"}, "type": "Feature"}], "type": "FeatureCollection"}