{"features": [{"properties": {"fill-opacity": 0.33, "fillColor": "#bf4040", "opacity": 0.33, "fill": "#bf4040", "fillOpacity": 0.33, "color": "#bf4040", "contour": 15.0, "metric": "time"}, "geometry": {"coordinates": [[[114.739777, -8.315314], [114.737908, -8.315378], [114.737841, -8.318247], [114.736915, -8.318385], [114.736853, -8.322247], [114.735944, -8.322414], [114.735965, -8.32706], [114.736877, -8.327247], [114.737019, -8.331005], [114.73791, -8.331247], [114.737086, -8.331556], [114.736943, -8.334247], [114.736149, -8.33462], [114.735963, -8.335247], [114.735953, -8.338423], [114.735414, -8.338611], [114.734777, -8.337709], [114.734258, -8.338728], [114.733511, -8.338981], [114.733214, -8.340684], [114.73231, -8.341247], [114.734235, -8.341705], [114.734427, -8.340898], [114.735117, -8.341247], [114.734294, -8.341764], [114.734175, -8.343645], [114.733545, -8.344247], [114.733777, -8.345552], [114.734289, -8.344759], [114.735046, -8.344517], [114.73529, -8.343247], [114.735777, -8.342867], [114.737256, -8.343247], [114.737777, -8.345958], [114.738146, -8.344616], [114.738467, -8.340247], [114.737527, -8.339247], [114.737581, -8.336247], [114.738417, -8.335888], [114.738676, -8.333146], [114.739488, -8.332959], [114.739647, -8.330247], [114.739516, -8.329508], [114.738664, -8.329247], [114.738587, -8.325438], [114.737715, -8.325309], [114.737693, -8.324247], [114.738618, -8.324088], [114.738707, -8.320247], [114.739643, -8.320114], [114.739714, -8.317247], [114.740643, -8.317113], [114.740643, -8.315382], [114.739777, -8.315314]]], "type": "Polygon"}, "type": "Feature"}], "type": "FeatureCollection"}