{"features": [{"properties": {"fill-opacity": 0.33, "fillColor": "#bf4040", "opacity": 0.33, "fill": "#bf4040", "fillOpacity": 0.33, "color": "#bf4040", "contour": 15.0, "metric": "time"}, "geometry": {"coordinates": [[[115.216128, -8.592484], [115.215284, -8.592358], [115.215128, -8.591679], [115.214867, -8.593514], [115.213765, -8.594514], [115.214616, -8.595514], [115.213309, -8.596514], [115.213169, -8.597555], [115.211128, -8.595903], [115.210314, -8.596514], [115.210189, -8.597514], [115.210686, -8.598514], [115.210353, -8.599739], [115.209761, -8.599514], [115.209694, -8.59808], [115.210035, -8.597514], [115.208128, -8.596337], [115.207128, -8.597446], [115.206128, -8.597414], [115.204658, -8.598514], [115.202908, -8.601294], [115.202959, -8.602682], [115.204545, -8.603097], [115.203328, -8.604714], [115.201128, -8.604463], [115.200128, -8.604985], [115.199128, -8.603597], [115.198856, -8.604243], [115.198072, -8.604514], [115.198771, -8.604871], [115.198622, -8.606008], [115.198128, -8.606402], [115.195128, -8.606178], [115.193283, -8.609669], [115.191128, -8.608779], [115.190628, -8.609015], [115.190164, -8.609514], [115.190288, -8.610514], [115.191538, -8.612514], [115.189681, -8.614514], [115.189268, -8.616654], [115.188577, -8.617514], [115.189243, -8.618514], [115.188412, -8.619798], [115.187059, -8.620514], [115.18677, -8.622156], [115.186842, -8.623514], [115.187599, -8.624043], [115.187779, -8.625514], [115.188569, -8.626073], [115.188951, -8.627337], [115.188742, -8.628128], [115.187938, -8.628514], [115.18804, -8.629514], [115.189128, -8.62986], [115.189425, -8.630811], [115.187296, -8.635514], [115.18992, -8.636722], [115.191128, -8.638202], [115.193013, -8.637399], [115.194251, -8.637391], [115.1943, -8.638342], [115.197441, -8.643514], [115.197284, -8.644514], [115.198368, -8.645274], [115.200128, -8.647618], [115.201128, -8.647735], [115.202128, -8.648547], [115.204128, -8.647094], [115.205243, -8.648399], [115.206226, -8.648416], [115.206739, -8.649903], [115.208128, -8.651384], [115.209593, -8.652049], [115.210128, -8.65382], [115.211128, -8.653868], [115.213128, -8.652535], [115.213377, -8.653265], [115.214078, -8.653564], [115.214226, -8.654416], [115.215128, -8.655115], [115.216347, -8.654514], [115.216655, -8.652514], [115.217408, -8.651794], [115.217574, -8.650961], [115.218603, -8.650514], [115.218529, -8.649514], [115.219128, -8.648765], [115.221128, -8.648344], [115.221348, -8.647514], [115.22229, -8.646676], [115.221777, -8.645514], [115.22203, -8.644416], [115.223454, -8.642514], [115.2237, -8.639514], [115.224807, -8.638193], [115.225342, -8.6383], [115.225441, -8.639514], [115.226128, -8.640094], [115.227128, -8.639066], [115.228128, -8.639881], [115.231895, -8.639747], [115.232128, -8.64053], [115.232288, -8.639674], [115.23398, -8.639662], [115.234251, -8.640514], [115.234494, -8.63888], [115.235217, -8.638514], [115.235716, -8.635514], [115.235128, -8.634714], [115.234203, -8.634439], [115.234242, -8.632514], [115.23337, -8.632272], [115.233128, -8.631433], [115.229594, -8.63098], [115.229229, -8.631615], [115.228128, -8.631527], [115.227027, -8.632615], [115.227128, -8.630384], [115.228128, -8.631458], [115.229335, -8.629721], [115.229465, -8.628177], [115.228841, -8.627514], [115.229086, -8.626472], [115.230128, -8.627389], [115.231128, -8.627592], [115.232128, -8.626578], [115.232331, -8.625717], [115.231329, -8.624514], [115.231391, -8.623514], [115.229128, -8.623524], [115.225128, -8.622603], [115.224588, -8.621514], [115.225988, -8.619514], [115.225526, -8.618514], [115.226056, -8.616442], [115.227128, -8.616726], [115.229128, -8.614519], [115.229607, -8.612993], [115.230194, -8.612514], [115.229908, -8.611514], [115.229128, -8.611055], [115.228539, -8.611925], [115.226885, -8.611757], [115.226901, -8.609287], [115.230128, -8.608955], [115.230782, -8.608514], [115.229634, -8.608008], [115.227122, -8.60552], [115.226298, -8.605344], [115.225128, -8.603676], [115.224029, -8.604415], [115.223327, -8.605514], [115.224197, -8.606445], [115.223633, -8.607514], [115.224534, -8.608514], [115.224128, -8.608932], [115.222973, -8.608669], [115.22309, -8.605514], [115.222727, -8.604514], [115.223817, -8.603514], [115.220985, -8.602657], [115.221356, -8.600514], [115.220603, -8.600039], [115.220184, -8.598514], [115.219128, -8.597426], [115.217507, -8.597893], [115.216607, -8.597514], [115.217331, -8.594718], [115.215536, -8.593514], [115.216128, -8.592484]]], "type": "Polygon"}, "type": "Feature"}], "type": "FeatureCollection"}