{"features": [{"properties": {"fill-opacity": 0.33, "fillColor": "#bf4040", "opacity": 0.33, "fill": "#bf4040", "fillOpacity": 0.33, "color": "#bf4040", "contour": 15.0, "metric": "time"}, "geometry": {"coordinates": [[[115.306842, -8.42319], [115.306334, -8.424052], [115.304477, -8.425196], [115.304224, -8.42656], [115.303195, -8.42756], [115.303153, -8.42856], [115.302115, -8.42956], [115.301991, -8.431709], [115.300842, -8.431872], [115.300154, -8.43256], [115.300842, -8.433248], [115.301984, -8.433418], [115.301062, -8.43456], [115.301282, -8.43512], [115.302962, -8.43544], [115.302979, -8.43756], [115.302103, -8.437821], [115.301966, -8.43956], [115.301093, -8.439812], [115.300924, -8.440642], [115.299106, -8.440824], [115.298974, -8.44156], [115.299106, -8.442296], [115.300922, -8.44248], [115.301073, -8.443329], [115.301916, -8.443486], [115.302056, -8.444346], [115.302909, -8.444493], [115.303034, -8.445368], [115.303904, -8.445498], [115.30402, -8.447382], [115.3049, -8.447502], [115.304923, -8.44856], [115.303787, -8.448615], [115.303668, -8.447734], [115.302015, -8.447734], [115.3019, -8.448618], [115.301025, -8.448743], [115.300905, -8.449623], [115.30004, -8.449759], [115.300053, -8.452349], [115.301631, -8.452349], [115.301776, -8.451494], [115.302657, -8.451375], [115.302842, -8.450477], [115.30289, -8.451608], [115.301989, -8.451707], [115.301892, -8.45261], [115.300996, -8.452714], [115.300894, -8.453613], [115.299007, -8.453726], [115.298898, -8.454616], [115.298014, -8.454732], [115.297901, -8.455619], [115.297023, -8.455741], [115.296842, -8.456665], [115.295065, -8.456784], [115.294842, -8.45768], [115.293096, -8.457814], [115.293096, -8.459306], [115.294924, -8.459478], [115.294972, -8.46056], [115.294123, -8.460841], [115.29399, -8.46256], [115.293165, -8.462883], [115.29296, -8.464679], [115.292214, -8.464932], [115.291842, -8.465781], [115.290338, -8.466056], [115.290046, -8.467764], [115.288451, -8.469169], [115.288201, -8.470919], [115.287595, -8.47156], [115.288397, -8.47256], [115.288842, -8.475455], [115.289417, -8.474135], [115.291026, -8.47356], [115.290442, -8.47296], [115.2906, -8.471318], [115.292128, -8.471274], [115.293617, -8.47256], [115.293842, -8.473322], [115.29551, -8.47156], [115.294558, -8.470844], [115.294658, -8.469377], [115.296842, -8.469253], [115.297622, -8.46834], [115.298041, -8.468361], [115.297942, -8.46966], [115.297167, -8.469886], [115.297005, -8.47056], [115.297061, -8.47456], [115.298024, -8.47556], [115.297262, -8.47598], [115.297052, -8.47656], [115.297258, -8.48356], [115.296717, -8.48656], [115.297842, -8.487242], [115.298613, -8.482331], [115.299163, -8.482239], [115.301842, -8.483601], [115.303842, -8.483195], [115.304525, -8.48256], [115.304618, -8.47656], [115.303647, -8.47556], [115.303496, -8.472906], [115.302734, -8.472668], [115.302537, -8.471865], [115.301701, -8.47156], [115.301724, -8.46856], [115.303613, -8.468332], [115.303764, -8.467482], [115.304603, -8.467321], [115.304759, -8.466477], [115.305642, -8.466361], [115.306629, -8.465347], [115.306556, -8.462846], [115.305128, -8.462846], [115.304935, -8.463653], [115.304113, -8.463832], [115.303733, -8.464669], [115.303782, -8.4635], [115.304665, -8.463383], [115.304786, -8.461504], [115.306669, -8.461387], [115.306783, -8.460501], [115.307659, -8.460377], [115.307842, -8.459464], [115.308028, -8.460374], [115.308842, -8.460467], [115.309656, -8.460374], [115.309781, -8.4595], [115.310663, -8.459382], [115.310758, -8.45656], [115.311682, -8.4564], [115.311792, -8.45451], [115.312691, -8.45441], [115.312789, -8.452508], [115.31368, -8.452398], [115.313667, -8.447735], [115.312782, -8.44762], [115.312745, -8.44656], [115.31364, -8.446358], [115.313771, -8.44549], [115.314619, -8.445338], [115.314753, -8.443471], [115.315857, -8.442545], [115.315515, -8.441887], [115.314751, -8.441651], [115.314575, -8.438827], [115.313751, -8.438651], [115.313561, -8.437841], [115.310842, -8.437717], [115.31056, -8.436842], [115.309124, -8.436842], [115.308842, -8.437655], [115.308643, -8.435759], [115.307739, -8.43556], [115.308634, -8.43456], [115.308425, -8.433977], [115.307638, -8.43356], [115.307683, -8.432401], [115.308842, -8.431188], [115.311951, -8.43056], [115.306842, -8.42319]]], "type": "Polygon"}, "type": "Feature"}], "type": "FeatureCollection"}