{"features": [{"properties": {"fill-opacity": 0.33, "fillColor": "#bf4040", "opacity": 0.33, "fill": "#bf4040", "fillOpacity": 0.33, "color": "#bf4040", "contour": 15.0, "metric": "time"}, "geometry": {"coordinates": [[[115.435238, -8.457996], [115.434238, -8.457864], [115.432828, -8.459131], [115.432561, -8.463131], [115.433481, -8.464131], [115.433345, -8.466237], [115.430812, -8.465131], [115.43083, -8.463722], [115.431531, -8.463131], [115.431238, -8.461774], [115.429902, -8.463131], [115.429489, -8.465382], [115.428954, -8.465415], [115.428238, -8.4646], [115.426371, -8.465131], [115.426231, -8.466138], [115.427238, -8.466229], [115.428534, -8.467131], [115.428238, -8.467559], [115.425495, -8.468131], [115.426682, -8.468687], [115.42699, -8.470882], [115.426529, -8.471131], [115.427238, -8.471245], [115.427612, -8.472757], [115.428359, -8.47301], [115.428397, -8.474131], [115.426642, -8.475534], [115.426238, -8.477369], [115.424238, -8.477461], [115.423207, -8.477099], [115.422628, -8.478131], [115.422653, -8.479546], [115.422184, -8.480131], [115.423488, -8.48038], [115.42399, -8.478883], [115.425413, -8.478956], [115.425447, -8.479339], [115.423915, -8.480807], [115.423876, -8.482493], [115.424238, -8.483099], [115.425599, -8.482491], [115.425997, -8.480889], [115.427702, -8.480594], [115.428028, -8.477131], [115.428876, -8.476769], [115.429238, -8.475969], [115.429515, -8.476854], [115.430367, -8.477131], [115.430347, -8.480131], [115.428454, -8.480347], [115.428314, -8.482206], [115.42747, -8.482363], [115.427376, -8.487131], [115.426524, -8.487417], [115.426318, -8.48921], [115.425471, -8.489363], [115.42532, -8.491213], [115.421545, -8.491438], [115.421238, -8.493301], [115.419004, -8.493131], [115.41986, -8.492131], [115.419238, -8.489948], [115.417238, -8.491457], [115.415238, -8.490844], [115.4139, -8.492131], [115.413325, -8.496044], [115.413632, -8.496131], [115.413191, -8.497131], [115.414577, -8.498792], [115.414975, -8.500394], [115.417238, -8.502204], [115.417879, -8.501131], [115.41675, -8.500131], [115.417629, -8.499522], [115.418238, -8.497786], [115.418797, -8.498131], [115.419238, -8.50102], [115.419878, -8.498771], [115.421238, -8.498942], [115.421745, -8.500623], [115.425335, -8.503228], [115.425482, -8.502131], [115.424027, -8.500342], [115.423997, -8.499131], [115.423042, -8.498131], [115.42313, -8.497022], [115.424929, -8.496822], [115.425143, -8.496036], [115.425963, -8.495856], [115.42611, -8.494131], [115.426996, -8.493888], [115.427163, -8.492056], [115.430034, -8.491927], [115.430238, -8.491033], [115.434071, -8.490964], [115.434158, -8.489131], [115.435084, -8.488977], [115.435188, -8.48808], [115.437084, -8.487976], [115.437082, -8.485287], [115.436192, -8.485085], [115.438106, -8.484999], [115.438238, -8.484068], [115.440113, -8.484006], [115.439954, -8.482131], [115.440704, -8.481597], [115.440716, -8.480653], [115.439729, -8.47964], [115.438192, -8.479177], [115.437163, -8.478131], [115.437184, -8.477077], [115.438179, -8.476071], [115.43905, -8.475943], [115.439136, -8.471028], [115.439774, -8.470667], [115.440026, -8.469131], [115.440821, -8.468714], [115.441238, -8.467875], [115.442715, -8.469131], [115.442065, -8.470131], [115.442238, -8.470508], [115.444471, -8.470363], [115.445433, -8.469326], [115.445857, -8.467749], [115.44647, -8.467363], [115.446493, -8.466385], [115.447248, -8.466121], [115.446238, -8.466013], [115.44585, -8.466743], [115.44502, -8.466913], [115.444562, -8.467455], [115.443034, -8.467334], [115.442027, -8.46592], [115.443238, -8.464654], [115.445267, -8.464131], [115.444435, -8.462934], [115.443238, -8.462813], [115.442662, -8.463555], [115.441333, -8.464225], [115.440238, -8.464178], [115.439825, -8.464718], [115.439379, -8.467272], [115.437602, -8.467494], [115.437238, -8.468284], [115.436146, -8.468223], [115.436865, -8.467757], [115.437106, -8.466999], [115.438238, -8.466871], [115.438978, -8.466131], [115.437979, -8.465131], [115.437685, -8.462684], [115.436765, -8.462131], [115.436318, -8.461131], [115.43691, -8.460131], [115.436571, -8.459131], [115.435238, -8.457996]]], "type": "Polygon"}, "type": "Feature"}], "type": "FeatureCollection"}