{"features": [{"properties": {"fill-opacity": 0.33, "fillColor": "#bf4040", "opacity": 0.33, "fill": "#bf4040", "fillOpacity": 0.33, "color": "#bf4040", "contour": 15.0, "metric": "time"}, "geometry": {"coordinates": [[[115.22561, -8.292268], [115.22461, -8.291442], [115.223355, -8.292061], [115.223037, -8.294316], [115.22161, -8.294646], [115.22094, -8.295316], [115.220756, -8.298462], [115.219066, -8.298772], [115.218838, -8.299316], [115.218742, -8.306316], [115.218875, -8.307051], [115.219696, -8.30723], [115.219729, -8.308316], [115.218839, -8.308545], [115.218715, -8.311316], [115.217816, -8.311522], [115.217713, -8.312316], [115.217816, -8.31311], [115.218708, -8.313316], [115.218782, -8.319144], [115.219689, -8.319316], [115.219661, -8.320367], [115.218764, -8.32047], [115.218765, -8.323161], [115.219682, -8.323316], [115.218755, -8.323461], [115.218758, -8.326168], [115.220462, -8.326168], [115.220656, -8.32527], [115.220744, -8.329182], [115.221654, -8.329272], [115.221751, -8.331175], [115.222681, -8.331316], [115.222773, -8.337153], [115.223665, -8.337261], [115.22378, -8.338147], [115.224699, -8.338316], [115.224709, -8.341316], [115.223825, -8.341531], [115.223718, -8.342316], [115.223838, -8.345088], [115.225382, -8.345088], [115.22561, -8.343214], [115.225856, -8.34407], [115.226739, -8.344316], [115.226763, -8.347316], [115.225944, -8.34765], [115.22579, -8.350136], [115.225985, -8.350941], [115.226812, -8.351316], [115.225851, -8.352316], [115.227875, -8.354316], [115.22661, -8.355084], [115.225455, -8.355161], [115.225159, -8.356316], [115.226931, -8.356995], [115.228068, -8.358316], [115.22681, -8.360316], [115.227333, -8.360593], [115.228699, -8.360405], [115.229327, -8.358033], [115.230896, -8.358602], [115.231163, -8.357316], [115.230346, -8.35658], [115.230301, -8.355316], [115.229417, -8.35451], [115.229116, -8.35281], [115.228392, -8.352316], [115.228214, -8.349712], [115.227437, -8.349316], [115.228286, -8.348992], [115.228465, -8.346316], [115.229319, -8.346025], [115.229464, -8.345316], [115.229319, -8.344607], [115.228481, -8.344316], [115.228359, -8.342567], [115.227492, -8.342316], [115.227384, -8.340542], [115.226515, -8.340316], [115.226435, -8.336491], [115.225553, -8.336373], [115.225444, -8.335482], [115.224531, -8.335316], [115.224537, -8.332316], [115.225661, -8.332265], [115.225768, -8.333158], [115.228447, -8.333153], [115.228555, -8.332262], [115.230233, -8.331939], [115.230421, -8.331316], [115.22861, -8.330399], [115.224563, -8.330363], [115.224474, -8.328452], [115.223545, -8.328316], [115.22348, -8.325446], [115.222543, -8.325316], [115.222468, -8.322458], [115.221537, -8.322316], [115.222458, -8.322164], [115.22261, -8.321234], [115.224441, -8.321147], [115.224438, -8.318488], [115.222782, -8.318488], [115.222666, -8.319372], [115.221558, -8.319368], [115.221441, -8.316485], [115.220522, -8.316316], [115.220505, -8.311316], [115.222373, -8.311079], [115.222489, -8.309437], [115.222364, -8.308562], [115.221491, -8.308316], [115.221348, -8.305578], [115.220521, -8.305406], [115.220463, -8.304316], [115.22161, -8.305129], [115.22323, -8.304936], [115.22323, -8.303697], [115.222487, -8.303439], [115.22226, -8.302666], [115.221489, -8.302195], [115.22361, -8.30208], [115.22461, -8.303044], [115.225338, -8.302316], [115.225351, -8.301316], [115.22461, -8.300575], [115.221412, -8.300316], [115.22218, -8.299886], [115.222442, -8.298148], [115.224049, -8.297755], [115.22461, -8.295919], [115.226737, -8.297443], [115.228174, -8.294316], [115.226176, -8.293751], [115.22561, -8.292268]]], "type": "Polygon"}, "type": "Feature"}], "type": "FeatureCollection"}