{"features": [{"properties": {"fill-opacity": 0.33, "fillColor": "#bf4040", "opacity": 0.33, "fill": "#bf4040", "fillOpacity": 0.33, "color": "#bf4040", "contour": 15.0, "metric": "time"}, "geometry": {"coordinates": [[[114.919768, -8.222735], [114.919243, -8.223325], [114.917265, -8.22385], [114.918185, -8.226267], [114.91414, -8.226222], [114.910341, -8.22685], [114.911768, -8.227209], [114.912768, -8.228276], [114.913768, -8.227434], [114.915035, -8.22885], [114.914146, -8.22985], [114.914354, -8.230264], [114.916768, -8.230616], [114.91718, -8.231438], [114.917952, -8.23185], [114.914982, -8.232064], [114.914768, -8.232938], [114.914586, -8.232031], [114.91295, -8.232031], [114.912826, -8.232908], [114.911945, -8.233027], [114.911829, -8.233911], [114.909968, -8.23405], [114.909968, -8.235649], [114.910833, -8.235784], [114.910959, -8.236658], [114.911816, -8.236897], [114.908768, -8.236947], [114.908557, -8.236061], [114.905768, -8.23596], [114.904989, -8.236071], [114.904844, -8.236926], [114.904006, -8.237088], [114.903678, -8.237939], [114.903481, -8.237136], [114.902614, -8.23685], [114.90244, -8.235177], [114.90159, -8.23485], [114.901261, -8.231356], [114.899768, -8.231084], [114.898068, -8.23285], [114.897978, -8.23585], [114.897226, -8.236308], [114.896937, -8.237019], [114.894763, -8.235845], [114.894435, -8.23785], [114.894742, -8.23885], [114.895768, -8.239506], [114.896768, -8.239546], [114.89932, -8.237402], [114.899629, -8.236711], [114.900768, -8.236678], [114.901063, -8.238555], [114.901863, -8.238754], [114.902043, -8.239574], [114.905527, -8.239609], [114.905768, -8.238735], [114.911768, -8.238772], [114.911894, -8.240724], [114.913642, -8.240724], [114.913704, -8.23885], [114.914636, -8.238718], [114.9147, -8.23685], [114.915618, -8.2367], [114.91571, -8.234792], [114.916573, -8.234655], [114.916698, -8.233779], [114.917031, -8.234586], [114.918504, -8.234586], [114.918768, -8.233697], [114.920444, -8.233526], [114.920647, -8.231728], [114.921768, -8.231462], [114.923763, -8.231844], [114.924097, -8.23085], [114.923463, -8.230154], [114.923546, -8.229628], [114.925768, -8.229397], [114.926315, -8.22885], [114.925768, -8.228302], [114.92453, -8.228087], [114.924194, -8.226424], [114.922499, -8.226119], [114.921768, -8.224951], [114.920768, -8.226399], [114.920189, -8.225428], [114.919276, -8.22485], [114.92053, -8.22385], [114.920592, -8.223025], [114.919768, -8.222735]]], "type": "Polygon"}, "type": "Feature"}], "type": "FeatureCollection"}