{"features": [{"properties": {"fill-opacity": 0.33, "fillColor": "#bf4040", "opacity": 0.33, "fill": "#bf4040", "fillOpacity": 0.33, "color": "#bf4040", "contour": 15.0, "metric": "time"}, "geometry": {"coordinates": [[[115.187524, -8.694934], [115.186524, -8.694949], [115.185377, -8.695875], [115.185052, -8.697023], [115.184037, -8.698023], [115.183768, -8.699266], [115.182061, -8.70056], [115.181899, -8.702023], [115.182938, -8.703023], [115.182524, -8.70343], [115.181242, -8.703305], [115.180128, -8.702023], [115.179924, -8.700023], [115.179022, -8.699525], [115.177895, -8.698023], [115.176661, -8.697886], [115.176187, -8.69736], [115.174524, -8.696954], [115.173524, -8.697945], [115.172524, -8.697605], [115.170524, -8.698536], [115.169573, -8.697974], [115.168544, -8.698042], [115.167524, -8.699558], [115.16731, -8.700809], [115.166237, -8.702023], [115.165524, -8.702114], [115.165276, -8.701023], [115.164037, -8.700023], [115.163849, -8.698698], [115.16201, -8.697537], [115.161641, -8.696906], [115.161045, -8.697023], [115.161021, -8.698023], [115.161807, -8.69874], [115.16209, -8.700457], [115.163707, -8.70184], [115.163741, -8.704023], [115.163958, -8.704589], [115.164659, -8.704888], [115.164881, -8.706667], [115.165687, -8.707023], [115.165664, -8.710023], [115.165803, -8.710744], [115.166654, -8.711023], [115.166752, -8.714795], [115.167633, -8.715023], [115.167718, -8.718829], [115.168617, -8.719023], [115.168691, -8.723857], [115.1696, -8.724023], [115.168682, -8.724181], [115.168579, -8.725077], [115.167691, -8.72519], [115.167583, -8.728081], [115.166712, -8.728211], [115.166524, -8.729122], [115.164734, -8.729232], [115.164631, -8.73013], [115.162901, -8.731399], [115.162659, -8.735023], [115.161802, -8.7353], [115.16162, -8.736119], [115.160829, -8.736328], [115.160634, -8.738132], [115.159868, -8.738366], [115.159696, -8.739023], [115.159674, -8.741173], [115.153416, -8.742023], [115.157758, -8.74279], [115.157886, -8.746385], [115.155753, -8.747023], [115.158624, -8.747123], [115.159174, -8.744023], [115.159524, -8.743745], [115.161524, -8.745621], [115.16547, -8.745023], [115.162524, -8.744777], [115.1619, -8.744023], [115.162524, -8.743549], [115.163901, -8.7434], [115.164229, -8.742023], [115.163167, -8.741023], [115.163524, -8.740698], [115.164524, -8.740822], [115.164984, -8.741563], [115.166616, -8.741931], [115.166759, -8.743788], [115.168524, -8.745352], [115.169524, -8.745498], [115.170377, -8.744875], [115.171524, -8.744831], [115.172524, -8.745654], [115.173524, -8.745638], [115.174524, -8.744839], [115.175739, -8.745809], [115.178833, -8.745714], [115.179847, -8.7467], [115.180524, -8.746713], [115.181258, -8.745757], [115.181785, -8.745762], [115.182014, -8.749023], [115.180845, -8.750023], [115.180787, -8.751286], [115.180073, -8.752023], [115.180524, -8.754839], [115.181094, -8.753593], [115.182802, -8.752301], [115.183256, -8.748023], [115.184279, -8.747023], [115.18433, -8.744023], [115.184136, -8.743411], [115.183355, -8.743023], [115.183344, -8.740842], [115.183731, -8.741023], [115.183984, -8.742563], [115.184524, -8.742793], [115.186011, -8.742509], [115.18626, -8.741023], [115.185322, -8.740023], [115.185009, -8.737538], [115.183172, -8.737023], [115.182917, -8.734023], [115.181524, -8.732743], [115.181383, -8.728882], [115.183524, -8.728735], [115.184236, -8.728023], [115.183089, -8.726458], [115.182395, -8.726152], [115.18237, -8.725023], [115.185524, -8.724257], [115.185924, -8.729023], [115.186961, -8.730023], [115.187017, -8.73253], [115.187524, -8.733348], [115.188213, -8.727712], [115.189717, -8.72883], [115.190001, -8.732023], [115.188712, -8.734023], [115.189524, -8.734293], [115.192086, -8.732023], [115.192102, -8.731023], [115.191201, -8.730023], [115.191348, -8.726847], [115.193878, -8.726377], [115.1949, -8.725023], [115.193964, -8.724584], [115.193173, -8.723374], [115.193266, -8.722765], [115.193952, -8.722451], [115.194524, -8.721495], [115.195797, -8.721296], [115.196524, -8.720562], [115.198524, -8.720285], [115.200643, -8.718904], [115.20069, -8.718023], [115.198524, -8.716567], [115.197292, -8.716791], [115.196524, -8.717556], [115.194733, -8.717023], [115.195134, -8.715632], [115.195817, -8.715023], [115.194524, -8.714628], [115.193946, -8.714023], [115.193915, -8.710632], [115.193524, -8.710312], [115.192722, -8.71122], [115.192348, -8.711023], [115.192205, -8.709704], [115.192874, -8.709023], [115.192043, -8.708504], [115.191951, -8.707023], [115.191524, -8.70667], [115.190524, -8.707784], [115.189524, -8.706567], [115.188524, -8.706562], [115.187905, -8.706023], [115.188029, -8.705023], [115.189088, -8.704023], [115.188667, -8.701023], [115.188524, -8.700702], [115.186524, -8.700433], [115.186672, -8.698875], [115.186356, -8.698023], [115.187524, -8.694934]]], "type": "Polygon"}, "type": "Feature"}], "type": "FeatureCollection"}