{"features": [{"properties": {"fill-opacity": 0.33, "fillColor": "#bf4040", "opacity": 0.33, "fill": "#bf4040", "fillOpacity": 0.33, "color": "#bf4040", "contour": 15.0, "metric": "time"}, "geometry": {"coordinates": [[[114.65817, -8.303576], [114.65517, -8.306112], [114.653861, -8.30608], [114.653184, -8.304756], [114.652153, -8.304754], [114.652993, -8.304948], [114.652682, -8.30677], [114.654391, -8.307549], [114.654429, -8.30877], [114.653559, -8.309159], [114.653284, -8.310885], [114.6525, -8.311101], [114.65227, -8.31287], [114.651461, -8.313062], [114.651258, -8.314858], [114.649423, -8.315024], [114.64925, -8.315851], [114.648403, -8.316004], [114.648245, -8.316846], [114.647389, -8.31699], [114.647241, -8.317842], [114.646379, -8.317979], [114.646273, -8.31977], [114.645395, -8.319996], [114.645283, -8.32077], [114.645278, -8.32877], [114.643414, -8.329015], [114.643292, -8.32977], [114.643414, -8.330526], [114.645247, -8.330693], [114.645293, -8.33177], [114.644437, -8.332038], [114.64417, -8.332946], [114.64217, -8.333035], [114.641434, -8.33377], [114.641643, -8.33577], [114.64217, -8.336297], [114.643102, -8.33577], [114.642844, -8.33477], [114.64317, -8.334559], [114.64517, -8.334622], [114.645458, -8.335482], [114.646322, -8.33577], [114.64629, -8.337891], [114.645544, -8.338145], [114.644396, -8.33977], [114.645387, -8.34077], [114.645405, -8.34177], [114.644446, -8.34277], [114.644394, -8.343995], [114.6436, -8.34477], [114.643578, -8.34577], [114.644677, -8.34777], [114.64417, -8.34927], [114.64517, -8.350078], [114.645715, -8.349316], [114.646508, -8.349432], [114.64717, -8.35226], [114.647551, -8.35077], [114.64817, -8.350145], [114.648776, -8.350164], [114.64917, -8.350757], [114.64976, -8.349361], [114.65017, -8.349167], [114.65117, -8.349711], [114.653156, -8.34877], [114.652541, -8.348399], [114.651838, -8.347103], [114.651833, -8.34577], [114.65317, -8.344424], [114.65517, -8.344281], [114.65568, -8.34377], [114.65517, -8.34326], [114.65417, -8.343184], [114.653812, -8.342412], [114.655825, -8.34177], [114.656031, -8.340909], [114.65517, -8.340647], [114.654843, -8.33977], [114.655839, -8.33877], [114.655637, -8.33577], [114.65617, -8.334599], [114.65555, -8.33439], [114.653837, -8.33477], [114.654615, -8.335326], [114.654549, -8.33777], [114.6527, -8.3383], [114.652331, -8.339931], [114.651003, -8.33977], [114.651031, -8.33577], [114.650892, -8.335048], [114.650043, -8.33477], [114.650927, -8.334527], [114.651051, -8.333652], [114.650944, -8.330996], [114.650066, -8.33077], [114.650084, -8.32577], [114.650327, -8.326613], [114.653014, -8.326615], [114.653118, -8.325719], [114.654012, -8.325612], [114.654115, -8.324716], [114.655002, -8.324603], [114.65511, -8.322711], [114.656305, -8.322635], [114.65717, -8.323247], [114.657488, -8.323088], [114.658589, -8.32219], [114.658883, -8.32077], [114.659915, -8.31977], [114.660023, -8.318624], [114.660751, -8.318352], [114.660972, -8.31677], [114.660775, -8.316166], [114.659989, -8.31577], [114.659861, -8.312079], [114.659065, -8.311875], [114.658842, -8.311098], [114.658054, -8.310886], [114.657809, -8.310131], [114.655939, -8.30977], [114.65617, -8.308447], [114.65717, -8.30936], [114.65817, -8.309344], [114.65917, -8.308177], [114.660879, -8.30777], [114.656934, -8.307007], [114.656877, -8.306478], [114.65843, -8.30477], [114.65817, -8.303576]]], "type": "Polygon"}, "type": "Feature"}], "type": "FeatureCollection"}