{"features": [{"properties": {"fill-opacity": 0.33, "fillColor": "#bf4040", "opacity": 0.33, "fill": "#bf4040", "fillOpacity": 0.33, "color": "#bf4040", "contour": 15.0, "metric": "time"}, "geometry": {"coordinates": [[[115.334658, -8.110609], [115.334002, -8.111265], [115.333658, -8.113507], [115.333128, -8.112795], [115.331658, -8.112586], [115.330658, -8.111599], [115.329215, -8.111821], [115.329089, -8.112695], [115.327334, -8.112941], [115.327087, -8.114265], [115.326026, -8.115265], [115.325658, -8.119495], [115.324358, -8.119265], [115.323658, -8.11491], [115.322977, -8.116583], [115.322276, -8.116648], [115.321658, -8.116026], [115.320969, -8.116265], [115.321015, -8.117621], [115.319238, -8.117685], [115.318658, -8.116631], [115.317362, -8.117968], [115.317658, -8.119619], [115.318172, -8.118778], [115.318658, -8.118661], [115.319959, -8.119964], [115.320658, -8.123696], [115.321366, -8.120973], [115.324658, -8.121013], [115.325236, -8.123687], [115.326242, -8.124681], [115.327845, -8.125078], [115.326658, -8.126672], [115.325297, -8.126903], [115.324268, -8.128265], [115.324654, -8.13026], [115.324171, -8.131265], [115.325658, -8.131564], [115.326336, -8.129943], [115.328057, -8.129664], [115.328658, -8.127012], [115.329804, -8.12712], [115.328923, -8.128265], [115.328951, -8.129265], [115.329658, -8.129973], [115.33013, -8.129737], [115.331418, -8.128265], [115.331454, -8.126265], [115.332284, -8.125891], [115.332555, -8.123162], [115.334658, -8.123135], [115.334904, -8.12402], [115.335737, -8.124187], [115.335888, -8.125036], [115.336765, -8.125265], [115.335877, -8.125483], [115.335882, -8.128041], [115.338449, -8.128055], [115.338723, -8.127201], [115.33884, -8.129084], [115.339718, -8.129206], [115.33984, -8.131084], [115.340736, -8.131265], [115.34073, -8.134265], [115.339796, -8.134403], [115.339727, -8.136265], [115.339795, -8.137128], [115.340723, -8.137265], [115.340784, -8.140139], [115.343529, -8.140136], [115.343614, -8.139221], [115.344523, -8.139129], [115.344611, -8.137218], [115.345513, -8.13712], [115.345609, -8.136216], [115.346508, -8.136115], [115.346607, -8.135214], [115.347502, -8.135108], [115.347754, -8.13417], [115.34789, -8.135034], [115.348733, -8.13519], [115.348877, -8.136047], [115.350732, -8.136192], [115.350886, -8.137037], [115.353428, -8.137035], [115.353752, -8.136171], [115.353995, -8.137928], [115.354774, -8.138149], [115.355017, -8.138906], [115.3563, -8.138906], [115.35631, -8.136613], [115.3555, -8.136265], [115.356364, -8.13597], [115.356658, -8.13413], [115.356958, -8.134965], [115.357763, -8.13516], [115.357988, -8.135935], [115.358927, -8.136265], [115.35921, -8.137713], [115.359658, -8.137938], [115.360475, -8.137081], [115.360891, -8.137265], [115.360924, -8.140531], [115.35815, -8.141265], [115.360016, -8.141907], [115.360413, -8.144019], [115.360031, -8.144265], [115.360493, -8.144431], [115.361349, -8.141955], [115.363003, -8.141921], [115.363105, -8.143265], [115.363452, -8.143472], [115.36545, -8.142265], [115.364251, -8.141672], [115.364365, -8.140971], [115.365409, -8.141265], [115.365658, -8.142066], [115.366658, -8.142116], [115.367677, -8.141265], [115.36736, -8.139564], [115.366809, -8.139265], [115.368816, -8.139423], [115.369658, -8.138163], [115.370663, -8.138269], [115.372239, -8.136846], [115.374114, -8.136265], [115.372279, -8.135644], [115.372199, -8.134806], [115.372851, -8.134265], [115.372658, -8.133614], [115.371309, -8.132615], [115.370658, -8.131342], [115.37006, -8.132666], [115.369187, -8.132794], [115.368908, -8.134514], [115.366489, -8.134435], [115.367658, -8.132864], [115.369132, -8.132738], [115.369399, -8.130265], [115.368236, -8.129687], [115.367658, -8.128827], [115.361658, -8.128554], [115.360658, -8.12946], [115.360289, -8.128634], [115.359543, -8.128381], [115.35931, -8.127613], [115.358658, -8.127439], [115.358007, -8.127613], [115.357764, -8.129371], [115.355658, -8.129403], [115.355658, -8.129133], [115.357381, -8.128987], [115.357373, -8.12655], [115.356658, -8.126408], [115.355944, -8.12655], [115.355658, -8.127397], [115.353922, -8.127529], [115.35374, -8.128346], [115.35289, -8.128496], [115.352588, -8.129336], [115.352584, -8.128191], [115.353432, -8.128039], [115.353537, -8.126386], [115.353398, -8.125526], [115.352529, -8.125265], [115.352321, -8.123603], [115.349658, -8.123424], [115.348976, -8.123583], [115.34857, -8.124353], [115.348567, -8.123173], [115.34937, -8.122977], [115.349362, -8.120561], [115.347954, -8.120561], [115.347558, -8.121366], [115.347363, -8.119561], [115.346563, -8.11936], [115.346375, -8.118548], [115.345428, -8.118265], [115.344248, -8.116676], [115.343524, -8.116399], [115.343257, -8.115667], [115.342455, -8.115468], [115.342232, -8.113692], [115.341501, -8.113422], [115.341157, -8.112766], [115.339473, -8.11245], [115.338658, -8.111574], [115.335658, -8.111695], [115.334658, -8.110609]]], "type": "Polygon"}, "type": "Feature"}], "type": "FeatureCollection"}