{"features": [{"properties": {"fill-opacity": 0.33, "fillColor": "#bf4040", "opacity": 0.33, "fill": "#bf4040", "fillOpacity": 0.33, "color": "#bf4040", "contour": 15.0, "metric": "time"}, "geometry": {"coordinates": [[[115.192314, -8.636033], [115.191314, -8.635291], [115.190314, -8.636453], [115.187314, -8.638064], [115.185314, -8.636737], [115.183685, -8.638551], [115.182546, -8.639181], [115.181268, -8.641134], [115.180793, -8.643659], [115.179949, -8.644181], [115.181711, -8.644784], [115.181681, -8.645547], [115.177588, -8.645907], [115.176314, -8.644655], [115.174314, -8.646759], [115.172314, -8.647325], [115.170314, -8.648872], [115.170071, -8.649181], [115.170834, -8.650181], [115.169848, -8.651181], [115.170028, -8.652467], [115.171577, -8.654181], [115.170618, -8.655181], [115.17085, -8.655645], [115.172582, -8.656181], [115.170888, -8.656754], [115.170674, -8.657181], [115.171669, -8.658181], [115.170387, -8.660181], [115.170959, -8.661536], [115.172314, -8.662833], [115.173975, -8.661842], [115.174502, -8.661993], [115.174786, -8.664181], [115.17438, -8.665181], [115.176244, -8.667181], [115.176258, -8.668181], [115.176943, -8.668552], [115.177118, -8.670377], [115.179194, -8.672181], [115.178411, -8.674181], [115.180314, -8.675197], [115.182314, -8.676966], [115.182649, -8.678846], [115.183526, -8.680181], [115.182269, -8.681135], [115.18164, -8.682506], [115.178586, -8.683452], [115.17831, -8.684185], [115.179884, -8.684611], [115.18006, -8.685181], [115.179939, -8.685805], [115.17922, -8.686181], [115.179314, -8.686552], [115.182314, -8.686809], [115.184314, -8.689176], [115.185314, -8.689455], [115.186314, -8.690499], [115.187621, -8.690874], [115.188314, -8.691896], [115.189314, -8.692152], [115.192314, -8.6914], [115.193314, -8.692282], [115.194116, -8.691982], [115.194798, -8.690664], [115.196146, -8.690012], [115.198273, -8.690222], [115.198959, -8.689825], [115.203439, -8.685181], [115.205314, -8.68444], [115.207314, -8.684653], [115.208314, -8.683263], [115.211798, -8.681181], [115.213314, -8.67952], [115.214051, -8.677917], [115.215138, -8.677181], [115.215308, -8.676175], [115.217881, -8.674181], [115.219314, -8.671913], [115.220314, -8.671855], [115.220314, -8.670969], [115.219071, -8.670181], [115.221314, -8.669533], [115.221535, -8.669181], [115.221046, -8.667913], [115.222625, -8.667181], [115.220393, -8.665181], [115.220414, -8.664181], [115.219389, -8.663181], [115.220374, -8.662181], [115.218697, -8.660181], [115.218823, -8.659689], [115.219708, -8.659181], [115.218763, -8.658732], [115.217845, -8.65765], [115.21913, -8.656181], [115.217891, -8.655604], [115.217314, -8.653487], [115.21645, -8.655317], [115.215773, -8.654722], [115.214039, -8.654456], [115.214027, -8.652893], [115.215238, -8.652181], [115.215816, -8.651181], [115.213314, -8.648573], [115.212146, -8.648349], [115.211781, -8.646181], [115.209404, -8.644091], [115.208834, -8.644701], [115.20714, -8.645181], [115.207781, -8.645714], [115.207699, -8.646566], [115.205831, -8.646664], [115.205059, -8.645181], [115.202905, -8.64359], [115.202314, -8.64207], [115.201314, -8.642466], [115.200314, -8.641692], [115.198314, -8.641291], [115.198846, -8.640181], [115.197314, -8.638378], [115.196314, -8.638654], [115.195314, -8.638104], [115.194314, -8.638685], [115.192719, -8.637181], [115.192314, -8.636033]]], "type": "Polygon"}, "type": "Feature"}], "type": "FeatureCollection"}