{"features": [{"properties": {"fill-opacity": 0.33, "fillColor": "#bf4040", "opacity": 0.33, "fill": "#bf4040", "fillOpacity": 0.33, "color": "#bf4040", "contour": 15.0, "metric": "time"}, "geometry": {"coordinates": [[[115.203429, -8.1352], [115.202714, -8.136569], [115.20102, -8.136875], [115.200748, -8.138284], [115.199933, -8.138789], [115.199653, -8.140284], [115.19887, -8.140725], [115.198429, -8.141612], [115.19701, -8.141865], [115.196429, -8.142664], [115.19506, -8.142653], [115.194429, -8.141979], [115.192471, -8.142284], [115.193855, -8.142858], [115.194429, -8.143732], [115.198614, -8.1441], [115.198697, -8.145552], [115.197998, -8.146284], [115.198164, -8.147284], [115.199692, -8.147022], [115.200116, -8.148598], [115.201429, -8.150448], [115.201851, -8.150284], [115.20197, -8.146284], [115.203131, -8.144986], [115.203574, -8.14514], [115.20389, -8.145823], [115.206654, -8.14806], [115.207037, -8.150677], [115.208429, -8.152345], [115.209789, -8.151284], [115.208797, -8.148916], [115.208153, -8.14856], [115.207871, -8.146843], [115.207223, -8.14649], [115.20711, -8.145965], [115.208747, -8.145967], [115.209429, -8.146636], [115.210922, -8.146791], [115.211429, -8.14757], [115.212429, -8.147616], [115.213884, -8.14674], [115.214301, -8.145156], [115.21615, -8.145006], [115.216429, -8.143211], [115.216595, -8.144118], [115.217519, -8.144284], [115.217619, -8.146094], [115.219239, -8.146094], [115.219476, -8.144238], [115.219576, -8.147138], [115.220479, -8.147234], [115.220585, -8.148129], [115.222484, -8.148229], [115.222603, -8.149111], [115.223488, -8.149225], [115.22361, -8.150103], [115.224491, -8.150222], [115.22462, -8.151094], [115.226238, -8.151094], [115.226365, -8.15022], [115.2275, -8.150214], [115.227646, -8.151067], [115.228545, -8.151284], [115.228568, -8.155284], [115.22773, -8.155586], [115.227429, -8.158469], [115.226976, -8.157738], [115.225261, -8.157452], [115.224234, -8.156479], [115.22386, -8.154853], [115.221708, -8.153005], [115.220235, -8.153284], [115.222669, -8.156044], [115.222964, -8.157749], [115.225666, -8.160284], [115.225613, -8.161468], [115.224732, -8.162284], [115.224915, -8.165284], [115.226055, -8.166284], [115.226429, -8.167794], [115.226837, -8.165284], [115.226105, -8.164609], [115.226082, -8.163284], [115.226905, -8.16276], [115.227275, -8.16113], [115.229067, -8.159922], [115.229272, -8.157284], [115.230136, -8.156991], [115.230282, -8.156284], [115.2302, -8.149513], [115.229356, -8.149358], [115.229216, -8.148498], [115.225429, -8.148379], [115.225249, -8.147464], [115.224345, -8.147284], [115.224265, -8.145449], [115.222351, -8.145284], [115.223261, -8.145116], [115.223429, -8.143208], [115.223587, -8.144126], [115.224483, -8.14423], [115.224595, -8.145118], [115.226429, -8.145199], [115.227258, -8.145113], [115.227367, -8.143222], [115.229227, -8.143082], [115.229227, -8.141486], [115.228365, -8.141349], [115.228246, -8.140468], [115.227342, -8.140284], [115.227259, -8.138455], [115.226373, -8.13834], [115.226266, -8.137448], [115.225375, -8.137338], [115.225267, -8.136447], [115.222594, -8.136449], [115.222481, -8.137337], [115.221581, -8.137436], [115.221429, -8.138354], [115.221286, -8.137427], [115.218429, -8.137352], [115.218288, -8.136426], [115.216429, -8.136356], [115.215573, -8.136428], [115.215501, -8.137284], [115.215573, -8.13814], [115.216498, -8.138284], [115.216429, -8.140359], [115.216265, -8.138449], [115.215373, -8.13834], [115.215257, -8.137457], [115.213518, -8.137373], [115.212613, -8.137468], [115.212429, -8.138374], [115.210615, -8.138471], [115.210429, -8.139388], [115.210208, -8.138505], [115.207429, -8.138407], [115.206674, -8.138529], [115.206429, -8.139416], [115.203746, -8.139602], [115.203534, -8.140389], [115.202429, -8.140455], [115.202215, -8.13907], [115.203821, -8.137284], [115.203429, -8.1352]]], "type": "Polygon"}, "type": "Feature"}], "type": "FeatureCollection"}