{"features": [{"properties": {"fill-opacity": 0.33, "fillColor": "#bf4040", "opacity": 0.33, "fill": "#bf4040", "fillOpacity": 0.33, "color": "#bf4040", "contour": 15.0, "metric": "time"}, "geometry": {"coordinates": [[[114.883009, -8.381725], [114.88174, -8.382634], [114.881285, -8.384179], [114.880009, -8.384262], [114.879009, -8.385173], [114.878009, -8.38516], [114.877009, -8.386128], [114.869009, -8.386033], [114.868269, -8.386163], [114.868009, -8.387025], [114.864217, -8.38711], [114.864077, -8.38797], [114.863209, -8.388103], [114.863074, -8.388968], [114.860232, -8.389126], [114.860009, -8.390019], [114.858251, -8.390145], [114.858093, -8.390987], [114.857274, -8.391168], [114.857104, -8.392997], [114.856315, -8.393208], [114.856009, -8.394077], [114.854009, -8.394144], [114.853009, -8.395135], [114.851009, -8.395191], [114.850009, -8.396251], [114.846534, -8.396428], [114.844918, -8.397812], [114.845009, -8.399074], [114.845152, -8.398046], [114.85221, -8.398702], [114.852009, -8.399816], [114.850809, -8.399903], [114.850478, -8.401903], [114.852355, -8.402903], [114.852347, -8.404241], [114.851636, -8.404903], [114.851708, -8.406903], [114.852009, -8.406952], [114.852614, -8.405508], [114.853338, -8.405231], [114.853583, -8.403903], [114.854009, -8.403536], [114.854596, -8.403903], [114.85507, -8.405903], [114.855421, -8.403903], [114.856481, -8.402903], [114.854711, -8.401903], [114.856496, -8.40139], [114.856777, -8.399903], [114.857598, -8.399492], [114.85789, -8.397784], [114.859009, -8.397751], [114.859305, -8.398607], [114.860146, -8.398766], [114.8601, -8.399994], [114.85929, -8.400183], [114.859168, -8.402903], [114.858357, -8.403251], [114.858205, -8.405903], [114.857224, -8.406903], [114.857324, -8.410903], [114.856419, -8.411903], [114.856664, -8.414247], [114.857354, -8.414247], [114.857583, -8.412903], [114.858652, -8.411903], [114.858775, -8.407903], [114.859586, -8.40748], [114.859798, -8.406903], [114.859893, -8.404787], [114.860672, -8.404565], [114.860859, -8.401903], [114.861732, -8.401625], [114.861924, -8.399817], [114.86276, -8.399654], [114.862895, -8.396903], [114.863792, -8.396686], [114.863944, -8.393837], [114.865091, -8.393903], [114.864182, -8.394075], [114.864182, -8.39573], [114.866079, -8.395903], [114.866074, -8.399903], [114.865146, -8.40004], [114.865058, -8.401952], [114.864162, -8.402055], [114.864062, -8.402955], [114.863173, -8.403066], [114.863173, -8.404739], [114.865851, -8.404745], [114.865958, -8.403852], [114.866861, -8.403755], [114.866963, -8.401857], [114.867874, -8.401768], [114.867863, -8.394048], [114.866957, -8.393955], [114.86684, -8.392072], [114.865951, -8.39196], [114.865825, -8.390086], [114.864943, -8.389837], [114.865807, -8.389701], [114.866009, -8.388795], [114.867092, -8.388819], [114.867291, -8.389621], [114.869868, -8.389762], [114.87072, -8.389614], [114.871009, -8.388754], [114.876009, -8.3887], [114.876241, -8.391135], [114.874739, -8.392632], [114.874686, -8.393903], [114.875009, -8.394225], [114.876009, -8.393373], [114.877009, -8.394478], [114.877585, -8.393903], [114.877777, -8.392671], [114.878687, -8.391903], [114.878706, -8.390903], [114.877752, -8.389903], [114.877856, -8.388749], [114.879009, -8.388642], [114.880009, -8.389606], [114.881009, -8.389579], [114.882629, -8.387903], [114.882009, -8.387283], [114.878763, -8.386903], [114.88047, -8.386363], [114.881009, -8.385531], [114.882388, -8.385282], [114.88265, -8.383544], [114.883278, -8.383171], [114.883791, -8.381903], [114.883009, -8.381725]]], "type": "Polygon"}, "type": "Feature"}], "type": "FeatureCollection"}