{"features": [{"properties": {"fill-opacity": 0.33, "fillColor": "#bf4040", "opacity": 0.33, "fill": "#bf4040", "fillOpacity": 0.33, "color": "#bf4040", "contour": 15.0, "metric": "time"}, "geometry": {"coordinates": [[[115.104044, -8.166524], [115.103413, -8.168827], [115.103044, -8.169076], [115.102044, -8.16841], [115.101514, -8.168458], [115.101895, -8.168607], [115.101815, -8.169686], [115.102522, -8.170458], [115.10226, -8.173674], [115.100563, -8.173977], [115.099674, -8.175088], [115.098836, -8.17525], [115.098505, -8.176458], [115.097232, -8.177646], [115.096044, -8.177696], [115.095282, -8.178458], [115.095501, -8.180001], [115.097207, -8.181458], [115.097197, -8.182458], [115.09636, -8.182774], [115.096202, -8.183458], [115.09637, -8.185132], [115.098133, -8.185369], [115.098117, -8.187531], [115.097798, -8.186703], [115.095897, -8.186458], [115.095835, -8.181458], [115.095626, -8.180876], [115.094812, -8.180458], [115.094722, -8.177458], [115.095679, -8.176458], [115.095525, -8.174458], [115.095044, -8.173977], [115.094044, -8.173137], [115.093189, -8.173458], [115.09448, -8.175458], [115.092397, -8.177458], [115.093331, -8.178458], [115.093245, -8.182458], [115.093446, -8.183055], [115.094221, -8.183458], [115.094044, -8.185615], [115.093665, -8.183836], [115.091813, -8.182458], [115.091525, -8.176458], [115.092007, -8.175458], [115.091044, -8.174075], [115.090315, -8.177729], [115.08967, -8.177831], [115.088044, -8.17709], [115.087982, -8.177458], [115.089318, -8.179183], [115.089579, -8.180923], [115.090229, -8.181272], [115.090468, -8.184034], [115.09222, -8.185458], [115.09233, -8.190458], [115.093202, -8.191299], [115.093452, -8.194049], [115.095044, -8.194249], [115.096044, -8.195189], [115.097193, -8.195308], [115.09746, -8.196041], [115.099333, -8.197458], [115.099593, -8.198909], [115.100443, -8.199458], [115.101044, -8.201949], [115.101687, -8.198458], [115.10083, -8.197672], [115.100886, -8.196458], [115.101763, -8.196177], [115.101917, -8.194458], [115.10282, -8.194234], [115.102977, -8.193391], [115.104097, -8.193404], [115.104128, -8.195458], [115.103244, -8.195658], [115.103265, -8.199236], [115.104167, -8.199458], [115.104366, -8.204458], [115.105566, -8.205458], [115.106044, -8.206422], [115.106663, -8.204458], [115.107894, -8.204308], [115.107972, -8.193458], [115.1079, -8.192601], [115.105993, -8.192509], [115.105878, -8.190623], [115.104951, -8.190458], [115.10724, -8.190261], [115.10743, -8.191458], [115.108044, -8.192072], [115.109709, -8.190458], [115.109459, -8.189042], [115.10854, -8.187961], [115.107803, -8.187698], [115.107632, -8.185869], [115.106942, -8.185356], [115.109232, -8.185269], [115.109613, -8.186888], [115.111488, -8.188014], [115.112044, -8.188931], [115.112897, -8.188458], [115.111595, -8.186458], [115.11233, -8.183458], [115.111567, -8.182934], [115.111044, -8.181871], [115.110674, -8.183458], [115.110327, -8.183741], [115.109807, -8.183458], [115.109884, -8.181298], [115.111044, -8.181083], [115.111961, -8.179458], [115.110506, -8.178458], [115.11032, -8.177458], [115.110024, -8.177439], [115.109781, -8.178458], [115.109044, -8.178827], [115.108044, -8.177186], [115.106772, -8.177458], [115.106844, -8.179658], [115.10829, -8.180211], [115.108297, -8.182458], [115.107178, -8.183592], [115.105919, -8.183458], [115.105944, -8.182358], [115.106728, -8.182142], [115.106886, -8.181458], [115.106728, -8.180773], [115.105886, -8.180458], [115.10585, -8.177458], [115.105483, -8.176458], [115.105746, -8.175458], [115.10548, -8.174458], [115.106394, -8.173458], [115.105499, -8.172002], [115.104695, -8.171458], [115.104044, -8.166524]]], "type": "Polygon"}, "type": "Feature"}], "type": "FeatureCollection"}