{"features": [{"properties": {"fill-opacity": 0.33, "fillColor": "#bf4040", "opacity": 0.33, "fill": "#bf4040", "fillOpacity": 0.33, "color": "#bf4040", "contour": 15.0, "metric": "time"}, "geometry": {"coordinates": [[[114.69163, -8.155726], [114.69063, -8.156504], [114.68863, -8.155655], [114.687196, -8.156492], [114.68663, -8.157362], [114.68463, -8.158054], [114.68363, -8.156922], [114.683385, -8.157681], [114.682133, -8.157926], [114.681466, -8.158762], [114.681094, -8.160926], [114.681469, -8.163926], [114.680749, -8.164926], [114.680945, -8.16561], [114.68177, -8.165926], [114.680885, -8.16618], [114.680761, -8.167057], [114.679953, -8.167248], [114.679722, -8.169018], [114.678895, -8.16919], [114.678716, -8.170011], [114.677876, -8.170172], [114.677728, -8.173926], [114.677826, -8.17473], [114.678724, -8.174832], [114.67881, -8.175745], [114.679714, -8.175926], [114.679773, -8.180783], [114.680676, -8.18088], [114.680757, -8.182798], [114.681672, -8.182883], [114.681756, -8.183799], [114.683504, -8.183799], [114.683567, -8.181926], [114.683504, -8.181052], [114.682564, -8.180926], [114.682492, -8.179064], [114.681558, -8.178926], [114.681546, -8.175926], [114.682444, -8.17574], [114.682531, -8.173926], [114.683412, -8.173708], [114.68355, -8.171846], [114.68463, -8.171776], [114.684834, -8.173926], [114.685039, -8.174517], [114.685863, -8.174926], [114.686143, -8.176412], [114.68663, -8.176655], [114.68736, -8.175926], [114.687404, -8.173926], [114.686448, -8.172926], [114.686463, -8.170759], [114.687285, -8.170581], [114.687515, -8.169811], [114.688266, -8.169562], [114.688448, -8.168926], [114.688266, -8.168289], [114.687518, -8.168038], [114.687305, -8.16725], [114.686471, -8.166926], [114.686447, -8.164926], [114.687208, -8.164503], [114.687419, -8.163926], [114.68746, -8.161756], [114.691889, -8.157185], [114.692235, -8.155926], [114.69163, -8.155726]]], "type": "Polygon"}, "type": "Feature"}], "type": "FeatureCollection"}