{"features": [{"properties": {"fill-opacity": 0.33, "fillColor": "#bf4040", "opacity": 0.33, "fill": "#bf4040", "fillOpacity": 0.33, "color": "#bf4040", "contour": 15.0, "metric": "time"}, "geometry": {"coordinates": [[[95.314624, 5.534614], [95.312624, 5.533097], [95.31073, 5.532609], [95.309624, 5.531181], [95.308624, 5.531349], [95.308113, 5.529715], [95.306624, 5.528201], [95.30539, 5.52848], [95.305534, 5.529715], [95.304149, 5.530239], [95.303624, 5.531365], [95.300976, 5.529363], [95.299624, 5.527488], [95.297624, 5.527159], [95.296011, 5.528101], [95.295624, 5.529127], [95.295288, 5.529051], [95.294482, 5.527857], [95.294429, 5.525909], [95.29598, 5.525071], [95.296211, 5.523715], [95.294767, 5.522572], [95.293624, 5.523252], [95.292247, 5.523092], [95.29253, 5.521715], [95.291565, 5.519715], [95.288829, 5.517509], [95.288467, 5.515872], [95.287365, 5.514715], [95.287211, 5.513715], [95.288624, 5.512596], [95.288961, 5.513715], [95.289624, 5.514196], [95.290858, 5.513949], [95.292001, 5.512715], [95.291952, 5.511715], [95.290915, 5.510715], [95.290863, 5.507476], [95.290321, 5.507412], [95.289216, 5.508307], [95.288624, 5.509485], [95.288234, 5.507715], [95.290259, 5.505349], [95.290969, 5.50506], [95.291477, 5.503568], [95.292725, 5.503614], [95.292052, 5.504715], [95.292409, 5.50693], [95.293624, 5.506991], [95.294468, 5.507871], [95.294833, 5.507715], [95.294851, 5.506715], [95.29413, 5.506209], [95.293892, 5.504983], [95.294143, 5.504234], [95.294934, 5.503715], [95.293624, 5.502542], [95.292907, 5.502432], [95.292937, 5.501715], [95.293166, 5.501257], [95.294836, 5.500715], [95.294804, 5.494715], [95.294984, 5.494075], [95.295817, 5.493715], [95.295901, 5.489715], [95.295624, 5.489315], [95.294234, 5.489105], [95.29399, 5.487349], [95.292063, 5.486715], [95.294624, 5.486282], [95.297434, 5.488904], [95.299624, 5.489049], [95.301261, 5.490078], [95.301509, 5.490829], [95.302299, 5.49104], [95.302467, 5.491871], [95.302795, 5.491715], [95.302936, 5.490026], [95.304767, 5.489858], [95.306345, 5.489994], [95.30654, 5.491799], [95.307624, 5.49183], [95.307859, 5.49095], [95.308741, 5.490715], [95.308885, 5.487976], [95.309763, 5.487715], [95.30993, 5.486021], [95.311729, 5.48582], [95.311971, 5.484062], [95.313753, 5.483843], [95.314078, 5.482169], [95.314782, 5.481872], [95.315126, 5.481216], [95.316828, 5.480919], [95.319624, 5.478442], [95.320862, 5.479476], [95.321058, 5.481148], [95.319367, 5.481458], [95.319122, 5.483213], [95.318624, 5.483265], [95.317624, 5.4844], [95.316453, 5.484543], [95.315422, 5.485715], [95.316624, 5.486996], [95.318624, 5.48707], [95.319624, 5.485742], [95.320216, 5.486122], [95.320624, 5.487917], [95.32107, 5.48716], [95.322824, 5.486715], [95.322791, 5.485548], [95.32187, 5.484715], [95.321884, 5.482455], [95.321239, 5.48133], [95.323624, 5.481066], [95.324624, 5.482119], [95.326624, 5.482329], [95.327624, 5.483067], [95.328031, 5.482715], [95.328098, 5.481715], [95.327307, 5.480715], [95.327624, 5.478898], [95.328187, 5.480152], [95.329624, 5.480067], [95.331624, 5.481548], [95.332624, 5.481187], [95.333971, 5.482368], [95.334124, 5.482715], [95.331624, 5.4832], [95.331003, 5.484094], [95.329402, 5.484493], [95.329089, 5.485715], [95.330449, 5.486715], [95.329994, 5.488084], [95.329312, 5.488715], [95.329624, 5.489026], [95.333624, 5.489296], [95.334624, 5.488748], [95.335624, 5.489061], [95.336833, 5.488715], [95.337624, 5.491673], [95.33908, 5.492258], [95.339195, 5.492715], [95.338454, 5.493715], [95.338914, 5.494715], [95.339936, 5.495403], [95.340344, 5.496995], [95.34129, 5.497715], [95.340897, 5.498715], [95.34282, 5.499715], [95.342878, 5.500968], [95.342236, 5.502715], [95.343658, 5.502681], [95.344043, 5.506715], [95.343624, 5.50843], [95.343064, 5.508274], [95.341624, 5.506336], [95.340624, 5.506347], [95.340098, 5.507189], [95.338469, 5.50756], [95.338428, 5.50891], [95.33926, 5.509715], [95.338321, 5.510715], [95.338915, 5.512006], [95.3358, 5.515891], [95.334347, 5.516438], [95.334279, 5.517059], [95.334861, 5.517715], [95.333624, 5.519447], [95.332604, 5.519715], [95.333514, 5.520715], [95.332624, 5.522456], [95.331947, 5.521392], [95.331442, 5.521533], [95.33178, 5.523715], [95.330525, 5.526615], [95.33088, 5.527715], [95.330624, 5.528384], [95.329624, 5.528179], [95.328161, 5.529252], [95.327624, 5.530783], [95.326624, 5.531488], [95.324624, 5.529541], [95.323624, 5.529266], [95.321585, 5.529675], [95.320624, 5.531001], [95.318189, 5.53128], [95.317624, 5.532737], [95.316624, 5.53226], [95.314624, 5.534614]]], "type": "Polygon"}, "type": "Feature"}], "type": "FeatureCollection"}