{"features": [{"properties": {"fill-opacity": 0.33, "fillColor": "#bf4040", "opacity": 0.33, "fill": "#bf4040", "fillOpacity": 0.33, "color": "#bf4040", "contour": 15.0, "metric": "time"}, "geometry": {"coordinates": [[[96.363342, 2.426044], [96.362152, 2.425798], [96.360637, 2.424313], [96.358932, 2.424018], [96.356504, 2.421446], [96.354792, 2.421158], [96.353465, 2.419485], [96.351686, 2.419265], [96.35145, 2.418501], [96.350647, 2.418303], [96.350441, 2.41751], [96.348613, 2.417337], [96.34843, 2.416521], [96.347594, 2.416356], [96.347424, 2.415526], [96.34658, 2.41537], [96.346419, 2.414531], [96.345568, 2.414382], [96.345414, 2.413536], [96.343551, 2.4134], [96.343342, 2.412512], [96.33952, 2.41243], [96.339342, 2.411524], [96.337291, 2.411558], [96.337195, 2.412462], [96.336294, 2.41256], [96.336273, 2.413609], [96.337205, 2.413745], [96.3373, 2.416651], [96.337467, 2.415734], [96.339217, 2.415734], [96.339217, 2.417484], [96.338279, 2.417609], [96.33921, 2.41774], [96.339297, 2.418654], [96.340204, 2.418746], [96.340294, 2.420656], [96.341196, 2.420754], [96.341196, 2.422463], [96.338485, 2.422465], [96.338388, 2.420563], [96.337477, 2.420473], [96.337386, 2.419565], [96.33647, 2.419481], [96.336384, 2.418566], [96.335467, 2.418483], [96.335405, 2.416609], [96.334473, 2.416477], [96.334342, 2.414454], [96.332643, 2.414308], [96.332342, 2.413472], [96.330605, 2.413346], [96.330342, 2.412486], [96.327589, 2.412361], [96.327342, 2.411479], [96.32464, 2.41131], [96.324342, 2.410484], [96.323194, 2.410461], [96.322148, 2.411415], [96.321886, 2.414609], [96.320768, 2.415609], [96.320342, 2.417287], [96.319342, 2.417224], [96.31924, 2.416609], [96.319915, 2.415609], [96.318298, 2.413609], [96.319342, 2.413356], [96.319932, 2.414018], [96.320637, 2.413904], [96.320621, 2.411609], [96.317775, 2.411176], [96.317554, 2.409609], [96.317766, 2.409033], [96.318474, 2.408741], [96.318678, 2.406945], [96.321473, 2.406609], [96.320644, 2.406306], [96.320342, 2.405449], [96.318687, 2.405263], [96.318342, 2.404424], [96.316738, 2.404213], [96.316481, 2.403469], [96.315777, 2.403173], [96.314595, 2.401609], [96.314816, 2.396083], [96.315342, 2.393204], [96.316076, 2.400609], [96.317915, 2.402036], [96.31821, 2.402741], [96.319979, 2.402972], [96.320342, 2.403769], [96.322035, 2.403915], [96.322342, 2.40475], [96.322629, 2.403896], [96.326053, 2.403897], [96.32625, 2.4057], [96.327055, 2.405895], [96.327264, 2.406686], [96.329137, 2.406813], [96.329342, 2.407705], [96.331342, 2.407699], [96.331526, 2.405793], [96.333158, 2.405793], [96.333281, 2.406669], [96.334164, 2.406786], [96.334285, 2.407666], [96.335175, 2.407775], [96.335394, 2.408661], [96.335433, 2.404609], [96.334533, 2.404418], [96.334437, 2.403609], [96.334533, 2.4028], [96.33544, 2.402609], [96.334547, 2.402403], [96.334444, 2.401609], [96.334547, 2.400814], [96.335448, 2.400609], [96.335573, 2.39784], [96.336464, 2.397609], [96.336441, 2.39451], [96.332725, 2.394226], [96.33149, 2.392461], [96.330342, 2.392354], [96.329342, 2.391327], [96.327891, 2.391059], [96.327342, 2.390228], [96.325983, 2.389967], [96.324792, 2.388159], [96.323637, 2.387609], [96.325342, 2.387313], [96.32705, 2.3889], [96.328342, 2.388964], [96.32913, 2.38982], [96.330826, 2.390125], [96.331173, 2.390777], [96.332895, 2.391055], [96.334217, 2.392733], [96.335449, 2.392716], [96.335597, 2.386609], [96.334342, 2.385079], [96.332977, 2.384609], [96.333796, 2.383609], [96.333967, 2.380609], [96.335342, 2.379497], [96.335531, 2.380609], [96.334833, 2.381609], [96.335913, 2.382609], [96.336026, 2.384609], [96.337059, 2.385609], [96.337114, 2.387609], [96.337913, 2.388037], [96.338127, 2.388609], [96.337147, 2.389609], [96.337935, 2.390016], [96.33821, 2.39074], [96.33897, 2.390981], [96.339224, 2.391726], [96.339994, 2.391957], [96.340168, 2.392609], [96.339994, 2.393261], [96.339181, 2.393609], [96.339995, 2.393956], [96.339995, 2.395262], [96.338207, 2.395609], [96.339069, 2.395881], [96.339069, 2.397336], [96.33822, 2.397609], [96.339089, 2.397862], [96.339089, 2.399356], [96.337231, 2.399609], [96.337286, 2.406665], [96.340162, 2.406788], [96.340283, 2.409668], [96.34053, 2.408797], [96.342153, 2.408797], [96.34228, 2.41067], [96.34514, 2.41081], [96.345342, 2.411713], [96.347122, 2.411828], [96.347267, 2.412684], [96.348111, 2.41284], [96.348262, 2.413688], [96.349092, 2.413858], [96.349256, 2.414694], [96.350074, 2.414877], [96.35025, 2.4157], [96.35204, 2.41591], [96.352238, 2.416712], [96.353018, 2.416932], [96.353229, 2.417721], [96.354968, 2.417982], [96.355342, 2.418813], [96.356514, 2.41878], [96.356882, 2.417149], [96.357704, 2.416609], [96.35797, 2.413237], [96.358623, 2.413328], [96.358991, 2.417609], [96.358071, 2.418609], [96.35809, 2.420609], [96.360099, 2.422851], [96.361696, 2.423254], [96.363413, 2.425537], [96.363342, 2.426044]]], "type": "Polygon"}, "type": "Feature"}], "type": "FeatureCollection"}