{"features": [{"properties": {"fill-opacity": 0.33, "fillColor": "#bf4040", "opacity": 0.33, "fill": "#bf4040", "fillOpacity": 0.33, "color": "#bf4040", "contour": 15.0, "metric": "time"}, "geometry": {"coordinates": [[[97.828308, 4.292125], [97.827458, 4.292023], [97.827308, 4.292608], [97.827246, 4.291873], [97.826741, 4.291439], [97.825308, 4.291361], [97.82482, 4.290873], [97.824512, 4.282873], [97.824716, 4.282281], [97.825488, 4.281873], [97.825454, 4.276873], [97.82462, 4.27656], [97.824308, 4.275704], [97.822679, 4.275501], [97.822436, 4.274744], [97.821714, 4.274466], [97.821308, 4.273649], [97.81882, 4.27336], [97.81869, 4.269873], [97.817771, 4.268873], [97.817866, 4.267873], [97.817181, 4.266873], [97.817308, 4.266085], [97.817561, 4.266619], [97.818473, 4.266707], [97.818749, 4.267873], [97.819864, 4.268873], [97.820129, 4.272052], [97.822886, 4.272295], [97.824187, 4.273993], [97.825976, 4.274204], [97.826204, 4.274977], [97.827012, 4.275168], [97.827212, 4.275969], [97.828031, 4.276149], [97.828308, 4.277001], [97.829388, 4.276952], [97.829539, 4.276104], [97.830383, 4.275947], [97.830527, 4.275092], [97.831419, 4.274873], [97.831495, 4.266873], [97.831682, 4.266247], [97.832308, 4.26606], [97.832934, 4.266247], [97.833189, 4.266991], [97.833954, 4.267226], [97.834131, 4.267873], [97.833954, 4.268519], [97.833147, 4.268873], [97.833197, 4.274873], [97.835109, 4.275072], [97.835308, 4.275966], [97.839308, 4.275955], [97.839466, 4.275031], [97.842356, 4.274921], [97.842451, 4.274015], [97.845308, 4.27394], [97.845437, 4.273002], [97.84735, 4.272915], [97.847433, 4.271998], [97.848351, 4.271916], [97.848442, 4.271007], [97.849353, 4.270918], [97.849447, 4.270011], [97.858308, 4.269961], [97.858494, 4.269058], [97.859372, 4.268937], [97.859504, 4.268069], [97.860376, 4.26794], [97.860517, 4.267082], [97.861379, 4.266944], [97.86153, 4.266095], [97.866052, 4.266129], [97.866308, 4.267009], [97.868017, 4.267163], [97.868308, 4.268028], [97.869978, 4.268203], [97.870192, 4.268989], [97.870944, 4.269236], [97.87118, 4.27], [97.871911, 4.27027], [97.872308, 4.271096], [97.873489, 4.271054], [97.877308, 4.267426], [97.879657, 4.267873], [97.877939, 4.268504], [97.876722, 4.270287], [97.874308, 4.272599], [97.870736, 4.272444], [97.86943, 4.27075], [97.86866, 4.270521], [97.868418, 4.269763], [97.866602, 4.269578], [97.866403, 4.268778], [97.864577, 4.268604], [97.864393, 4.267787], [97.863308, 4.267757], [97.863095, 4.268659], [97.862238, 4.268803], [97.862103, 4.269668], [97.861242, 4.269807], [97.861114, 4.270679], [97.860245, 4.27081], [97.860124, 4.271688], [97.857308, 4.271787], [97.857143, 4.272708], [97.854468, 4.272713], [97.854308, 4.271796], [97.851261, 4.271826], [97.852161, 4.272019], [97.852233, 4.273873], [97.852158, 4.274723], [97.851232, 4.274873], [97.851152, 4.276717], [97.849464, 4.276717], [97.849355, 4.274825], [97.847308, 4.27481], [97.847177, 4.275742], [97.844308, 4.275804], [97.844163, 4.276728], [97.841308, 4.276796], [97.841148, 4.277713], [97.834308, 4.277776], [97.833502, 4.277679], [97.833308, 4.276771], [97.832308, 4.276767], [97.832086, 4.277651], [97.831231, 4.277796], [97.831066, 4.278631], [97.827214, 4.278778], [97.827115, 4.282873], [97.826922, 4.283487], [97.8261, 4.283873], [97.826007, 4.287873], [97.82856, 4.29062], [97.828308, 4.292125]]], "type": "Polygon"}, "type": "Feature"}], "type": "FeatureCollection"}