{"features": [{"properties": {"fill-opacity": 0.33, "fillColor": "#bf4040", "opacity": 0.33, "fill": "#bf4040", "fillOpacity": 0.33, "color": "#bf4040", "contour": 15.0, "metric": "time"}, "geometry": {"coordinates": [[[97.124574, 3.500401], [97.118574, 3.500176], [97.117912, 3.499515], [97.117891, 3.498197], [97.117294, 3.497515], [97.118911, 3.497177], [97.119574, 3.498757], [97.123574, 3.498638], [97.123775, 3.497716], [97.124638, 3.497579], [97.124754, 3.496695], [97.125631, 3.496571], [97.125734, 3.495674], [97.128574, 3.495584], [97.128703, 3.494643], [97.130619, 3.494559], [97.130723, 3.492663], [97.131657, 3.492515], [97.13178, 3.489721], [97.13534, 3.489749], [97.13534, 3.49128], [97.134505, 3.491446], [97.134386, 3.492327], [97.133515, 3.492455], [97.133411, 3.494352], [97.132524, 3.494465], [97.132437, 3.496378], [97.130531, 3.496471], [97.130441, 3.497382], [97.127521, 3.497461], [97.127401, 3.498342], [97.126513, 3.498454], [97.126378, 3.499318], [97.125505, 3.499445], [97.125346, 3.500287], [97.124574, 3.500401]]], "type": "Polygon"}, "type": "Feature"}], "type": "FeatureCollection"}