{"features": [{"properties": {"fill-opacity": 0.33, "fillColor": "#bf4040", "opacity": 0.33, "fill": "#bf4040", "fillOpacity": 0.33, "color": "#bf4040", "contour": 15.0, "metric": "time"}, "geometry": {"coordinates": [[[95.748007, 2.829407], [95.747316, 2.829253], [95.747106, 2.826462], [95.745336, 2.826232], [95.74512, 2.825449], [95.743388, 2.82518], [95.743008, 2.824356], [95.739008, 2.82426], [95.738007, 2.823211], [95.733458, 2.822561], [95.736007, 2.822053], [95.736608, 2.821162], [95.738007, 2.820948], [95.739814, 2.822754], [95.74462, 2.822948], [95.744884, 2.823685], [95.746674, 2.823895], [95.7469, 2.824668], [95.74871, 2.824858], [95.749007, 2.825696], [95.753007, 2.825673], [95.753208, 2.824761], [95.754073, 2.824626], [95.754196, 2.82375], [95.755098, 2.823561], [95.755081, 2.820488], [95.752007, 2.820402], [95.751326, 2.820243], [95.751008, 2.819385], [95.750008, 2.819364], [95.74946, 2.821013], [95.748391, 2.821944], [95.747008, 2.822073], [95.746495, 2.821561], [95.746666, 2.821219], [95.748206, 2.819759], [95.748455, 2.818008], [95.749217, 2.81777], [95.752007, 2.817728], [95.752673, 2.817895], [95.753007, 2.818703], [95.75409, 2.818643], [95.75425, 2.817803], [95.755765, 2.817803], [95.75593, 2.818638], [95.756789, 2.818779], [95.757007, 2.820646], [95.757144, 2.816698], [95.758052, 2.816605], [95.758134, 2.814687], [95.759007, 2.814624], [95.759881, 2.814687], [95.759942, 2.817496], [95.759874, 2.818427], [95.758938, 2.818561], [95.758954, 2.820614], [95.760065, 2.820619], [95.760183, 2.819737], [95.761068, 2.819621], [95.761194, 2.818748], [95.764811, 2.818758], [95.764939, 2.820629], [95.766787, 2.820782], [95.766896, 2.822561], [95.767764, 2.822804], [95.767925, 2.823644], [95.769737, 2.823831], [95.769868, 2.8247], [95.771008, 2.824713], [95.771188, 2.824381], [95.770386, 2.824182], [95.770197, 2.823561], [95.770415, 2.821968], [95.772156, 2.82171], [95.772516, 2.82007], [95.774572, 2.818126], [95.777008, 2.818048], [95.778008, 2.817189], [95.779615, 2.817561], [95.778563, 2.818116], [95.778008, 2.818967], [95.775766, 2.819319], [95.773835, 2.821388], [95.773548, 2.823102], [95.771874, 2.823428], [95.771827, 2.823741], [95.772664, 2.823904], [95.772685, 2.826238], [95.770008, 2.826417], [95.769296, 2.826273], [95.769147, 2.825421], [95.766253, 2.825315], [95.766088, 2.82448], [95.765243, 2.824326], [95.76508, 2.822488], [95.763216, 2.822353], [95.763007, 2.820467], [95.762819, 2.823373], [95.761196, 2.823373], [95.761007, 2.822474], [95.757952, 2.822505], [95.75782, 2.825374], [95.75691, 2.825561], [95.756805, 2.827358], [95.755007, 2.827458], [95.754784, 2.828337], [95.754008, 2.828449], [95.753231, 2.828337], [95.753007, 2.827449], [95.750008, 2.827432], [95.749721, 2.828275], [95.748909, 2.828462], [95.748699, 2.829253], [95.748007, 2.829407]]], "type": "Polygon"}, "type": "Feature"}], "type": "FeatureCollection"}