{"features": [{"properties": {"fill-opacity": 0.33, "fillColor": "#bf4040", "opacity": 0.33, "fill": "#bf4040", "fillOpacity": 0.33, "color": "#bf4040", "contour": 15.0, "metric": "time"}, "geometry": {"coordinates": [[[95.500071, 5.348491], [95.498071, 5.348331], [95.4975, 5.346352], [95.496071, 5.345027], [95.494428, 5.346709], [95.492071, 5.348163], [95.491949, 5.34723], [95.49528, 5.343561], [95.4953, 5.341352], [95.494493, 5.340931], [95.494282, 5.340352], [95.494186, 5.338237], [95.493402, 5.338021], [95.493176, 5.337247], [95.49237, 5.337053], [95.492168, 5.336255], [95.491351, 5.336073], [95.491161, 5.335262], [95.490334, 5.33509], [95.490155, 5.334269], [95.484273, 5.334151], [95.484134, 5.33229], [95.483256, 5.332168], [95.483131, 5.331293], [95.482244, 5.33118], [95.482128, 5.330296], [95.476218, 5.330205], [95.476119, 5.329305], [95.474208, 5.329215], [95.474116, 5.328307], [95.473204, 5.32822], [95.473115, 5.327309], [95.472199, 5.327224], [95.472114, 5.32631], [95.469204, 5.32622], [95.469071, 5.325284], [95.467211, 5.325213], [95.467071, 5.32428], [95.46522, 5.324204], [95.465123, 5.322301], [95.464229, 5.322195], [95.464125, 5.321299], [95.463236, 5.321188], [95.463127, 5.320296], [95.461249, 5.320175], [95.461174, 5.315352], [95.461276, 5.314557], [95.462179, 5.314352], [95.462071, 5.313225], [95.461765, 5.314046], [95.460902, 5.314352], [95.460633, 5.316913], [95.458525, 5.316898], [95.458525, 5.315806], [95.459265, 5.315352], [95.459401, 5.312682], [95.460172, 5.312453], [95.460346, 5.311627], [95.461159, 5.31144], [95.46133, 5.310611], [95.4632, 5.310352], [95.463166, 5.309258], [95.462363, 5.309061], [95.462173, 5.308251], [95.461384, 5.30804], [95.461242, 5.305523], [95.461424, 5.304705], [95.462199, 5.30448], [95.462485, 5.303765], [95.4633, 5.303352], [95.462339, 5.302352], [95.462379, 5.301045], [95.461629, 5.300794], [95.458857, 5.297352], [95.459071, 5.296408], [95.459317, 5.297107], [95.46029, 5.297134], [95.462482, 5.298942], [95.462764, 5.30066], [95.46355, 5.300874], [95.464822, 5.302352], [95.46465, 5.304931], [95.462906, 5.306352], [95.463764, 5.30666], [95.463973, 5.307451], [95.464784, 5.30764], [95.464932, 5.308491], [95.464817, 5.312098], [95.463954, 5.312352], [95.463859, 5.31614], [95.463003, 5.316284], [95.463009, 5.317414], [95.463888, 5.317536], [95.464013, 5.31841], [95.464903, 5.31852], [95.465017, 5.319407], [95.465909, 5.319514], [95.466019, 5.320405], [95.466916, 5.320507], [95.467022, 5.322402], [95.468929, 5.322495], [95.469071, 5.32342], [95.470938, 5.323486], [95.471071, 5.324417], [95.473946, 5.324478], [95.474029, 5.325395], [95.474942, 5.325482], [95.475027, 5.326396], [95.475937, 5.326487], [95.476071, 5.327422], [95.477928, 5.327495], [95.478071, 5.328426], [95.4839, 5.328524], [95.484014, 5.32941], [95.484894, 5.329529], [95.485011, 5.330413], [95.485885, 5.330538], [95.486071, 5.332453], [95.491818, 5.332606], [95.491984, 5.333439], [95.492802, 5.333621], [95.492978, 5.334446], [95.493777, 5.334647], [95.49397, 5.335453], [95.494755, 5.335669], [95.494961, 5.336463], [95.495724, 5.336699], [95.495876, 5.339352], [95.496847, 5.340352], [95.496821, 5.342352], [95.497544, 5.342879], [95.497835, 5.344588], [95.498674, 5.345352], [95.498742, 5.346682], [95.500951, 5.347352], [95.500071, 5.348491]]], "type": "Polygon"}, "type": "Feature"}], "type": "FeatureCollection"}