{"features": [{"properties": {"fill-opacity": 0.33, "fillColor": "#bf4040", "opacity": 0.33, "fill": "#bf4040", "fillOpacity": 0.33, "color": "#bf4040", "contour": 15.0, "metric": "time"}, "geometry": {"coordinates": [[[96.173157, 5.244102], [96.171644, 5.243485], [96.171847, 5.242485], [96.170532, 5.24111], [96.168619, 5.240485], [96.168751, 5.239485], [96.167442, 5.2382], [96.166157, 5.238061], [96.165157, 5.238933], [96.162792, 5.238485], [96.163024, 5.236352], [96.164157, 5.236101], [96.164635, 5.235485], [96.164584, 5.234059], [96.163952, 5.233485], [96.164157, 5.232778], [96.165157, 5.232924], [96.166157, 5.234021], [96.167157, 5.232839], [96.168157, 5.232827], [96.169157, 5.233772], [96.17426, 5.233588], [96.174237, 5.232406], [96.173387, 5.232256], [96.173227, 5.231415], [96.172354, 5.231289], [96.172252, 5.23039], [96.17134, 5.230302], [96.171214, 5.228429], [96.17032, 5.228322], [96.17021, 5.227433], [96.169311, 5.227332], [96.169303, 5.22463], [96.170204, 5.224532], [96.170223, 5.223551], [96.169283, 5.22336], [96.169283, 5.221611], [96.17203, 5.221613], [96.17208, 5.226485], [96.172986, 5.226656], [96.173063, 5.22958], [96.173382, 5.228709], [96.174237, 5.228565], [96.174415, 5.227743], [96.175303, 5.227485], [96.174487, 5.227156], [96.174545, 5.224873], [96.176157, 5.224668], [96.176791, 5.224851], [96.177011, 5.227485], [96.177861, 5.227781], [96.178045, 5.229597], [96.178776, 5.229867], [96.179009, 5.230634], [96.180296, 5.231624], [96.181429, 5.230485], [96.181423, 5.229219], [96.180632, 5.228485], [96.181157, 5.226392], [96.181841, 5.227802], [96.182547, 5.228095], [96.182955, 5.229687], [96.184589, 5.230053], [96.184745, 5.231897], [96.185702, 5.232485], [96.185581, 5.233485], [96.187157, 5.234991], [96.188371, 5.235271], [96.189212, 5.236539], [96.189118, 5.238445], [96.188157, 5.238235], [96.187425, 5.237218], [96.186157, 5.237976], [96.185447, 5.237196], [96.184157, 5.237152], [96.182157, 5.235252], [96.181157, 5.236196], [96.180683, 5.235959], [96.180157, 5.234284], [96.179042, 5.23437], [96.179943, 5.235485], [96.179728, 5.236056], [96.178157, 5.237236], [96.176275, 5.235367], [96.175042, 5.23537], [96.175015, 5.236627], [96.175713, 5.23693], [96.175981, 5.238661], [96.176864, 5.239485], [96.17675, 5.242485], [96.176157, 5.243078], [96.173746, 5.243074], [96.173157, 5.244102]]], "type": "Polygon"}, "type": "Feature"}], "type": "FeatureCollection"}