{"features": [{"properties": {"fill-opacity": 0.33, "fillColor": "#bf4040", "opacity": 0.33, "fill": "#bf4040", "fillOpacity": 0.33, "color": "#bf4040", "contour": 15.0, "metric": "time"}, "geometry": {"coordinates": [[[95.435675, 5.118756], [95.435027, 5.117289], [95.435871, 5.116484], [95.436094, 5.114708], [95.439675, 5.114419], [95.439895, 5.113508], [95.440766, 5.113289], [95.439864, 5.113099], [95.439747, 5.110217], [95.436974, 5.109989], [95.436845, 5.107119], [95.435284, 5.10668], [95.434927, 5.105289], [95.435306, 5.104919], [95.436408, 5.105555], [95.438157, 5.105807], [95.438575, 5.108388], [95.44146, 5.108504], [95.441675, 5.11138], [95.444675, 5.111371], [95.444834, 5.110447], [95.445675, 5.110368], [95.449528, 5.110435], [95.449675, 5.111359], [95.449813, 5.110426], [95.455549, 5.110414], [95.455549, 5.112163], [95.451675, 5.112221], [95.451535, 5.113148], [95.44782, 5.113144], [95.447724, 5.11224], [95.446675, 5.112211], [95.44651, 5.113124], [95.443675, 5.113204], [95.443494, 5.114107], [95.442612, 5.114226], [95.442472, 5.115085], [95.441603, 5.115216], [95.441443, 5.116057], [95.43754, 5.116153], [95.437126, 5.117739], [95.435675, 5.118756]]], "type": "Polygon"}, "type": "Feature"}], "type": "FeatureCollection"}