{"features": [{"properties": {"fill-opacity": 0.33, "fillColor": "#bf4040", "opacity": 0.33, "fill": "#bf4040", "fillOpacity": 0.33, "color": "#bf4040", "contour": 15.0, "metric": "time"}, "geometry": {"coordinates": [[[97.886724, 4.738952], [97.884695, 4.738659], [97.885268, 4.737659], [97.885003, 4.732659], [97.88596, 4.731659], [97.885889, 4.726659], [97.885034, 4.726349], [97.884823, 4.72556], [97.884013, 4.72537], [97.883846, 4.721659], [97.882957, 4.721426], [97.882832, 4.718659], [97.881939, 4.718444], [97.881832, 4.717659], [97.881939, 4.716874], [97.882823, 4.716659], [97.881916, 4.716467], [97.881788, 4.715595], [97.877724, 4.715546], [97.877483, 4.716417], [97.876724, 4.716538], [97.869546, 4.71648], [97.869355, 4.71729], [97.868724, 4.717474], [97.864455, 4.717389], [97.864199, 4.718134], [97.863266, 4.718659], [97.862724, 4.722339], [97.862203, 4.719659], [97.860985, 4.718398], [97.860401, 4.718335], [97.859724, 4.719107], [97.857166, 4.718659], [97.858724, 4.718273], [97.859724, 4.717159], [97.863994, 4.716928], [97.864227, 4.716161], [97.864724, 4.715913], [97.868903, 4.715837], [97.86907, 4.715004], [97.869724, 4.714831], [97.875724, 4.714782], [97.87596, 4.713895], [97.881724, 4.713756], [97.88178, 4.712603], [97.877876, 4.712507], [97.877724, 4.711587], [97.874864, 4.71152], [97.87477, 4.710613], [97.873858, 4.710525], [97.873768, 4.709615], [97.871851, 4.709532], [97.871766, 4.708617], [97.870851, 4.708532], [97.870767, 4.707616], [97.86587, 4.707513], [97.865774, 4.706609], [97.86388, 4.706504], [97.863724, 4.705578], [97.858724, 4.705556], [97.858494, 4.706428], [97.853724, 4.70651], [97.85338, 4.707314], [97.851517, 4.707451], [97.851274, 4.708209], [97.850553, 4.708487], [97.84699, 4.711924], [97.846375, 4.712008], [97.846438, 4.710372], [97.849238, 4.707173], [97.850932, 4.706866], [97.851109, 4.706043], [97.851841, 4.705776], [97.852052, 4.704986], [97.856724, 4.704776], [97.856943, 4.703878], [97.860782, 4.703717], [97.86079, 4.700593], [97.859927, 4.700456], [97.859611, 4.699546], [97.849724, 4.699464], [97.849278, 4.700212], [97.847724, 4.700431], [97.845724, 4.700384], [97.844724, 4.699353], [97.843724, 4.700304], [97.842724, 4.700252], [97.841724, 4.699159], [97.838995, 4.698659], [97.839724, 4.698158], [97.843944, 4.697879], [97.844285, 4.694659], [97.845141, 4.694076], [97.845724, 4.692972], [97.846133, 4.694659], [97.84526, 4.695659], [97.845379, 4.697659], [97.846543, 4.69884], [97.847724, 4.698887], [97.848145, 4.698079], [97.848724, 4.697869], [97.857724, 4.69778], [97.857953, 4.696888], [97.85884, 4.696659], [97.858852, 4.694659], [97.858003, 4.69438], [97.857864, 4.693659], [97.858011, 4.691945], [97.858724, 4.691802], [97.859438, 4.691945], [97.859632, 4.692751], [97.860457, 4.692926], [97.860642, 4.694741], [97.864437, 4.694946], [97.864626, 4.695757], [97.867383, 4.696], [97.867724, 4.696851], [97.868724, 4.695887], [97.875224, 4.696159], [97.875284, 4.696659], [97.874724, 4.697219], [97.869724, 4.697421], [97.869312, 4.698246], [97.868724, 4.698452], [97.866101, 4.698282], [97.865724, 4.697498], [97.862004, 4.697379], [97.861724, 4.69653], [97.860644, 4.696579], [97.860613, 4.697659], [97.861515, 4.697868], [97.861656, 4.698727], [97.862525, 4.698858], [97.862668, 4.703715], [97.865568, 4.703815], [97.865673, 4.70471], [97.867576, 4.704807], [97.867724, 4.70573], [97.872594, 4.705789], [97.872724, 4.706722], [97.872849, 4.705784], [97.874599, 4.705784], [97.874599, 4.707534], [97.873682, 4.707701], [97.875593, 4.70779], [97.87568, 4.708703], [97.876589, 4.708795], [97.876678, 4.709705], [97.879577, 4.709806], [97.879724, 4.710735], [97.883558, 4.710825], [97.883724, 4.713752], [97.88392, 4.712855], [97.885528, 4.712855], [97.885528, 4.714463], [97.884629, 4.714563], [97.884658, 4.715725], [97.885515, 4.715868], [97.88562, 4.716659], [97.885515, 4.71745], [97.884621, 4.717659], [97.884613, 4.719659], [97.885489, 4.719894], [97.88563, 4.723753], [97.886431, 4.723952], [97.886622, 4.724761], [97.887401, 4.724982], [97.887563, 4.725659], [97.88746, 4.732659], [97.886423, 4.733659], [97.886165, 4.736659], [97.886256, 4.738127], [97.886912, 4.738659], [97.886724, 4.738952]]], "type": "Polygon"}, "type": "Feature"}], "type": "FeatureCollection"}