{"features": [{"properties": {"fill-opacity": 0.33, "fillColor": "#bf4040", "opacity": 0.33, "fill": "#bf4040", "fillOpacity": 0.33, "color": "#bf4040", "contour": 15.0, "metric": "time"}, "geometry": {"coordinates": [[[96.719621, 5.244295], [96.717621, 5.244227], [96.716964, 5.243519], [96.715221, 5.243262], [96.714621, 5.242544], [96.712621, 5.24258], [96.710621, 5.240627], [96.707621, 5.240615], [96.706023, 5.23946], [96.705751, 5.238732], [96.703621, 5.238612], [96.702621, 5.237581], [96.701621, 5.237548], [96.700621, 5.236494], [96.699263, 5.236219], [96.69892, 5.235563], [96.698329, 5.235571], [96.697621, 5.236367], [96.697115, 5.235862], [96.6969, 5.234582], [96.695621, 5.233383], [96.694621, 5.234243], [96.69286, 5.232862], [96.694127, 5.231862], [96.69391, 5.227862], [96.692901, 5.226862], [96.693099, 5.219862], [96.692621, 5.219232], [96.691457, 5.219026], [96.691039, 5.217443], [96.689603, 5.216862], [96.691621, 5.215656], [96.692642, 5.215884], [96.693288, 5.214529], [96.694621, 5.2133], [96.695085, 5.213398], [96.695116, 5.213862], [96.694777, 5.215019], [96.694216, 5.215458], [96.694368, 5.217114], [96.695621, 5.217161], [96.696812, 5.216054], [96.696975, 5.214862], [96.697853, 5.214094], [96.697916, 5.213567], [96.695827, 5.213069], [96.695189, 5.213293], [96.695494, 5.212735], [96.69846, 5.211862], [96.697244, 5.210862], [96.697096, 5.208862], [96.697583, 5.207825], [96.699424, 5.205862], [96.70102, 5.205261], [96.702057, 5.203862], [96.702433, 5.201862], [96.703621, 5.201044], [96.704795, 5.201036], [96.70486, 5.199862], [96.705621, 5.199002], [96.706759, 5.199724], [96.706153, 5.200395], [96.70631, 5.201172], [96.708621, 5.201221], [96.70907, 5.200862], [96.708806, 5.199862], [96.709621, 5.19863], [96.710621, 5.199037], [96.711415, 5.199862], [96.710595, 5.200862], [96.711621, 5.200984], [96.712621, 5.202181], [96.713205, 5.201862], [96.712796, 5.199862], [96.713621, 5.199016], [96.715621, 5.200493], [96.717249, 5.200862], [96.717449, 5.201862], [96.716627, 5.202862], [96.717621, 5.203326], [96.718621, 5.202407], [96.720034, 5.203449], [96.720306, 5.204176], [96.721621, 5.204495], [96.723621, 5.203325], [96.724303, 5.20518], [96.725996, 5.205486], [96.726621, 5.206364], [96.727621, 5.206478], [96.728621, 5.20592], [96.730621, 5.207505], [96.731177, 5.208862], [96.733253, 5.209862], [96.729621, 5.210441], [96.728621, 5.210051], [96.727621, 5.21054], [96.724479, 5.21072], [96.724451, 5.212862], [96.725302, 5.213181], [96.725461, 5.213862], [96.725546, 5.219937], [96.728721, 5.219962], [96.729074, 5.217316], [96.729621, 5.216459], [96.730484, 5.218999], [96.730903, 5.218862], [96.731182, 5.217424], [96.732059, 5.217424], [96.732389, 5.219862], [96.733215, 5.220268], [96.733621, 5.221052], [96.734768, 5.221009], [96.73508, 5.220322], [96.735912, 5.219862], [96.735916, 5.218567], [96.735147, 5.217862], [96.735621, 5.216148], [96.73625, 5.217233], [96.736962, 5.21752], [96.737621, 5.219158], [96.740621, 5.219271], [96.742315, 5.217556], [96.743714, 5.217862], [96.743719, 5.219862], [96.742621, 5.221143], [96.741621, 5.220377], [96.74098, 5.221222], [96.739361, 5.221602], [96.739045, 5.222287], [96.737414, 5.222655], [96.737252, 5.22323], [96.738206, 5.223862], [96.737621, 5.226178], [96.736989, 5.223494], [96.736175, 5.223308], [96.735621, 5.222637], [96.733444, 5.222862], [96.73421, 5.223272], [96.734386, 5.225862], [96.735327, 5.226862], [96.734352, 5.227862], [96.735253, 5.228862], [96.734475, 5.230008], [96.737621, 5.230146], [96.738215, 5.229456], [96.74098, 5.229221], [96.741621, 5.228591], [96.743755, 5.228862], [96.743742, 5.229983], [96.741314, 5.230556], [96.740173, 5.231862], [96.739911, 5.233152], [96.737873, 5.232862], [96.737841, 5.231641], [96.735471, 5.231713], [96.735191, 5.232432], [96.732459, 5.2347], [96.73234, 5.235862], [96.731423, 5.236665], [96.731254, 5.237862], [96.730621, 5.238496], [96.729987, 5.237862], [96.729916, 5.235862], [96.730804, 5.235046], [96.730621, 5.234657], [96.728621, 5.234685], [96.728272, 5.235514], [96.727621, 5.235688], [96.725621, 5.235699], [96.724946, 5.235537], [96.724621, 5.234699], [96.724234, 5.235476], [96.723621, 5.235669], [96.723007, 5.235476], [96.722621, 5.234674], [96.720621, 5.234621], [96.719621, 5.235542], [96.713621, 5.235622], [96.713219, 5.236461], [96.712492, 5.236733], [96.71248, 5.238002], [96.713393, 5.238862], [96.712466, 5.240017], [96.713621, 5.24014], [96.714621, 5.24118], [96.716047, 5.241436], [96.716621, 5.242295], [96.717944, 5.242538], [96.718221, 5.243262], [96.719847, 5.243862], [96.719621, 5.244295]]], "type": "Polygon"}, "type": "Feature"}], "type": "FeatureCollection"}