{"features": [{"properties": {"fill-opacity": 0.33, "fillColor": "#bf4040", "opacity": 0.33, "fill": "#bf4040", "fillOpacity": 0.33, "color": "#bf4040", "contour": 15.0, "metric": "time"}, "geometry": {"coordinates": [[[97.565017, 2.988997], [97.561143, 2.988949], [97.561062, 2.98803], [97.560159, 2.987933], [97.560067, 2.985025], [97.55917, 2.984922], [97.559069, 2.984023], [97.558176, 2.983916], [97.558098, 2.982994], [97.557184, 2.982908], [97.557074, 2.982018], [97.556194, 2.981898], [97.556077, 2.981015], [97.554208, 2.980884], [97.554082, 2.98001], [97.553215, 2.979877], [97.553017, 2.978971], [97.546017, 2.978926], [97.545315, 2.978777], [97.545017, 2.977917], [97.543017, 2.977897], [97.540788, 2.980304], [97.544805, 2.981075], [97.544485, 2.982075], [97.542017, 2.982508], [97.541017, 2.981676], [97.540017, 2.982656], [97.539017, 2.982639], [97.538017, 2.981556], [97.536835, 2.981257], [97.53663, 2.980462], [97.535993, 2.980075], [97.537017, 2.979854], [97.538017, 2.980595], [97.540163, 2.977929], [97.533017, 2.977489], [97.532465, 2.976627], [97.531223, 2.976075], [97.532574, 2.975633], [97.533017, 2.975048], [97.533315, 2.976075], [97.534017, 2.976536], [97.542017, 2.976268], [97.542394, 2.975453], [97.543017, 2.975264], [97.547123, 2.975182], [97.547325, 2.974384], [97.548169, 2.974075], [97.548298, 2.966075], [97.549017, 2.965357], [97.549735, 2.966075], [97.549785, 2.968075], [97.550784, 2.969075], [97.549819, 2.970075], [97.549921, 2.974171], [97.552763, 2.974329], [97.552943, 2.977149], [97.554809, 2.977283], [97.55495, 2.978142], [97.55582, 2.978272], [97.556017, 2.979167], [97.557835, 2.979257], [97.557958, 2.980134], [97.558845, 2.980247], [97.558935, 2.982157], [97.560858, 2.982234], [97.560965, 2.983127], [97.561865, 2.983227], [97.561945, 2.986075], [97.562879, 2.986213], [97.562973, 2.987119], [97.564067, 2.987126], [97.564189, 2.985248], [97.567017, 2.985173], [97.567238, 2.984296], [97.568099, 2.984158], [97.568294, 2.983353], [97.570127, 2.983186], [97.570447, 2.981506], [97.572262, 2.980321], [97.573017, 2.979127], [97.573447, 2.979645], [97.573626, 2.981075], [97.571875, 2.982934], [97.571658, 2.984717], [97.569927, 2.984986], [97.56977, 2.985829], [97.568941, 2.986], [97.568801, 2.98686], [97.565961, 2.987019], [97.56586, 2.988919], [97.565017, 2.988997]]], "type": "Polygon"}, "type": "Feature"}], "type": "FeatureCollection"}