{"features": [{"properties": {"fill-opacity": 0.33, "fillColor": "#bf4040", "opacity": 0.33, "fill": "#bf4040", "fillOpacity": 0.33, "color": "#bf4040", "contour": 15.0, "metric": "time"}, "geometry": {"coordinates": [[[97.981916, 3.301279], [97.979046, 3.301215], [97.978964, 3.299297], [97.978075, 3.299187], [97.97797, 3.298291], [97.977087, 3.298175], [97.976977, 3.297285], [97.974165, 3.297097], [97.974005, 3.296257], [97.973216, 3.296045], [97.973066, 3.295346], [97.973227, 3.293657], [97.974028, 3.293458], [97.973916, 3.293017], [97.97254, 3.29297], [97.971916, 3.293637], [97.970483, 3.293346], [97.971377, 3.292808], [97.971639, 3.29207], [97.973184, 3.291614], [97.973916, 3.290009], [97.976913, 3.290346], [97.976285, 3.290716], [97.975629, 3.292059], [97.975787, 3.295346], [97.97873, 3.295532], [97.978858, 3.296403], [97.979754, 3.296508], [97.979864, 3.297398], [97.98077, 3.297492], [97.980916, 3.299409], [97.981054, 3.298484], [97.982778, 3.298484], [97.982782, 3.301212], [97.981916, 3.301279]]], "type": "Polygon"}, "type": "Feature"}], "type": "FeatureCollection"}