{"features": [{"properties": {"fill-opacity": 0.33, "fillColor": "#bf4040", "opacity": 0.33, "fill": "#bf4040", "fillOpacity": 0.33, "color": "#bf4040", "contour": 15.0, "metric": "time"}, "geometry": {"coordinates": [[[96.404034, 4.097131], [96.401187, 4.096747], [96.401034, 4.097174], [96.40098, 4.09654], [96.403338, 4.095898], [96.40359, 4.09315], [96.407222, 4.089594], [96.407164, 4.088464], [96.406445, 4.088183], [96.405265, 4.086594], [96.405518, 4.085078], [96.40655, 4.085078], [96.407898, 4.086729], [96.408651, 4.086976], [96.409034, 4.087764], [96.409349, 4.086909], [96.410135, 4.086695], [96.410321, 4.085881], [96.411128, 4.085688], [96.411155, 4.083594], [96.40926, 4.083367], [96.409107, 4.082521], [96.408247, 4.082381], [96.408034, 4.081495], [96.405224, 4.081403], [96.405095, 4.080533], [96.40421, 4.080417], [96.404092, 4.079536], [96.403203, 4.079424], [96.403089, 4.078538], [96.402197, 4.078431], [96.402087, 4.077541], [96.398178, 4.077449], [96.398081, 4.076546], [96.396175, 4.076452], [96.396175, 4.074735], [96.397102, 4.074594], [96.396166, 4.074461], [96.396103, 4.066594], [96.395177, 4.066451], [96.395118, 4.059594], [96.394212, 4.059416], [96.394142, 4.052594], [96.393275, 4.052352], [96.393154, 4.051594], [96.393275, 4.050835], [96.394152, 4.050594], [96.394324, 4.045884], [96.395135, 4.045695], [96.395345, 4.044905], [96.397213, 4.044594], [96.397283, 4.040594], [96.396328, 4.039594], [96.398607, 4.037168], [96.400364, 4.035924], [96.401034, 4.033815], [96.401636, 4.035991], [96.402629, 4.036594], [96.400732, 4.037292], [96.399489, 4.039049], [96.398834, 4.039394], [96.398682, 4.046242], [96.397034, 4.046429], [96.396727, 4.047287], [96.395898, 4.047594], [96.395925, 4.052594], [96.396825, 4.052803], [96.396931, 4.053697], [96.396831, 4.055391], [96.395938, 4.055594], [96.395944, 4.057594], [96.39686, 4.057768], [96.396961, 4.064594], [96.397893, 4.064735], [96.397963, 4.065594], [96.397969, 4.072594], [96.398901, 4.072727], [96.398987, 4.07464], [96.399892, 4.074735], [96.400034, 4.075667], [96.403874, 4.075753], [96.403979, 4.076648], [96.404867, 4.076761], [96.404977, 4.077651], [96.405859, 4.077769], [96.405974, 4.078653], [96.406851, 4.078776], [96.406971, 4.079656], [96.409829, 4.079799], [96.410034, 4.080701], [96.411114, 4.080674], [96.411295, 4.079855], [96.412034, 4.079724], [96.412773, 4.079855], [96.413034, 4.080719], [96.413303, 4.079863], [96.414034, 4.079728], [96.414765, 4.079863], [96.415034, 4.080742], [96.419034, 4.080784], [96.419478, 4.079038], [96.421034, 4.077841], [96.42327, 4.07783], [96.423495, 4.076594], [96.424034, 4.076055], [96.425329, 4.076298], [96.425594, 4.077034], [96.426735, 4.077594], [96.425034, 4.07789], [96.424034, 4.079228], [96.421863, 4.079424], [96.420885, 4.080445], [96.420624, 4.082184], [96.415934, 4.082494], [96.415742, 4.083302], [96.414938, 4.083498], [96.414741, 4.084301], [96.41394, 4.0845], [96.413766, 4.085327], [96.412899, 4.085594], [96.412932, 4.086695], [96.413715, 4.086913], [96.414034, 4.08777], [96.417034, 4.087813], [96.417541, 4.087101], [96.419231, 4.086791], [96.420034, 4.085916], [96.422034, 4.086], [96.423641, 4.087987], [96.425417, 4.088594], [96.425195, 4.088755], [96.423034, 4.088945], [96.421034, 4.08724], [96.420497, 4.088058], [96.419034, 4.088327], [96.418034, 4.08935], [96.413034, 4.089429], [96.412363, 4.089265], [96.412034, 4.088439], [96.410864, 4.088594], [96.412598, 4.09003], [96.413034, 4.091854], [96.416034, 4.09196], [96.417034, 4.093036], [96.418034, 4.092123], [96.419034, 4.093252], [96.420428, 4.093594], [96.416034, 4.094169], [96.415034, 4.093271], [96.412034, 4.093351], [96.411276, 4.092594], [96.411175, 4.091452], [96.409402, 4.090225], [96.409034, 4.089424], [96.408621, 4.091181], [96.40789, 4.09145], [96.407568, 4.092128], [96.404818, 4.094378], [96.404571, 4.096594], [96.404034, 4.097131]]], "type": "Polygon"}, "type": "Feature"}], "type": "FeatureCollection"}