{"features": [{"properties": {"fill-opacity": 0.33, "fillColor": "#bf4040", "opacity": 0.33, "fill": "#bf4040", "fillOpacity": 0.33, "color": "#bf4040", "contour": 15.0, "metric": "time"}, "geometry": {"coordinates": [[[95.264736, 5.390664], [95.264016, 5.389944], [95.264002, 5.388944], [95.264974, 5.387944], [95.264736, 5.386728], [95.261517, 5.386725], [95.261269, 5.38841], [95.261744, 5.388944], [95.260274, 5.389482], [95.259736, 5.390633], [95.25913, 5.38855], [95.256884, 5.387944], [95.258183, 5.387391], [95.258076, 5.386603], [95.257303, 5.386511], [95.256736, 5.387801], [95.255921, 5.386944], [95.256736, 5.385637], [95.25901, 5.385218], [95.259736, 5.381213], [95.260325, 5.384944], [95.260736, 5.385268], [95.261736, 5.385233], [95.262243, 5.384451], [95.262991, 5.384199], [95.264736, 5.384193], [95.26559, 5.385089], [95.266736, 5.38513], [95.267072, 5.38428], [95.267844, 5.384052], [95.268047, 5.383255], [95.269736, 5.383091], [95.270011, 5.38222], [95.272817, 5.382025], [95.272972, 5.38118], [95.273812, 5.38102], [95.273958, 5.380166], [95.274807, 5.380016], [95.274945, 5.379153], [95.275834, 5.378944], [95.273937, 5.378742], [95.273933, 5.376141], [95.274827, 5.375944], [95.274923, 5.373131], [95.277736, 5.373028], [95.277892, 5.3721], [95.278787, 5.371996], [95.27888, 5.369088], [95.279783, 5.368991], [95.279874, 5.368082], [95.280781, 5.367989], [95.280871, 5.367079], [95.28561, 5.36707], [95.28561, 5.368818], [95.282691, 5.368899], [95.2826, 5.369808], [95.281689, 5.369897], [95.281592, 5.370801], [95.280662, 5.370944], [95.280579, 5.373787], [95.279683, 5.373891], [95.279573, 5.374781], [95.27868, 5.374888], [95.278565, 5.375774], [95.277678, 5.375886], [95.277531, 5.380739], [95.276666, 5.380874], [95.27652, 5.381729], [95.275662, 5.38187], [95.275509, 5.382717], [95.274657, 5.382865], [95.274488, 5.383696], [95.271736, 5.383813], [95.271453, 5.384661], [95.269632, 5.38484], [95.26941, 5.385618], [95.268622, 5.38583], [95.268369, 5.386577], [95.267609, 5.386817], [95.267297, 5.388505], [95.264736, 5.390664]]], "type": "Polygon"}, "type": "Feature"}], "type": "FeatureCollection"}