{"features": [{"properties": {"fill-opacity": 0.33, "fillColor": "#bf4040", "opacity": 0.33, "fill": "#bf4040", "fillOpacity": 0.33, "color": "#bf4040", "contour": 15.0, "metric": "time"}, "geometry": {"coordinates": [[[97.349673, 4.900313], [97.349365, 4.900267], [97.349237, 4.899396], [97.348945, 4.89396], [97.349909, 4.89296], [97.350068, 4.889354], [97.350796, 4.889083], [97.351023, 4.88831], [97.351771, 4.887861], [97.349947, 4.887685], [97.34976, 4.886872], [97.348921, 4.886711], [97.34875, 4.884882], [97.347898, 4.884735], [97.347745, 4.883887], [97.346884, 4.883748], [97.346673, 4.882859], [97.343673, 4.882823], [97.343302, 4.883589], [97.342673, 4.883774], [97.3411, 4.883532], [97.340673, 4.882691], [97.339239, 4.882526], [97.338673, 4.883415], [97.337961, 4.88296], [97.339106, 4.882393], [97.339146, 4.87996], [97.339673, 4.879433], [97.340975, 4.879657], [97.340975, 4.880262], [97.340271, 4.88096], [97.340673, 4.881228], [97.344673, 4.881081], [97.344896, 4.880182], [97.345765, 4.87996], [97.345729, 4.877903], [97.344838, 4.877794], [97.344726, 4.876906], [97.343829, 4.876803], [97.343724, 4.875908], [97.342824, 4.875808], [97.342721, 4.873912], [97.341813, 4.873819], [97.341719, 4.872913], [97.340808, 4.872824], [97.340717, 4.871915], [97.340544, 4.87283], [97.337608, 4.872895], [97.337542, 4.873829], [97.336628, 4.873915], [97.336538, 4.874824], [97.333624, 4.874911], [97.333523, 4.87581], [97.332597, 4.875883], [97.332518, 4.876805], [97.331619, 4.876906], [97.331508, 4.877795], [97.328839, 4.877794], [97.328729, 4.876903], [97.327673, 4.876867], [97.327449, 4.877736], [97.321673, 4.877735], [97.319673, 4.879243], [97.319114, 4.87896], [97.319088, 4.87796], [97.320195, 4.876482], [97.322673, 4.876145], [97.322976, 4.875263], [97.323673, 4.875111], [97.325389, 4.875243], [97.325673, 4.876074], [97.325875, 4.875162], [97.326763, 4.87496], [97.326882, 4.870168], [97.32778, 4.870067], [97.327904, 4.86819], [97.328796, 4.86796], [97.328815, 4.86596], [97.327983, 4.86565], [97.327786, 4.863846], [97.326673, 4.863704], [97.325928, 4.86296], [97.326176, 4.862463], [97.327848, 4.86196], [97.328121, 4.858407], [97.329225, 4.858407], [97.329673, 4.860207], [97.330915, 4.860202], [97.331673, 4.859493], [97.333082, 4.85996], [97.332082, 4.861369], [97.330673, 4.861696], [97.330272, 4.862559], [97.329508, 4.86296], [97.329571, 4.864061], [97.330383, 4.864249], [97.330579, 4.865053], [97.331401, 4.865231], [97.331408, 4.867695], [97.330549, 4.86796], [97.331417, 4.868216], [97.331603, 4.870029], [97.332472, 4.87016], [97.33262, 4.873012], [97.334742, 4.87296], [97.334753, 4.87096], [97.333855, 4.870777], [97.333764, 4.86996], [97.333855, 4.869142], [97.334768, 4.86896], [97.333887, 4.868745], [97.333763, 4.866869], [97.332992, 4.86664], [97.333048, 4.863335], [97.334297, 4.863335], [97.334507, 4.86496], [97.335404, 4.865228], [97.335553, 4.86696], [97.336463, 4.867169], [97.336627, 4.872006], [97.336799, 4.871086], [97.337736, 4.87096], [97.336798, 4.870835], [97.336798, 4.869085], [97.338548, 4.869085], [97.33861, 4.870023], [97.340744, 4.86996], [97.340729, 4.868903], [97.33985, 4.868783], [97.339744, 4.866888], [97.33891, 4.866722], [97.338773, 4.864859], [97.33802, 4.864613], [97.337805, 4.863827], [97.336673, 4.863664], [97.335968, 4.86296], [97.336842, 4.862129], [97.337019, 4.86096], [97.337673, 4.860306], [97.338327, 4.86096], [97.338521, 4.862111], [97.339063, 4.86135], [97.340283, 4.86135], [97.340529, 4.86396], [97.341421, 4.864212], [97.341576, 4.86696], [97.342499, 4.867133], [97.342605, 4.87096], [97.343534, 4.871098], [97.343626, 4.872007], [97.344528, 4.872104], [97.344622, 4.87401], [97.345518, 4.874114], [97.34562, 4.875012], [97.346511, 4.875121], [97.346618, 4.876014], [97.347505, 4.876127], [97.347611, 4.879021], [97.348484, 4.879148], [97.348673, 4.880075], [97.350673, 4.880109], [97.350673, 4.879665], [97.349174, 4.87896], [97.349673, 4.877393], [97.350384, 4.878249], [97.352064, 4.878351], [97.352673, 4.877705], [97.353888, 4.877744], [97.35441, 4.88096], [97.353168, 4.88196], [97.353503, 4.88896], [97.353334, 4.88962], [97.352555, 4.889842], [97.352305, 4.890592], [97.351472, 4.89096], [97.351414, 4.89396], [97.350378, 4.89496], [97.350109, 4.899396], [97.349673, 4.900313]]], "type": "Polygon"}, "type": "Feature"}], "type": "FeatureCollection"}