{"features": [{"properties": {"fill-opacity": 0.33, "fillColor": "#bf4040", "opacity": 0.33, "fill": "#bf4040", "fillOpacity": 0.33, "color": "#bf4040", "contour": 15.0, "metric": "time"}, "geometry": {"coordinates": [[[97.703655, 3.659399], [97.701783, 3.659335], [97.701721, 3.657463], [97.700805, 3.657312], [97.700707, 3.656411], [97.698834, 3.656284], [97.698655, 3.65536], [97.696889, 3.655229], [97.69683, 3.651463], [97.695917, 3.650463], [97.696224, 3.647463], [97.696756, 3.647362], [97.697333, 3.649463], [97.698422, 3.650463], [97.698579, 3.653539], [97.700459, 3.653659], [97.700595, 3.654523], [97.702502, 3.654616], [97.702606, 3.655512], [97.703512, 3.655606], [97.703589, 3.657463], [97.704527, 3.657591], [97.704591, 3.658463], [97.704527, 3.659335], [97.703655, 3.659399]]], "type": "Polygon"}, "type": "Feature"}], "type": "FeatureCollection"}