{"features": [{"properties": {"fill-opacity": 0.33, "fillColor": "#bf4040", "opacity": 0.33, "fill": "#bf4040", "fillOpacity": 0.33, "color": "#bf4040", "contour": 15.0, "metric": "time"}, "geometry": {"coordinates": [[[96.527122, 5.104177], [96.526122, 5.104711], [96.523122, 5.10471], [96.522122, 5.105146], [96.521688, 5.104601], [96.52184, 5.103884], [96.523385, 5.103429], [96.523315, 5.102167], [96.522408, 5.101881], [96.52221, 5.10108], [96.521366, 5.100923], [96.5212, 5.100089], [96.52035, 5.099939], [96.520181, 5.096108], [96.519292, 5.095997], [96.519122, 5.095088], [96.518974, 5.096018], [96.518122, 5.096092], [96.517271, 5.096018], [96.517171, 5.095118], [96.516266, 5.095023], [96.516266, 5.093311], [96.517191, 5.093167], [96.516253, 5.093036], [96.516248, 5.090293], [96.518996, 5.090293], [96.519074, 5.093215], [96.520957, 5.093332], [96.521066, 5.094224], [96.521946, 5.094343], [96.522016, 5.098167], [96.522891, 5.098398], [96.523041, 5.099248], [96.525794, 5.099495], [96.52599, 5.101299], [96.52686, 5.102167], [96.526823, 5.102868], [96.526122, 5.102905], [96.525888, 5.103401], [96.527122, 5.104177]]], "type": "Polygon"}, "type": "Feature"}], "type": "FeatureCollection"}