{"features": [{"properties": {"fill-opacity": 0.33, "fillColor": "#bf4040", "opacity": 0.33, "fill": "#bf4040", "fillOpacity": 0.33, "color": "#bf4040", "contour": 15.0, "metric": "time"}, "geometry": {"coordinates": [[[95.82332, 5.358406], [95.82232, 5.357636], [95.81332, 5.357914], [95.812567, 5.35779], [95.81232, 5.35693], [95.809507, 5.35685], [95.809377, 5.355981], [95.80832, 5.35595], [95.809043, 5.356315], [95.809181, 5.357037], [95.809043, 5.357759], [95.808228, 5.357945], [95.808017, 5.358734], [95.80232, 5.358734], [95.801623, 5.358037], [95.801477, 5.356881], [95.800752, 5.356605], [95.800536, 5.356037], [95.800499, 5.354037], [95.800678, 5.353395], [95.801431, 5.353148], [95.801437, 5.35192], [95.795764, 5.351593], [95.793533, 5.351037], [95.794496, 5.350213], [95.800468, 5.350184], [95.799659, 5.349037], [95.80032, 5.344424], [95.800952, 5.348037], [95.803179, 5.350178], [95.803918, 5.35044], [95.804238, 5.35212], [95.806107, 5.35225], [95.80632, 5.353135], [95.808133, 5.353224], [95.80832, 5.354124], [95.808487, 5.353204], [95.809377, 5.353094], [95.809497, 5.352214], [95.811143, 5.352214], [95.811268, 5.35409], [95.816189, 5.354168], [95.81632, 5.3551], [95.82032, 5.35511], [95.820477, 5.354194], [95.82432, 5.354128], [95.82523, 5.355037], [95.825139, 5.355856], [95.822942, 5.356037], [95.82366, 5.356697], [95.824092, 5.358037], [95.82332, 5.358406]]], "type": "Polygon"}, "type": "Feature"}], "type": "FeatureCollection"}