{"features": [{"properties": {"fill-opacity": 0.33, "fillColor": "#bf4040", "opacity": 0.33, "fill": "#bf4040", "fillOpacity": 0.33, "color": "#bf4040", "contour": 15.0, "metric": "time"}, "geometry": {"coordinates": [[[96.494017, 2.374762], [96.493017, 2.375185], [96.492494, 2.3744], [96.493451, 2.373834], [96.49373, 2.373114], [96.495017, 2.372872], [96.496245, 2.371629], [96.496281, 2.3694], [96.497242, 2.3684], [96.497197, 2.3654], [96.49635, 2.365067], [96.496166, 2.363251], [96.494294, 2.363123], [96.494017, 2.362271], [96.491257, 2.36216], [96.491094, 2.361322], [96.490245, 2.361172], [96.490118, 2.358299], [96.489215, 2.358202], [96.489081, 2.357335], [96.486197, 2.35722], [96.486075, 2.356342], [96.485186, 2.356231], [96.485099, 2.355318], [96.483178, 2.355238], [96.483091, 2.352325], [96.482164, 2.352253], [96.482088, 2.3504], [96.481156, 2.350261], [96.481081, 2.347335], [96.479144, 2.347273], [96.479017, 2.346337], [96.474158, 2.346259], [96.473944, 2.345327], [96.471017, 2.345322], [96.470852, 2.346236], [96.467017, 2.346311], [96.466808, 2.349191], [96.465946, 2.349329], [96.465797, 2.350181], [96.464941, 2.350325], [96.464785, 2.351169], [96.462017, 2.351275], [96.461738, 2.352121], [96.459017, 2.352253], [96.458691, 2.353075], [96.457904, 2.353287], [96.457659, 2.354043], [96.455886, 2.35427], [96.455605, 2.354989], [96.455017, 2.355194], [96.45284, 2.355224], [96.452491, 2.355875], [96.450793, 2.356176], [96.450017, 2.357034], [96.445345, 2.3564], [96.449017, 2.355808], [96.449579, 2.354962], [96.451017, 2.354705], [96.452017, 2.353667], [96.453168, 2.353552], [96.453462, 2.352846], [96.456017, 2.352582], [96.456352, 2.351735], [96.457124, 2.351508], [96.457328, 2.350711], [96.460017, 2.35054], [96.460282, 2.349666], [96.463094, 2.349478], [96.463245, 2.348629], [96.46409, 2.348473], [96.464227, 2.347611], [96.465085, 2.347469], [96.465109, 2.3454], [96.46421, 2.345206], [96.464116, 2.344301], [96.46223, 2.344187], [96.462017, 2.343288], [96.460253, 2.343164], [96.460097, 2.34232], [96.459266, 2.34215], [96.459102, 2.341315], [96.457295, 2.341122], [96.457112, 2.340305], [96.456314, 2.340102], [96.45612, 2.339297], [96.455336, 2.339081], [96.455129, 2.338288], [96.453391, 2.338025], [96.453017, 2.337195], [96.45147, 2.336947], [96.450195, 2.335222], [96.447017, 2.334982], [96.446017, 2.333906], [96.4434, 2.3334], [96.443575, 2.332959], [96.444017, 2.332626], [96.445017, 2.333005], [96.447017, 2.332873], [96.448017, 2.333763], [96.451017, 2.333672], [96.452554, 2.334863], [96.45287, 2.335547], [96.454621, 2.335796], [96.455017, 2.336576], [96.456671, 2.336745], [96.456908, 2.337509], [96.457701, 2.337715], [96.457917, 2.3385], [96.45873, 2.338686], [96.458925, 2.339492], [96.460758, 2.339659], [96.460934, 2.340483], [96.461778, 2.340639], [96.462017, 2.341512], [96.462256, 2.34064], [96.463099, 2.340483], [96.46327, 2.339654], [96.464763, 2.339654], [96.464766, 2.34215], [96.463946, 2.342471], [96.464811, 2.342605], [96.464917, 2.3435], [96.467824, 2.343593], [96.468017, 2.344487], [96.469072, 2.344455], [96.469179, 2.343563], [96.475017, 2.343471], [96.475875, 2.343541], [96.476017, 2.344469], [96.480891, 2.344526], [96.480974, 2.345443], [96.481889, 2.345528], [96.481952, 2.346465], [96.482885, 2.346532], [96.48297, 2.348447], [96.483875, 2.348542], [96.483942, 2.351475], [96.484865, 2.351552], [96.484963, 2.353454], [96.485855, 2.353562], [96.485934, 2.354483], [96.48784, 2.354576], [96.488017, 2.355491], [96.49082, 2.355597], [96.490915, 2.357502], [96.491808, 2.357609], [96.491941, 2.359476], [96.492784, 2.359633], [96.493017, 2.360523], [96.495746, 2.360671], [96.495924, 2.361493], [96.496728, 2.361689], [96.496867, 2.36255], [96.497707, 2.36271], [96.497908, 2.363509], [96.498678, 2.363739], [96.49877, 2.3694], [96.497739, 2.3704], [96.497667, 2.3724], [96.496405, 2.373789], [96.494649, 2.374033], [96.494017, 2.374762]]], "type": "Polygon"}, "type": "Feature"}], "type": "FeatureCollection"}