{"features": [{"properties": {"fill-opacity": 0.33, "fillColor": "#bf4040", "opacity": 0.33, "fill": "#bf4040", "fillOpacity": 0.33, "color": "#bf4040", "contour": 15.0, "metric": "time"}, "geometry": {"coordinates": [[[97.134514, 4.186405], [97.133194, 4.186045], [97.134209, 4.184741], [97.135514, 4.18448], [97.136514, 4.183407], [97.137706, 4.183238], [97.138973, 4.181505], [97.141514, 4.181242], [97.14188, 4.180412], [97.144514, 4.180207], [97.144815, 4.179346], [97.146649, 4.179181], [97.146775, 4.178307], [97.147599, 4.178131], [97.14776, 4.177292], [97.149591, 4.177122], [97.14974, 4.176271], [97.150586, 4.176118], [97.150726, 4.175258], [97.152514, 4.175148], [97.152709, 4.174241], [97.154575, 4.174107], [97.154693, 4.173225], [97.155572, 4.173103], [97.155684, 4.172216], [97.157514, 4.172127], [97.157672, 4.171203], [97.159564, 4.171095], [97.159659, 4.169191], [97.165514, 4.169109], [97.165639, 4.16817], [97.166557, 4.168088], [97.166647, 4.167179], [97.170514, 4.167116], [97.17066, 4.166192], [97.171564, 4.166095], [97.171668, 4.165199], [97.173568, 4.165099], [97.173688, 4.163219], [97.174603, 4.163134], [97.174696, 4.162228], [97.175577, 4.162108], [97.175708, 4.16124], [97.177514, 4.161143], [97.177727, 4.160259], [97.178514, 4.160152], [97.184514, 4.160182], [97.184807, 4.159338], [97.185616, 4.159148], [97.185842, 4.158374], [97.187631, 4.158163], [97.187881, 4.157412], [97.188644, 4.157176], [97.18893, 4.156461], [97.190668, 4.1562], [97.191514, 4.155291], [97.192798, 4.155329], [97.193053, 4.154584], [97.193874, 4.154045], [97.194255, 4.151786], [97.194837, 4.151722], [97.195154, 4.152405], [97.196514, 4.152569], [97.197514, 4.151791], [97.198514, 4.151847], [97.197745, 4.153276], [97.196201, 4.153733], [97.195165, 4.155045], [97.196514, 4.156634], [97.197818, 4.156045], [97.198091, 4.157045], [97.197057, 4.157588], [97.196514, 4.158821], [97.194667, 4.158045], [97.195045, 4.157045], [97.193743, 4.155816], [97.19323, 4.155761], [97.192044, 4.157575], [97.190376, 4.157907], [97.189153, 4.159684], [97.187406, 4.159938], [97.187208, 4.16074], [97.186415, 4.160947], [97.186225, 4.161756], [97.179514, 4.161938], [97.179308, 4.16284], [97.177449, 4.162981], [97.177325, 4.163856], [97.175425, 4.163956], [97.175348, 4.166879], [97.173462, 4.166994], [97.173363, 4.167895], [97.172464, 4.167996], [97.172368, 4.1689], [97.169514, 4.168977], [97.169383, 4.169915], [97.168471, 4.170003], [97.168387, 4.170919], [97.161514, 4.170975], [97.161362, 4.172894], [97.159514, 4.172969], [97.159352, 4.173884], [97.157457, 4.173989], [97.15734, 4.174872], [97.156454, 4.174986], [97.15633, 4.175861], [97.154514, 4.175951], [97.154315, 4.176846], [97.152443, 4.176975], [97.152299, 4.177831], [97.151439, 4.177971], [97.151283, 4.178815], [97.149431, 4.178963], [97.149253, 4.179784], [97.147378, 4.17991], [97.147232, 4.180764], [97.146414, 4.180946], [97.1462, 4.181731], [97.143514, 4.181874], [97.14312, 4.182652], [97.142514, 4.182849], [97.14036, 4.182892], [97.13899, 4.184522], [97.13727, 4.184801], [97.136891, 4.185422], [97.135163, 4.185695], [97.134514, 4.186405]]], "type": "Polygon"}, "type": "Feature"}], "type": "FeatureCollection"}