{"features": [{"properties": {"fill-opacity": 0.33, "fillColor": "#bf4040", "opacity": 0.33, "fill": "#bf4040", "fillOpacity": 0.33, "color": "#bf4040", "contour": 15.0, "metric": "time"}, "geometry": {"coordinates": [[[97.050014, 4.973541], [97.044731, 4.974013], [97.042519, 4.973792], [97.042226, 4.971296], [97.041408, 4.970903], [97.041211, 4.970296], [97.041186, 4.968296], [97.040329, 4.967982], [97.04011, 4.966201], [97.039292, 4.966018], [97.039098, 4.964213], [97.037248, 4.964063], [97.037014, 4.963187], [97.036808, 4.96409], [97.033212, 4.964099], [97.033078, 4.963233], [97.032202, 4.963109], [97.032094, 4.957296], [97.032174, 4.956456], [97.033091, 4.956296], [97.033083, 4.952296], [97.031145, 4.952165], [97.031057, 4.951254], [97.030141, 4.95117], [97.030079, 4.948296], [97.029148, 4.948163], [97.029107, 4.936296], [97.028211, 4.9361], [97.028113, 4.935296], [97.028224, 4.932506], [97.029086, 4.932368], [97.029129, 4.931296], [97.028262, 4.931048], [97.028014, 4.930165], [97.026295, 4.930016], [97.02611, 4.9292], [97.025314, 4.928996], [97.025122, 4.927189], [97.024616, 4.927898], [97.023413, 4.927898], [97.02314, 4.92617], [97.021443, 4.925867], [97.021443, 4.924725], [97.022238, 4.924296], [97.020551, 4.92276], [97.020256, 4.921055], [97.019407, 4.920296], [97.019843, 4.917124], [97.02087, 4.917441], [97.021081, 4.918296], [97.020555, 4.919296], [97.021428, 4.919883], [97.021813, 4.921498], [97.023528, 4.922783], [97.02388, 4.924431], [97.024643, 4.924668], [97.024895, 4.925416], [97.026687, 4.925624], [97.026862, 4.927296], [97.02773, 4.92758], [97.027923, 4.928388], [97.029755, 4.928556], [97.029931, 4.92938], [97.030772, 4.929539], [97.030938, 4.931373], [97.035734, 4.931577], [97.038053, 4.932296], [97.037014, 4.932789], [97.036014, 4.933968], [97.035014, 4.934059], [97.034157, 4.933154], [97.033189, 4.933122], [97.03273, 4.934012], [97.032014, 4.934154], [97.031299, 4.934012], [97.031014, 4.933178], [97.030801, 4.934083], [97.029914, 4.934296], [97.030823, 4.934488], [97.030925, 4.937296], [97.031843, 4.937468], [97.031929, 4.938296], [97.031845, 4.940127], [97.030934, 4.940296], [97.030947, 4.946296], [97.031883, 4.946428], [97.031972, 4.949339], [97.032887, 4.949424], [97.033014, 4.950362], [97.034879, 4.950432], [97.034936, 4.957296], [97.034857, 4.958139], [97.033933, 4.958296], [97.033924, 4.961296], [97.034826, 4.961485], [97.035014, 4.962396], [97.035232, 4.961513], [97.037902, 4.961409], [97.038784, 4.961527], [97.039014, 4.962417], [97.040762, 4.962549], [97.040923, 4.964388], [97.041729, 4.964582], [97.041911, 4.9664], [97.042691, 4.96662], [97.042831, 4.969296], [97.043599, 4.969712], [97.043807, 4.970296], [97.043846, 4.972465], [97.049014, 4.972857], [97.050124, 4.972186], [97.050525, 4.972296], [97.050014, 4.973541]]], "type": "Polygon"}, "type": "Feature"}], "type": "FeatureCollection"}