{"features": [{"properties": {"fill-opacity": 0.33, "fillColor": "#bf4040", "opacity": 0.33, "fill": "#bf4040", "fillOpacity": 0.33, "color": "#bf4040", "contour": 15.0, "metric": "time"}, "geometry": {"coordinates": [[[95.923314, 5.218858], [95.922973, 5.217724], [95.921985, 5.217053], [95.92157, 5.215468], [95.920886, 5.215152], [95.920508, 5.21353], [95.919832, 5.213206], [95.919564, 5.211724], [95.918761, 5.211277], [95.918505, 5.208724], [95.917664, 5.208374], [95.917403, 5.206635], [95.916249, 5.206658], [95.91613, 5.208539], [95.915256, 5.208665], [95.915145, 5.209554], [95.913314, 5.209638], [95.913125, 5.210534], [95.912248, 5.210658], [95.912107, 5.211516], [95.910522, 5.211516], [95.910513, 5.208922], [95.911378, 5.208787], [95.911496, 5.207905], [95.912371, 5.207781], [95.912387, 5.205724], [95.910252, 5.205661], [95.910189, 5.206599], [95.908439, 5.206599], [95.908439, 5.204849], [95.909377, 5.204787], [95.909441, 5.20385], [95.910358, 5.203767], [95.910447, 5.202856], [95.912182, 5.202856], [95.912314, 5.203791], [95.91417, 5.203868], [95.914375, 5.206784], [95.914452, 5.202724], [95.913629, 5.202409], [95.913472, 5.201724], [95.913629, 5.201038], [95.914427, 5.200837], [95.914671, 5.200081], [95.915958, 5.200081], [95.916238, 5.2038], [95.917394, 5.203804], [95.917566, 5.202976], [95.919813, 5.202724], [95.919604, 5.201724], [95.919956, 5.201366], [95.921314, 5.202109], [95.924314, 5.20195], [95.924863, 5.202176], [95.925142, 5.203896], [95.926755, 5.205283], [95.927038, 5.207], [95.927675, 5.207085], [95.928314, 5.206337], [95.928701, 5.206724], [95.928675, 5.208085], [95.926314, 5.208286], [95.925942, 5.208724], [95.925948, 5.21109], [95.927405, 5.211724], [95.926742, 5.212152], [95.926512, 5.212921], [95.925314, 5.213065], [95.9246, 5.214009], [95.923042, 5.214451], [95.922903, 5.215724], [95.923757, 5.216724], [95.923632, 5.218406], [95.924161, 5.218724], [95.923314, 5.218858]]], "type": "Polygon"}, "type": "Feature"}], "type": "FeatureCollection"}