{"features": [{"properties": {"fill-opacity": 0.33, "fillColor": "#bf4040", "opacity": 0.33, "fill": "#bf4040", "fillOpacity": 0.33, "color": "#bf4040", "contour": 15.0, "metric": "time"}, "geometry": {"coordinates": [[[97.049377, 4.780378], [97.047828, 4.780167], [97.047377, 4.779414], [97.046241, 4.779483], [97.045377, 4.780377], [97.044861, 4.780135], [97.044491, 4.778505], [97.042686, 4.77831], [97.042501, 4.773619], [97.041606, 4.77339], [97.041445, 4.77155], [97.038612, 4.771383], [97.038377, 4.769488], [97.037223, 4.769619], [97.037101, 4.776619], [97.03686, 4.777102], [97.035119, 4.777361], [97.034377, 4.778062], [97.033831, 4.777164], [97.033637, 4.775358], [97.033005, 4.77499], [97.032377, 4.773827], [97.031625, 4.773619], [97.032205, 4.773447], [97.032377, 4.772311], [97.033609, 4.772386], [97.03385, 4.773619], [97.03478, 4.774216], [97.035031, 4.775619], [97.035559, 4.775801], [97.035522, 4.768619], [97.034693, 4.768303], [97.034568, 4.764619], [97.033377, 4.763368], [97.032146, 4.763388], [97.031631, 4.765873], [97.030124, 4.766872], [97.030075, 4.765619], [97.03088, 4.764619], [97.030743, 4.762619], [97.029649, 4.761347], [97.028081, 4.760915], [97.02779, 4.760205], [97.026666, 4.759619], [97.027066, 4.758619], [97.028377, 4.759205], [97.030653, 4.759342], [97.031133, 4.760863], [97.032377, 4.760921], [97.033377, 4.761869], [97.034538, 4.76178], [97.034671, 4.760619], [97.035377, 4.759913], [97.039377, 4.76004], [97.040377, 4.759231], [97.042427, 4.759569], [97.040991, 4.760233], [97.040377, 4.76112], [97.037377, 4.761297], [97.036202, 4.762444], [97.03617, 4.763619], [97.036994, 4.764002], [97.037185, 4.764619], [97.037223, 4.767619], [97.040118, 4.767877], [97.040377, 4.768734], [97.043377, 4.768703], [97.043506, 4.766748], [97.044419, 4.766661], [97.044504, 4.765746], [97.04625, 4.765746], [97.046219, 4.771461], [97.044535, 4.771461], [97.044377, 4.770543], [97.044202, 4.771444], [97.043267, 4.771619], [97.046573, 4.771815], [97.046821, 4.771063], [97.047377, 4.770841], [97.048154, 4.771619], [97.047932, 4.772174], [97.047181, 4.772423], [97.047026, 4.773268], [97.045377, 4.773469], [97.045123, 4.774365], [97.044292, 4.774534], [97.044377, 4.776778], [97.046531, 4.776773], [97.047986, 4.775228], [97.049377, 4.774973], [97.049692, 4.775619], [97.048229, 4.777767], [97.052746, 4.777988], [97.05311, 4.776352], [97.054849, 4.776091], [97.055377, 4.775172], [97.0557, 4.776619], [97.054728, 4.77797], [97.053008, 4.77825], [97.052817, 4.779059], [97.052377, 4.779279], [97.050377, 4.779354], [97.049377, 4.780378]]], "type": "Polygon"}, "type": "Feature"}], "type": "FeatureCollection"}