{"features": [{"properties": {"fill-opacity": 0.33, "fillColor": "#bf4040", "opacity": 0.33, "fill": "#bf4040", "fillOpacity": 0.33, "color": "#bf4040", "contour": 15.0, "metric": "time"}, "geometry": {"coordinates": [[[97.49181, 2.940262], [97.491129, 2.934793], [97.488253, 2.932351], [97.487939, 2.930665], [97.487176, 2.930428], [97.486927, 2.929677], [97.486145, 2.929459], [97.485917, 2.928687], [97.48512, 2.928483], [97.48481, 2.927658], [97.484535, 2.929518], [97.483086, 2.929518], [97.48281, 2.927672], [97.48258, 2.928563], [97.481734, 2.928717], [97.481579, 2.929562], [97.47781, 2.929692], [97.477014, 2.92959], [97.47681, 2.927703], [97.47281, 2.927713], [97.472655, 2.928638], [97.47181, 2.928716], [97.469963, 2.928641], [97.46981, 2.927722], [97.468765, 2.927748], [97.468676, 2.928659], [97.46294, 2.928664], [97.46281, 2.925724], [97.45181, 2.925695], [97.451684, 2.928793], [97.452534, 2.92907], [97.452534, 2.930517], [97.45081, 2.930661], [97.450076, 2.930528], [97.449943, 2.929793], [97.449916, 2.924793], [97.44781, 2.924678], [97.447561, 2.925544], [97.445722, 2.925705], [97.445532, 2.926515], [97.444714, 2.926697], [97.444502, 2.927485], [97.443704, 2.927687], [97.44347, 2.928453], [97.442151, 2.928453], [97.44181, 2.927631], [97.440416, 2.929399], [97.438664, 2.929647], [97.438339, 2.930322], [97.436631, 2.930614], [97.436282, 2.931265], [97.43458, 2.931563], [97.43381, 2.932406], [97.432486, 2.932469], [97.43181, 2.933221], [97.430156, 2.933139], [97.42981, 2.933472], [97.429615, 2.932989], [97.431185, 2.932168], [97.431473, 2.931456], [97.433065, 2.931049], [97.433377, 2.93036], [97.43481, 2.930103], [97.43581, 2.929065], [97.436966, 2.92895], [97.437253, 2.928236], [97.438941, 2.927924], [97.440155, 2.926138], [97.44181, 2.925956], [97.442112, 2.925095], [97.44381, 2.924934], [97.444078, 2.924061], [97.445893, 2.923876], [97.446052, 2.923035], [97.45261, 2.922994], [97.45281, 2.923888], [97.46781, 2.923868], [97.467963, 2.922947], [97.47281, 2.922878], [97.472988, 2.921972], [97.48181, 2.921923], [97.4821, 2.921083], [97.48481, 2.920958], [97.485168, 2.920151], [97.48581, 2.919972], [97.486453, 2.920151], [97.486632, 2.920793], [97.486459, 2.922442], [97.484671, 2.922793], [97.486526, 2.923078], [97.486526, 2.924509], [97.485718, 2.924885], [97.48881, 2.924967], [97.489201, 2.924185], [97.489947, 2.923931], [97.492332, 2.921315], [97.494031, 2.921014], [97.496534, 2.918517], [97.49781, 2.917663], [97.498615, 2.917793], [97.495247, 2.92223], [97.493624, 2.922607], [97.492362, 2.924345], [97.491667, 2.92465], [97.491405, 2.925388], [97.490681, 2.925664], [97.490439, 2.926423], [97.48881, 2.92662], [97.488478, 2.927462], [97.487653, 2.927793], [97.489418, 2.929186], [97.489667, 2.930937], [97.490358, 2.931246], [97.4925, 2.933793], [97.49181, 2.940262]]], "type": "Polygon"}, "type": "Feature"}], "type": "FeatureCollection"}