{"features": [{"properties": {"fill-opacity": 0.33, "fillColor": "#bf4040", "opacity": 0.33, "fill": "#bf4040", "fillOpacity": 0.33, "color": "#bf4040", "contour": 15.0, "metric": "time"}, "geometry": {"coordinates": [[[96.889368, 4.607191], [96.886741, 4.607018], [96.886368, 4.606228], [96.884368, 4.60624], [96.884038, 4.607062], [96.883368, 4.607227], [96.876368, 4.607068], [96.875691, 4.606392], [96.875576, 4.605184], [96.874368, 4.603984], [96.870663, 4.603392], [96.870979, 4.602392], [96.872474, 4.601286], [96.874042, 4.602718], [96.875782, 4.602978], [96.877177, 4.604583], [96.878884, 4.604875], [96.879216, 4.605544], [96.882368, 4.605564], [96.882683, 4.604707], [96.883469, 4.604492], [96.883652, 4.602676], [96.884458, 4.602482], [96.884626, 4.60165], [96.88549, 4.601392], [96.885502, 4.599392], [96.884655, 4.599105], [96.884511, 4.598392], [96.884685, 4.596709], [96.885368, 4.59655], [96.887069, 4.596691], [96.887233, 4.599392], [96.888115, 4.599644], [96.888289, 4.60047], [96.890435, 4.600459], [96.890585, 4.597609], [96.89348, 4.597392], [96.892614, 4.597146], [96.892456, 4.595304], [96.891643, 4.595117], [96.891491, 4.592268], [96.890601, 4.591392], [96.890786, 4.588392], [96.892368, 4.58702], [96.892772, 4.588392], [96.892098, 4.589122], [96.892121, 4.590392], [96.893003, 4.590757], [96.893227, 4.593392], [96.894103, 4.593657], [96.894281, 4.594479], [96.895103, 4.594656], [96.895285, 4.595474], [96.896127, 4.595633], [96.896127, 4.597151], [96.895255, 4.597392], [96.89531, 4.601449], [96.897204, 4.601556], [96.897368, 4.60247], [96.89752, 4.601544], [96.898417, 4.601441], [96.898514, 4.600538], [96.901368, 4.600461], [96.9015, 4.599524], [96.90341, 4.599434], [96.903494, 4.598517], [96.906368, 4.598456], [96.906505, 4.597528], [96.908439, 4.597463], [96.908512, 4.596536], [96.911221, 4.596539], [96.911318, 4.597442], [96.913211, 4.597548], [96.913424, 4.598448], [96.913548, 4.596572], [96.914429, 4.596453], [96.914563, 4.594587], [96.91547, 4.594392], [96.915368, 4.593251], [96.914368, 4.593675], [96.913816, 4.593392], [96.913632, 4.591392], [96.913878, 4.590902], [96.91549, 4.590392], [96.915581, 4.581392], [96.915793, 4.580817], [96.916604, 4.580392], [96.916804, 4.575392], [96.917888, 4.574392], [96.918158, 4.573182], [96.919368, 4.5726], [96.919636, 4.573392], [96.918847, 4.574392], [96.919038, 4.577392], [96.918082, 4.578392], [96.918146, 4.581392], [96.917171, 4.582392], [96.917285, 4.589475], [96.920524, 4.589392], [96.920547, 4.587392], [96.919783, 4.586977], [96.919575, 4.586392], [96.919621, 4.584392], [96.920368, 4.583645], [96.92193, 4.584829], [96.922225, 4.585534], [96.923938, 4.585821], [96.924368, 4.586591], [96.925667, 4.586691], [96.926368, 4.585756], [96.927451, 4.586392], [96.926068, 4.587092], [96.924977, 4.589001], [96.924195, 4.589392], [96.924248, 4.590512], [96.924986, 4.590774], [96.925226, 4.592533], [96.925913, 4.592847], [96.926206, 4.593554], [96.927368, 4.59368], [96.928368, 4.592773], [96.930666, 4.59269], [96.931368, 4.592032], [96.932516, 4.592244], [96.932639, 4.593392], [96.929368, 4.593997], [96.928368, 4.595058], [96.925368, 4.595149], [96.923795, 4.593964], [96.923566, 4.592392], [96.923153, 4.592177], [96.922859, 4.592883], [96.921242, 4.593266], [96.92103, 4.594054], [96.91829, 4.594314], [96.918145, 4.595169], [96.917298, 4.595322], [96.917167, 4.596191], [96.916303, 4.596327], [96.916185, 4.598209], [96.915281, 4.598392], [96.915198, 4.600222], [96.911528, 4.600232], [96.91142, 4.59934], [96.90952, 4.59924], [96.909297, 4.598321], [96.909228, 4.599252], [96.908301, 4.599392], [96.908235, 4.601259], [96.905499, 4.601261], [96.905368, 4.600329], [96.905239, 4.601263], [96.903324, 4.601348], [96.903233, 4.602257], [96.902322, 4.602346], [96.902229, 4.603253], [96.900507, 4.603253], [96.900319, 4.602343], [96.900219, 4.603243], [96.899317, 4.603341], [96.899214, 4.604238], [96.89553, 4.60423], [96.895423, 4.603337], [96.894274, 4.603297], [96.894145, 4.606169], [96.890157, 4.606181], [96.889966, 4.60699], [96.889368, 4.607191]]], "type": "Polygon"}, "type": "Feature"}], "type": "FeatureCollection"}