{"features": [{"properties": {"fill-opacity": 0.33, "fillColor": "#bf4040", "opacity": 0.33, "fill": "#bf4040", "fillOpacity": 0.33, "color": "#bf4040", "contour": 15.0, "metric": "time"}, "geometry": {"coordinates": [[[96.737173, 4.822257], [96.736549, 4.820859], [96.7358, 4.820862], [96.735173, 4.821587], [96.734613, 4.820795], [96.733364, 4.820235], [96.735475, 4.819537], [96.735364, 4.817044], [96.729789, 4.816618], [96.729173, 4.816445], [96.728791, 4.815235], [96.730173, 4.814393], [96.730767, 4.815641], [96.731173, 4.815757], [96.736173, 4.815501], [96.737303, 4.814364], [96.736503, 4.813905], [96.736338, 4.813235], [96.736503, 4.812564], [96.737324, 4.812235], [96.735424, 4.811984], [96.735255, 4.811152], [96.734424, 4.810983], [96.734173, 4.810103], [96.73147, 4.809938], [96.731275, 4.809132], [96.728529, 4.808879], [96.728173, 4.808044], [96.725173, 4.807983], [96.724173, 4.806957], [96.721748, 4.80666], [96.718899, 4.802961], [96.719173, 4.802244], [96.719606, 4.802801], [96.720632, 4.802694], [96.721527, 4.801589], [96.721358, 4.798049], [96.719173, 4.79787], [96.718534, 4.798595], [96.716761, 4.798823], [96.716173, 4.799452], [96.714864, 4.799235], [96.715933, 4.797995], [96.717173, 4.797736], [96.718173, 4.796657], [96.726173, 4.796429], [96.726785, 4.796623], [96.727052, 4.797356], [96.728838, 4.797569], [96.729067, 4.798341], [96.729867, 4.798541], [96.730076, 4.799332], [96.730894, 4.799514], [96.731173, 4.800364], [96.731457, 4.794518], [96.733656, 4.793717], [96.735173, 4.791922], [96.736173, 4.79279], [96.737348, 4.79206], [96.737667, 4.794235], [96.736763, 4.795235], [96.738173, 4.795467], [96.738592, 4.794653], [96.739173, 4.794444], [96.741346, 4.794408], [96.741541, 4.792603], [96.743455, 4.791516], [96.743906, 4.789967], [96.745173, 4.789932], [96.745873, 4.790535], [96.747173, 4.789453], [96.748709, 4.789699], [96.748941, 4.790235], [96.747754, 4.791815], [96.747043, 4.792104], [96.746797, 4.792859], [96.746055, 4.793117], [96.746085, 4.794323], [96.753981, 4.794427], [96.754173, 4.795327], [96.754384, 4.793445], [96.755243, 4.793305], [96.755388, 4.792449], [96.756284, 4.792345], [96.756402, 4.791463], [96.758255, 4.791317], [96.758429, 4.79049], [96.759307, 4.790235], [96.759458, 4.78852], [96.76235, 4.788235], [96.762312, 4.787096], [96.760669, 4.786739], [96.760355, 4.785053], [96.758173, 4.784858], [96.757173, 4.783624], [96.756313, 4.783235], [96.756074, 4.782136], [96.757173, 4.78177], [96.759315, 4.782235], [96.758722, 4.782783], [96.758919, 4.783489], [96.762058, 4.78335], [96.762173, 4.783856], [96.763173, 4.783698], [96.764173, 4.784737], [96.767173, 4.784553], [96.770173, 4.787617], [96.771173, 4.78672], [96.773298, 4.78711], [96.773545, 4.788235], [96.773173, 4.788356], [96.772173, 4.787609], [96.771173, 4.788789], [96.769173, 4.7889], [96.768173, 4.787973], [96.766032, 4.788094], [96.765769, 4.788831], [96.764894, 4.789235], [96.764942, 4.791235], [96.765739, 4.791669], [96.765956, 4.792235], [96.765739, 4.792801], [96.763983, 4.793044], [96.764042, 4.793366], [96.768173, 4.793555], [96.769173, 4.794612], [96.769173, 4.795641], [96.768173, 4.795904], [96.767173, 4.794948], [96.762173, 4.794873], [96.760904, 4.796504], [96.761653, 4.796755], [96.762173, 4.798626], [96.762785, 4.798235], [96.763033, 4.797095], [96.763651, 4.797235], [96.763535, 4.799597], [96.760173, 4.799998], [96.75977, 4.800831], [96.757022, 4.801235], [96.766173, 4.801658], [96.768173, 4.800627], [96.768258, 4.80132], [96.767409, 4.802471], [96.766173, 4.802812], [96.765173, 4.803842], [96.764173, 4.802921], [96.759173, 4.803036], [96.758837, 4.803899], [96.757075, 4.804137], [96.756893, 4.804955], [96.754091, 4.805153], [96.753934, 4.805995], [96.753096, 4.806158], [96.752949, 4.807011], [96.751173, 4.807129], [96.750969, 4.808031], [96.749173, 4.808136], [96.748993, 4.809054], [96.74712, 4.809182], [96.747016, 4.810078], [96.746092, 4.810235], [96.746005, 4.812067], [96.741102, 4.812163], [96.740898, 4.813959], [96.739999, 4.814235], [96.740747, 4.814661], [96.741173, 4.815481], [96.742659, 4.815749], [96.743173, 4.816536], [96.744427, 4.816488], [96.744967, 4.813235], [96.745359, 4.813049], [96.746104, 4.813235], [96.746371, 4.814036], [96.745748, 4.81481], [96.745893, 4.816515], [96.746534, 4.816596], [96.747173, 4.814849], [96.748507, 4.816901], [96.749197, 4.817259], [96.74295, 4.818012], [96.742855, 4.818552], [96.744361, 4.819047], [96.745012, 4.820235], [96.743173, 4.82088], [96.742173, 4.819772], [96.741617, 4.820235], [96.741696, 4.820712], [96.742574, 4.821235], [96.741121, 4.821287], [96.740509, 4.819899], [96.739173, 4.819826], [96.73765, 4.821235], [96.737173, 4.822257]]], "type": "Polygon"}, "type": "Feature"}], "type": "FeatureCollection"}