{"features": [{"properties": {"fill-opacity": 0.33, "fillColor": "#bf4040", "opacity": 0.33, "fill": "#bf4040", "fillOpacity": 0.33, "color": "#bf4040", "contour": 15.0, "metric": "time"}, "geometry": {"coordinates": [[[97.116805, 5.213321], [97.114618, 5.212869], [97.115021, 5.211869], [97.114368, 5.210869], [97.114523, 5.207869], [97.11556, 5.206869], [97.115805, 5.205989], [97.116997, 5.206061], [97.117053, 5.205621], [97.116381, 5.205445], [97.115905, 5.205769], [97.116316, 5.204379], [97.116805, 5.204135], [97.117805, 5.205101], [97.118211, 5.204274], [97.118933, 5.203996], [97.118179, 5.203495], [97.117992, 5.202869], [97.118179, 5.202242], [97.118979, 5.201869], [97.119179, 5.200243], [97.120906, 5.19997], [97.121086, 5.199149], [97.121895, 5.198959], [97.122072, 5.198136], [97.125876, 5.19794], [97.126003, 5.194066], [97.127893, 5.193869], [97.126986, 5.193688], [97.126984, 5.189048], [97.127865, 5.188928], [97.127987, 5.18805], [97.128866, 5.187929], [97.128991, 5.187054], [97.129865, 5.186929], [97.129981, 5.185044], [97.130862, 5.184926], [97.130973, 5.184037], [97.13186, 5.183924], [97.131968, 5.182031], [97.13289, 5.181869], [97.132881, 5.180793], [97.132064, 5.18061], [97.131893, 5.179781], [97.131089, 5.179585], [97.130805, 5.178719], [97.126805, 5.178617], [97.126545, 5.179129], [97.127158, 5.180869], [97.126447, 5.18151], [97.126077, 5.18314], [97.125805, 5.183634], [97.123805, 5.184415], [97.122805, 5.182438], [97.121805, 5.182418], [97.120805, 5.181206], [97.119552, 5.180869], [97.119532, 5.175595], [97.120051, 5.174869], [97.119328, 5.173869], [97.120805, 5.172422], [97.121383, 5.173291], [97.121805, 5.173376], [97.122194, 5.172869], [97.122073, 5.170601], [97.119578, 5.169869], [97.120398, 5.167869], [97.119709, 5.166772], [97.120805, 5.166579], [97.121336, 5.165869], [97.120625, 5.164869], [97.121805, 5.164163], [97.122411, 5.165263], [97.123245, 5.165308], [97.124805, 5.16421], [97.126115, 5.164178], [97.126516, 5.162579], [97.127584, 5.161648], [97.128805, 5.162263], [97.130805, 5.161003], [97.131117, 5.161869], [97.131805, 5.162332], [97.13233, 5.161869], [97.131672, 5.160869], [97.132805, 5.160201], [97.134527, 5.160147], [97.135059, 5.162869], [97.134364, 5.163428], [97.133189, 5.166253], [97.132532, 5.166869], [97.133805, 5.168059], [97.13403, 5.166869], [97.135208, 5.165869], [97.135, 5.164869], [97.135319, 5.164382], [97.137429, 5.162869], [97.137514, 5.160869], [97.138022, 5.160652], [97.138465, 5.164209], [97.139068, 5.165869], [97.138805, 5.166377], [97.137805, 5.166389], [97.137061, 5.165613], [97.136624, 5.165688], [97.13633, 5.167393], [97.135597, 5.167869], [97.135671, 5.169003], [97.136383, 5.169291], [97.136594, 5.169869], [97.136383, 5.170446], [97.133692, 5.170756], [97.134458, 5.171216], [97.134805, 5.173992], [97.135076, 5.173139], [97.136899, 5.172963], [97.137126, 5.17019], [97.137916, 5.169979], [97.138153, 5.169216], [97.13994, 5.168003], [97.14026, 5.166323], [97.142805, 5.164158], [97.145205, 5.164469], [97.145481, 5.166193], [97.146136, 5.166538], [97.146805, 5.167736], [97.147741, 5.166804], [97.148805, 5.167512], [97.149806, 5.166869], [97.150547, 5.170127], [97.154505, 5.173869], [97.153571, 5.174869], [97.153606, 5.178869], [97.153407, 5.17947], [97.152648, 5.179869], [97.152542, 5.184606], [97.151688, 5.184869], [97.152562, 5.185112], [97.152562, 5.186625], [97.151727, 5.18679], [97.151574, 5.187637], [97.15073, 5.187794], [97.150579, 5.188643], [97.149734, 5.188797], [97.150587, 5.189087], [97.150587, 5.190651], [97.149736, 5.1908], [97.149606, 5.19167], [97.148741, 5.191804], [97.148618, 5.193681], [97.147743, 5.193806], [97.147613, 5.194677], [97.146742, 5.194805], [97.146614, 5.195678], [97.145742, 5.195805], [97.145605, 5.197669], [97.14474, 5.197803], [97.144604, 5.198668], [97.14374, 5.198803], [97.143611, 5.199675], [97.142739, 5.199802], [97.142606, 5.200669], [97.14174, 5.200804], [97.14161, 5.201673], [97.139805, 5.201769], [97.139609, 5.202673], [97.137742, 5.202805], [97.137609, 5.203672], [97.136739, 5.203802], [97.136589, 5.204653], [97.132732, 5.204795], [97.132576, 5.205639], [97.131726, 5.205789], [97.131556, 5.206619], [97.129717, 5.206781], [97.129532, 5.207595], [97.127701, 5.207764], [97.127474, 5.208537], [97.125685, 5.208749], [97.125421, 5.209485], [97.123662, 5.209726], [97.123333, 5.210397], [97.121628, 5.210691], [97.121273, 5.211336], [97.119576, 5.21164], [97.118805, 5.212463], [97.117493, 5.212556], [97.116805, 5.213321]]], "type": "Polygon"}, "type": "Feature"}], "type": "FeatureCollection"}