{"features": [{"properties": {"fill-opacity": 0.33, "fillColor": "#bf4040", "opacity": 0.33, "fill": "#bf4040", "fillOpacity": 0.33, "color": "#bf4040", "contour": 15.0, "metric": "time"}, "geometry": {"coordinates": [[[97.976146, 4.060561], [97.974146, 4.060739], [97.973724, 4.060433], [97.973536, 4.058433], [97.972707, 4.057872], [97.972449, 4.056433], [97.971399, 4.055433], [97.971318, 4.050433], [97.971491, 4.049779], [97.972303, 4.049433], [97.972282, 4.046569], [97.971398, 4.046181], [97.971257, 4.042433], [97.967328, 4.042251], [97.967216, 4.036433], [97.966279, 4.0363], [97.966189, 4.03539], [97.965273, 4.035307], [97.965209, 4.034433], [97.965271, 4.032559], [97.96719, 4.032478], [97.967282, 4.03157], [97.968194, 4.031481], [97.968299, 4.030587], [97.969198, 4.030485], [97.969309, 4.029596], [97.970203, 4.02949], [97.970324, 4.028612], [97.971208, 4.028496], [97.971339, 4.027627], [97.972214, 4.027502], [97.972456, 4.022743], [97.973253, 4.022541], [97.973526, 4.020814], [97.974392, 4.020433], [97.974802, 4.017433], [97.975371, 4.017208], [97.97677, 4.017433], [97.976797, 4.019433], [97.975953, 4.020241], [97.97573, 4.022018], [97.97502, 4.022308], [97.974828, 4.024116], [97.974007, 4.024433], [97.97394, 4.029228], [97.973081, 4.029368], [97.972958, 4.030245], [97.972086, 4.030374], [97.971974, 4.031262], [97.971092, 4.03138], [97.970999, 4.033286], [97.969146, 4.033363], [97.969011, 4.034298], [97.968081, 4.034433], [97.969007, 4.034572], [97.969076, 4.036433], [97.969994, 4.036585], [97.970146, 4.037516], [97.973209, 4.037496], [97.972358, 4.037221], [97.972252, 4.036433], [97.972362, 4.03465], [97.973146, 4.034542], [97.974925, 4.034654], [97.975146, 4.036534], [97.978917, 4.036663], [97.978926, 4.039214], [97.975027, 4.039433], [97.97592, 4.039659], [97.975925, 4.042212], [97.973365, 4.042214], [97.97304, 4.041433], [97.973025, 4.044433], [97.973887, 4.044692], [97.974016, 4.045433], [97.973994, 4.049281], [97.972967, 4.051433], [97.972914, 4.054433], [97.973491, 4.057088], [97.974304, 4.057433], [97.974315, 4.060264], [97.976156, 4.060423], [97.976146, 4.060561]]], "type": "Polygon"}, "type": "Feature"}], "type": "FeatureCollection"}