{"features": [{"properties": {"fill-opacity": 0.33, "fillColor": "#bf4040", "opacity": 0.33, "fill": "#bf4040", "fillOpacity": 0.33, "color": "#bf4040", "contour": 15.0, "metric": "time"}, "geometry": {"coordinates": [[[96.541978, 4.474669], [96.540978, 4.473693], [96.540601, 4.474515], [96.539356, 4.474515], [96.539152, 4.471893], [96.539326, 4.47124], [96.540132, 4.470893], [96.539262, 4.470609], [96.539107, 4.467893], [96.538211, 4.46766], [96.538088, 4.465893], [96.537177, 4.465694], [96.537057, 4.459893], [96.536129, 4.459742], [96.535978, 4.45882], [96.531978, 4.458827], [96.531851, 4.459765], [96.529936, 4.45985], [96.52985, 4.460764], [96.528912, 4.460893], [96.528832, 4.464747], [96.525898, 4.464893], [96.525921, 4.465949], [96.526805, 4.466066], [96.526805, 4.467719], [96.52415, 4.467721], [96.523978, 4.466809], [96.521978, 4.466799], [96.521782, 4.467696], [96.515978, 4.46777], [96.515709, 4.468623], [96.511978, 4.468735], [96.511639, 4.469553], [96.510859, 4.469773], [96.510603, 4.470518], [96.508978, 4.471679], [96.507423, 4.471448], [96.506718, 4.470633], [96.50643, 4.472344], [96.503978, 4.474389], [96.501978, 4.474236], [96.501517, 4.473354], [96.500571, 4.472893], [96.501978, 4.472696], [96.502978, 4.47342], [96.505498, 4.470413], [96.506238, 4.470153], [96.506463, 4.469377], [96.508978, 4.469094], [96.509341, 4.468255], [96.510093, 4.468008], [96.509978, 4.466682], [96.508865, 4.46678], [96.508623, 4.467537], [96.507978, 4.467715], [96.506261, 4.46761], [96.505978, 4.46724], [96.504269, 4.466893], [96.505352, 4.466266], [96.506308, 4.464893], [96.506273, 4.463598], [96.505183, 4.461893], [96.505978, 4.460982], [96.506978, 4.461229], [96.507542, 4.462893], [96.508978, 4.464047], [96.509252, 4.462166], [96.511063, 4.461977], [96.511221, 4.461136], [96.512057, 4.460971], [96.51221, 4.460125], [96.514086, 4.46], [96.514188, 4.459102], [96.516044, 4.458958], [96.516171, 4.458085], [96.517042, 4.457956], [96.51717, 4.457084], [96.518786, 4.457084], [96.518978, 4.457982], [96.521895, 4.457975], [96.522138, 4.457052], [96.523819, 4.457052], [96.523978, 4.457969], [96.524126, 4.457041], [96.525027, 4.456941], [96.524123, 4.456747], [96.523978, 4.455811], [96.520978, 4.455802], [96.520785, 4.456699], [96.518173, 4.456698], [96.517978, 4.455506], [96.515978, 4.455386], [96.515782, 4.455089], [96.516604, 4.453518], [96.518152, 4.453066], [96.518378, 4.451292], [96.519978, 4.451071], [96.520248, 4.450162], [96.521062, 4.449976], [96.52121, 4.449124], [96.522051, 4.448965], [96.52121, 4.44866], [96.521228, 4.446143], [96.522728, 4.446143], [96.522899, 4.446971], [96.52375, 4.447121], [96.523872, 4.448893], [96.524784, 4.449087], [96.524916, 4.449955], [96.525797, 4.450073], [96.525978, 4.451971], [96.526143, 4.451058], [96.527034, 4.450948], [96.52715, 4.450064], [96.528036, 4.449951], [96.528157, 4.449071], [96.529039, 4.448954], [96.529168, 4.448082], [96.530043, 4.447957], [96.530179, 4.447093], [96.532048, 4.446962], [96.532201, 4.445116], [96.53406, 4.444974], [96.534233, 4.444148], [96.535065, 4.44398], [96.535249, 4.443164], [96.536092, 4.443006], [96.536392, 4.442307], [96.538978, 4.442132], [96.539978, 4.441132], [96.542239, 4.441153], [96.542126, 4.439893], [96.543978, 4.439487], [96.544978, 4.440534], [96.545978, 4.440229], [96.546083, 4.440997], [96.543978, 4.441375], [96.543378, 4.442292], [96.541978, 4.442544], [96.540978, 4.443593], [96.537793, 4.443893], [96.537879, 4.444992], [96.538688, 4.445183], [96.538889, 4.446982], [96.540064, 4.446978], [96.540272, 4.446186], [96.540978, 4.446039], [96.541684, 4.446186], [96.542111, 4.447025], [96.542252, 4.446166], [96.542978, 4.446029], [96.543705, 4.446166], [96.543705, 4.447619], [96.542846, 4.44776], [96.542721, 4.448636], [96.540899, 4.448813], [96.540746, 4.44966], [96.539903, 4.449818], [96.539758, 4.450672], [96.53791, 4.450824], [96.537777, 4.451691], [96.534978, 4.451799], [96.534797, 4.452711], [96.531897, 4.452893], [96.531928, 4.453943], [96.532831, 4.45404], [96.53293, 4.454941], [96.533836, 4.455035], [96.533933, 4.456938], [96.537829, 4.457042], [96.537928, 4.457943], [96.538824, 4.458047], [96.538883, 4.463893], [96.53977, 4.464101], [96.539901, 4.46597], [96.540735, 4.466135], [96.540843, 4.468893], [96.541674, 4.469196], [96.541978, 4.471148], [96.543271, 4.471186], [96.543521, 4.470436], [96.544421, 4.469893], [96.544682, 4.468596], [96.545424, 4.468339], [96.545978, 4.467552], [96.546546, 4.467893], [96.546208, 4.469122], [96.54562, 4.469534], [96.5454, 4.471314], [96.543685, 4.471599], [96.543462, 4.472376], [96.542813, 4.472727], [96.542531, 4.474445], [96.541978, 4.474669]]], "type": "Polygon"}, "type": "Feature"}], "type": "FeatureCollection"}