{"features": [{"properties": {"fill-opacity": 0.33, "fillColor": "#bf4040", "opacity": 0.33, "fill": "#bf4040", "fillOpacity": 0.33, "color": "#bf4040", "contour": 15.0, "metric": "time"}, "geometry": {"coordinates": [[[96.189335, 4.208014], [96.188967, 4.206152], [96.190925, 4.203742], [96.196543, 4.20336], [96.196721, 4.201538], [96.197507, 4.201152], [96.197623, 4.19744], [96.198428, 4.197246], [96.198605, 4.196422], [96.200415, 4.196232], [96.200548, 4.193366], [96.201404, 4.193221], [96.201534, 4.192351], [96.2024, 4.192217], [96.202394, 4.191093], [96.197514, 4.190972], [96.197421, 4.189065], [96.194517, 4.188969], [96.194335, 4.188061], [96.185335, 4.188006], [96.185013, 4.18883], [96.184335, 4.188991], [96.173736, 4.18875], [96.169828, 4.188152], [96.173736, 4.187553], [96.183335, 4.187315], [96.183643, 4.18646], [96.184335, 4.186306], [96.192403, 4.18622], [96.19254, 4.184357], [96.193437, 4.184152], [96.193407, 4.18308], [96.192556, 4.182931], [96.192445, 4.182152], [96.192479, 4.176152], [96.192624, 4.175441], [96.193335, 4.175296], [96.194046, 4.175441], [96.19419, 4.176152], [96.194221, 4.181152], [96.195116, 4.181371], [96.195267, 4.18322], [96.196136, 4.183351], [96.19627, 4.185217], [96.198131, 4.185356], [96.198387, 4.186204], [96.198479, 4.183296], [96.199402, 4.183152], [96.19946, 4.179278], [96.201209, 4.179278], [96.20129, 4.181197], [96.202183, 4.181304], [96.202287, 4.1832], [96.203191, 4.183296], [96.20326, 4.186152], [96.204176, 4.186311], [96.204273, 4.190214], [96.207122, 4.190364], [96.207115, 4.192933], [96.205554, 4.192933], [96.205405, 4.192081], [96.204335, 4.192054], [96.204137, 4.193954], [96.203267, 4.194084], [96.203125, 4.194942], [96.202264, 4.195081], [96.203102, 4.195384], [96.203254, 4.196232], [96.208335, 4.19632], [96.208719, 4.195536], [96.210335, 4.194363], [96.214335, 4.194463], [96.216011, 4.192828], [96.218335, 4.192364], [96.219071, 4.193152], [96.219105, 4.194152], [96.21858, 4.195397], [96.217964, 4.195781], [96.217335, 4.198233], [96.21668, 4.196806], [96.215335, 4.196755], [96.214335, 4.195841], [96.211335, 4.195922], [96.210936, 4.196753], [96.210208, 4.197025], [96.209977, 4.197794], [96.209335, 4.197973], [96.200245, 4.198062], [96.20005, 4.198867], [96.199182, 4.199152], [96.198968, 4.202785], [96.198207, 4.203025], [96.197941, 4.203758], [96.197127, 4.203944], [96.196893, 4.20471], [96.196335, 4.204931], [96.192086, 4.204904], [96.190642, 4.206459], [96.189921, 4.206738], [96.189335, 4.208014]]], "type": "Polygon"}, "type": "Feature"}], "type": "FeatureCollection"}