{"features": [{"properties": {"fill-opacity": 0.33, "fillColor": "#bf4040", "opacity": 0.33, "fill": "#bf4040", "fillOpacity": 0.33, "color": "#bf4040", "contour": 15.0, "metric": "time"}, "geometry": {"coordinates": [[[97.478371, 4.904057], [97.476863, 4.90381], [97.47785, 4.903289], [97.478719, 4.902158], [97.478631, 4.89781], [97.476919, 4.897261], [97.476742, 4.89581], [97.477371, 4.895181], [97.478155, 4.896026], [97.479527, 4.895966], [97.480754, 4.894193], [97.481494, 4.893933], [97.481526, 4.89181], [97.479734, 4.891447], [97.479496, 4.890685], [97.478767, 4.890414], [97.478371, 4.889592], [97.477371, 4.890556], [97.474901, 4.89028], [97.474597, 4.888584], [97.473749, 4.88781], [97.474022, 4.885461], [97.474719, 4.885461], [97.474965, 4.88681], [97.47581, 4.887371], [97.476371, 4.88907], [97.477371, 4.888047], [97.479371, 4.888024], [97.481002, 4.889179], [97.481253, 4.889928], [97.482371, 4.889961], [97.482694, 4.886133], [97.483371, 4.885972], [97.484048, 4.886133], [97.484456, 4.888895], [97.484621, 4.88806], [97.485489, 4.88781], [97.485582, 4.885021], [97.486439, 4.884878], [97.48657, 4.884009], [97.487436, 4.883875], [97.487562, 4.883001], [97.491455, 4.882894], [97.491536, 4.881975], [97.492424, 4.881863], [97.492526, 4.880965], [97.493447, 4.880886], [97.493437, 4.87581], [97.492498, 4.875683], [97.492413, 4.874768], [97.491497, 4.874684], [97.491497, 4.872936], [97.494244, 4.872936], [97.494328, 4.873853], [97.495241, 4.87394], [97.495296, 4.880735], [97.49522, 4.881659], [97.494294, 4.881733], [97.49421, 4.883649], [97.492287, 4.883726], [97.492201, 4.88464], [97.489308, 4.884747], [97.489178, 4.885617], [97.488267, 4.88581], [97.488144, 4.888583], [97.487293, 4.888732], [97.487132, 4.889571], [97.486288, 4.889727], [97.486115, 4.890554], [97.484371, 4.890677], [97.484081, 4.89152], [97.483271, 4.89171], [97.482995, 4.895434], [97.482242, 4.895681], [97.481966, 4.896405], [97.480111, 4.89781], [97.479928, 4.90181], [97.480371, 4.902402], [97.481655, 4.90181], [97.481542, 4.90281], [97.478956, 4.903395], [97.478371, 4.904057]]], "type": "Polygon"}, "type": "Feature"}], "type": "FeatureCollection"}