{"features": [{"properties": {"fill-opacity": 0.33, "fillColor": "#bf4040", "opacity": 0.33, "fill": "#bf4040", "fillOpacity": 0.33, "color": "#bf4040", "contour": 15.0, "metric": "time"}, "geometry": {"coordinates": [[[96.216439, 4.590228], [96.212565, 4.590168], [96.212565, 4.58842], [96.215439, 4.588359], [96.215572, 4.587427], [96.217486, 4.587341], [96.217582, 4.586436], [96.219489, 4.586343], [96.219589, 4.585444], [96.222439, 4.585374], [96.222607, 4.584462], [96.224526, 4.584381], [96.224618, 4.583473], [96.226502, 4.583357], [96.226632, 4.582487], [96.232439, 4.582412], [96.232718, 4.579573], [96.233535, 4.57939], [96.233737, 4.578592], [96.237439, 4.578476], [96.237835, 4.57769], [96.23858, 4.577435], [96.238614, 4.57612], [96.237439, 4.575964], [96.236682, 4.575052], [96.235439, 4.57482], [96.234914, 4.574294], [96.235439, 4.570782], [96.236136, 4.573597], [96.237439, 4.57367], [96.238224, 4.57451], [96.239929, 4.574805], [96.240012, 4.578867], [96.238439, 4.5801], [96.23534, 4.580194], [96.235153, 4.581008], [96.234307, 4.581294], [96.234192, 4.584047], [96.228439, 4.584194], [96.228249, 4.585103], [96.225352, 4.585207], [96.225269, 4.586124], [96.224384, 4.586239], [96.224276, 4.587131], [96.221439, 4.587217], [96.22129, 4.588145], [96.219439, 4.588222], [96.2193, 4.589155], [96.217439, 4.589226], [96.217308, 4.590162], [96.216439, 4.590228]]], "type": "Polygon"}, "type": "Feature"}], "type": "FeatureCollection"}