{"features": [{"properties": {"fill-opacity": 0.33, "fillColor": "#bf4040", "opacity": 0.33, "fill": "#bf4040", "fillOpacity": 0.33, "color": "#bf4040", "contour": 15.0, "metric": "time"}, "geometry": {"coordinates": [[[95.350222, 5.485334], [95.349222, 5.485696], [95.348519, 5.482963], [95.346766, 5.482804], [95.346222, 5.483479], [95.345411, 5.483071], [95.34519, 5.482292], [95.346587, 5.481625], [95.346855, 5.479894], [95.348507, 5.47926], [95.348222, 5.472101], [95.347222, 5.472087], [95.346839, 5.472877], [95.345076, 5.473115], [95.344706, 5.474745], [95.343909, 5.47526], [95.344854, 5.47626], [95.344222, 5.476893], [95.343222, 5.476852], [95.342644, 5.47726], [95.34312, 5.47826], [95.342499, 5.478538], [95.340213, 5.478268], [95.340058, 5.47726], [95.339222, 5.476973], [95.338222, 5.478758], [95.337222, 5.478514], [95.336947, 5.47726], [95.337241, 5.47526], [95.337844, 5.47326], [95.338662, 5.47226], [95.338648, 5.469834], [95.337664, 5.46926], [95.339606, 5.468644], [95.339807, 5.46826], [95.339144, 5.46726], [95.339222, 5.466794], [95.339338, 5.467143], [95.34042, 5.467061], [95.340966, 5.46826], [95.34148, 5.468518], [95.341844, 5.467882], [95.343405, 5.467443], [95.343518, 5.466964], [95.343458, 5.466024], [95.342488, 5.464994], [95.33987, 5.464908], [95.339222, 5.466179], [95.338276, 5.466314], [95.338034, 5.465072], [95.339222, 5.463797], [95.341222, 5.463643], [95.341778, 5.462816], [95.343404, 5.462442], [95.343695, 5.460733], [95.345354, 5.459392], [95.345623, 5.458661], [95.348989, 5.458492], [95.349731, 5.458751], [95.349976, 5.45926], [95.34805, 5.46126], [95.348087, 5.46526], [95.35029, 5.465328], [95.350394, 5.457432], [95.3513, 5.457338], [95.351291, 5.45626], [95.348347, 5.456134], [95.348347, 5.454386], [95.351266, 5.454304], [95.351356, 5.453394], [95.352292, 5.45326], [95.352366, 5.451405], [95.354271, 5.45131], [95.354383, 5.448422], [95.360222, 5.448354], [95.360431, 5.447469], [95.361222, 5.447364], [95.362013, 5.447469], [95.362222, 5.448363], [95.363301, 5.448339], [95.363386, 5.446096], [95.361874, 5.445607], [95.361617, 5.44426], [95.363431, 5.444469], [95.364222, 5.44288], [95.364892, 5.44459], [95.36512, 5.447361], [95.367945, 5.447537], [95.368222, 5.449397], [95.368532, 5.44857], [95.371222, 5.44843], [95.371625, 5.446663], [95.373372, 5.44641], [95.374502, 5.44526], [95.375048, 5.441087], [95.376667, 5.440705], [95.377222, 5.440068], [95.378222, 5.440081], [95.376749, 5.44226], [95.377222, 5.442758], [95.379222, 5.442786], [95.379758, 5.44326], [95.377222, 5.443762], [95.376874, 5.44426], [95.377013, 5.446469], [95.378222, 5.446672], [95.378809, 5.44726], [95.378586, 5.448624], [95.377956, 5.448995], [95.377577, 5.450615], [95.376807, 5.45126], [95.377813, 5.452669], [95.379002, 5.45326], [95.37687, 5.453908], [95.37639, 5.457091], [95.376946, 5.45726], [95.37618, 5.457302], [95.375919, 5.45626], [95.374907, 5.455575], [95.374484, 5.453997], [95.3738, 5.453682], [95.373418, 5.452064], [95.372222, 5.451073], [95.371107, 5.451145], [95.37083, 5.452868], [95.369999, 5.45326], [95.369804, 5.455842], [95.369037, 5.45626], [95.368985, 5.45926], [95.370522, 5.460959], [95.369978, 5.46226], [95.37004, 5.463442], [95.370906, 5.46426], [95.370969, 5.465513], [95.372222, 5.465724], [95.373278, 5.46726], [95.371878, 5.467917], [95.371744, 5.468782], [95.370784, 5.469822], [95.370368, 5.472406], [95.369666, 5.471815], [95.368846, 5.471884], [95.368222, 5.473498], [95.367737, 5.47126], [95.367222, 5.470811], [95.366493, 5.47126], [95.366222, 5.472275], [95.365859, 5.46926], [95.365222, 5.469021], [95.364632, 5.47167], [95.363058, 5.472097], [95.362222, 5.473018], [95.360222, 5.473001], [95.359222, 5.474039], [95.357222, 5.474067], [95.356608, 5.473873], [95.356222, 5.473094], [95.354249, 5.473232], [95.354396, 5.472434], [95.353493, 5.471989], [95.353222, 5.471124], [95.352912, 5.47195], [95.351118, 5.472156], [95.351039, 5.47426], [95.3518, 5.474682], [95.352222, 5.476524], [95.353222, 5.475572], [95.354222, 5.475701], [95.35482, 5.47526], [95.354188, 5.47426], [95.354222, 5.47388], [95.354303, 5.474179], [95.355378, 5.474103], [95.35573, 5.47626], [95.35671, 5.47726], [95.356386, 5.48026], [95.356937, 5.48126], [95.354784, 5.482822], [95.354222, 5.484432], [95.350222, 5.484146], [95.350222, 5.485334]]], "type": "Polygon"}, "type": "Feature"}], "type": "FeatureCollection"}