{"features": [{"properties": {"fill-opacity": 0.33, "fillColor": "#bf4040", "opacity": 0.33, "fill": "#bf4040", "fillOpacity": 0.33, "color": "#bf4040", "contour": 15.0, "metric": "time"}, "geometry": {"coordinates": [[[95.456388, 5.525901], [95.455679, 5.523338], [95.4548, 5.522926], [95.45451, 5.522216], [95.453719, 5.522007], [95.453388, 5.517257], [95.453234, 5.518184], [95.452315, 5.518338], [95.452245, 5.520195], [95.451341, 5.520291], [95.45125, 5.521199], [95.450343, 5.521293], [95.450258, 5.523208], [95.448345, 5.523295], [95.448258, 5.524208], [95.447344, 5.524294], [95.447254, 5.525204], [95.445522, 5.525204], [95.445519, 5.522469], [95.446431, 5.522381], [95.446514, 5.520464], [95.448432, 5.520382], [95.448524, 5.519474], [95.449434, 5.519384], [95.449529, 5.518479], [95.450436, 5.518386], [95.450538, 5.516488], [95.451439, 5.516389], [95.451544, 5.515494], [95.45247, 5.515338], [95.45245, 5.512276], [95.448622, 5.512104], [95.448622, 5.510571], [95.450388, 5.51045], [95.450594, 5.509544], [95.451491, 5.509338], [95.450605, 5.509121], [95.450463, 5.508263], [95.449619, 5.508107], [95.449467, 5.507259], [95.448632, 5.507093], [95.448388, 5.504193], [95.447152, 5.505102], [95.446054, 5.505338], [95.446043, 5.506338], [95.445388, 5.506993], [95.444591, 5.506135], [95.443616, 5.50611], [95.443239, 5.506188], [95.443059, 5.507338], [95.442388, 5.508009], [95.441208, 5.507157], [95.441111, 5.508615], [95.442038, 5.509338], [95.441041, 5.510991], [95.440388, 5.51318], [95.439596, 5.50813], [95.439158, 5.508107], [95.438388, 5.508955], [95.435997, 5.508947], [95.435388, 5.509681], [95.433706, 5.509338], [95.434844, 5.508794], [95.435388, 5.507958], [95.437388, 5.507749], [95.438715, 5.506338], [95.436889, 5.505338], [95.436822, 5.503338], [95.437388, 5.501179], [95.438001, 5.502725], [95.439749, 5.502977], [95.440182, 5.505544], [95.441388, 5.505588], [95.442795, 5.503745], [95.445388, 5.503514], [95.445714, 5.502664], [95.446388, 5.502501], [95.448486, 5.502435], [95.447726, 5.502], [95.447726, 5.500676], [95.450063, 5.500663], [95.450503, 5.502453], [95.451592, 5.501338], [95.451629, 5.499338], [95.452388, 5.498579], [95.453147, 5.499338], [95.453388, 5.50152], [95.454528, 5.501478], [95.454825, 5.500775], [95.456388, 5.499594], [95.457388, 5.500595], [95.462388, 5.500816], [95.463169, 5.500338], [95.463388, 5.499598], [95.464795, 5.502338], [95.464388, 5.502953], [95.462388, 5.50186], [95.456388, 5.502106], [95.45596, 5.50291], [95.455184, 5.503338], [95.455948, 5.503778], [95.455948, 5.504897], [95.454388, 5.505122], [95.453388, 5.504155], [95.451388, 5.50418], [95.451089, 5.505039], [95.45026, 5.505338], [95.451149, 5.505577], [95.451311, 5.506415], [95.452164, 5.506562], [95.452315, 5.507411], [95.453175, 5.507551], [95.453317, 5.509409], [95.454152, 5.509574], [95.454314, 5.510412], [95.455137, 5.510589], [95.455301, 5.511425], [95.456121, 5.511605], [95.456284, 5.514442], [95.457065, 5.514661], [95.457388, 5.515513], [95.459007, 5.515719], [95.459181, 5.517545], [95.459953, 5.517773], [95.460171, 5.518338], [95.459953, 5.518903], [95.458823, 5.518903], [95.458595, 5.518131], [95.457783, 5.517943], [95.457513, 5.517213], [95.455732, 5.516994], [95.455318, 5.516268], [95.455245, 5.520338], [95.456029, 5.520697], [95.456251, 5.521475], [95.457147, 5.522338], [95.45689, 5.52484], [95.456388, 5.525901]]], "type": "Polygon"}, "type": "Feature"}], "type": "FeatureCollection"}