{"features": [{"properties": {"fill-opacity": 0.33, "fillColor": "#bf4040", "opacity": 0.33, "fill": "#bf4040", "fillOpacity": 0.33, "color": "#bf4040", "contour": 15.0, "metric": "time"}, "geometry": {"coordinates": [[[96.758292, 4.798104], [96.758013, 4.795884], [96.75957, 4.795441], [96.761552, 4.793163], [96.760292, 4.791727], [96.759292, 4.792915], [96.756984, 4.792855], [96.756738, 4.793609], [96.755886, 4.794163], [96.75564, 4.795511], [96.754912, 4.795783], [96.754292, 4.796991], [96.753391, 4.797065], [96.753464, 4.796163], [96.754616, 4.794487], [96.754887, 4.792758], [96.7566, 4.792471], [96.756817, 4.791688], [96.758454, 4.791325], [96.758697, 4.788568], [96.762292, 4.788327], [96.762457, 4.787163], [96.760687, 4.786768], [96.759446, 4.785009], [96.757807, 4.784649], [96.757292, 4.783789], [96.755701, 4.784572], [96.755292, 4.785172], [96.754811, 4.783645], [96.754164, 4.783163], [96.755292, 4.782832], [96.755941, 4.781812], [96.757292, 4.780992], [96.758656, 4.7818], [96.759105, 4.78335], [96.76084, 4.783615], [96.761478, 4.784349], [96.761502, 4.782163], [96.760551, 4.780904], [96.759855, 4.780601], [96.759588, 4.779163], [96.760646, 4.778163], [96.760897, 4.776768], [96.76159, 4.776461], [96.762292, 4.775455], [96.763292, 4.775336], [96.763653, 4.776524], [96.763493, 4.777364], [96.762027, 4.777898], [96.76204, 4.778415], [96.764505, 4.779163], [96.762292, 4.779685], [96.762032, 4.780163], [96.763895, 4.78156], [96.764186, 4.78427], [96.76803, 4.784425], [96.768212, 4.786244], [96.770068, 4.786387], [96.770292, 4.787267], [96.770487, 4.786358], [96.772292, 4.786257], [96.773104, 4.786351], [96.773292, 4.787253], [96.776121, 4.787334], [96.776236, 4.788219], [96.777128, 4.788328], [96.777292, 4.791238], [96.782292, 4.791227], [96.782417, 4.790288], [96.784167, 4.790288], [96.784229, 4.792163], [96.785162, 4.792293], [96.785292, 4.793236], [96.785445, 4.792316], [96.790126, 4.79233], [96.790128, 4.794999], [96.784292, 4.795097], [96.784153, 4.796024], [96.782431, 4.796024], [96.782292, 4.793099], [96.779292, 4.793094], [96.77915, 4.794021], [96.77644, 4.794016], [96.776342, 4.793113], [96.775446, 4.79301], [96.775372, 4.790163], [96.774459, 4.789996], [96.774292, 4.789076], [96.769292, 4.789055], [96.768508, 4.788948], [96.768292, 4.788048], [96.766292, 4.788035], [96.766019, 4.78889], [96.764134, 4.789163], [96.764943, 4.789512], [96.76516, 4.791296], [96.765874, 4.791581], [96.766083, 4.792163], [96.765874, 4.792745], [96.76406, 4.793163], [96.764292, 4.793453], [96.767292, 4.793594], [96.768292, 4.794704], [96.770518, 4.795163], [96.769758, 4.795629], [96.769292, 4.796941], [96.768726, 4.795729], [96.767292, 4.795649], [96.766579, 4.794876], [96.762292, 4.794876], [96.760677, 4.796548], [96.758905, 4.796775], [96.758292, 4.798104]]], "type": "Polygon"}, "type": "Feature"}], "type": "FeatureCollection"}