{"features": [{"properties": {"fill-opacity": 0.33, "fillColor": "#bf4040", "opacity": 0.33, "fill": "#bf4040", "fillOpacity": 0.33, "color": "#bf4040", "contour": 15.0, "metric": "time"}, "geometry": {"coordinates": [[[97.79971, 3.555647], [97.798837, 3.555583], [97.79871, 3.554642], [97.79488, 3.55454], [97.794883, 3.551884], [97.796536, 3.551884], [97.79671, 3.552788], [97.796858, 3.551858], [97.798562, 3.551858], [97.798755, 3.552755], [97.798847, 3.551847], [97.799784, 3.55171], [97.799882, 3.548883], [97.800772, 3.548772], [97.800911, 3.547911], [97.801781, 3.547781], [97.801943, 3.546944], [97.802794, 3.546794], [97.802989, 3.545989], [97.803809, 3.54581], [97.804042, 3.545043], [97.804938, 3.54471], [97.805162, 3.54271], [97.804354, 3.54171], [97.80471, 3.539808], [97.805263, 3.541157], [97.806205, 3.541205], [97.806635, 3.540635], [97.807054, 3.54071], [97.806931, 3.54171], [97.806258, 3.54271], [97.80671, 3.543214], [97.808819, 3.54371], [97.80671, 3.544206], [97.806334, 3.546334], [97.8056, 3.546601], [97.805422, 3.547422], [97.80462, 3.54762], [97.804463, 3.548463], [97.803634, 3.548634], [97.803504, 3.549505], [97.802644, 3.549644], [97.802522, 3.550523], [97.801652, 3.550653], [97.801564, 3.553564], [97.800664, 3.553665], [97.800583, 3.555583], [97.79971, 3.555647]]], "type": "Polygon"}, "type": "Feature"}], "type": "FeatureCollection"}