{"features": [{"properties": {"fill-opacity": 0.33, "fillColor": "#bf4040", "opacity": 0.33, "fill": "#bf4040", "fillOpacity": 0.33, "color": "#bf4040", "contour": 15.0, "metric": "time"}, "geometry": {"coordinates": [[[97.120764, 4.731906], [97.120115, 4.730276], [97.119876, 4.723627], [97.119988, 4.722851], [97.120859, 4.722627], [97.120838, 4.719627], [97.119913, 4.719479], [97.11984, 4.717627], [97.118925, 4.717467], [97.118819, 4.716573], [97.113956, 4.716435], [97.113764, 4.715528], [97.109764, 4.71551], [97.10948, 4.718342], [97.108618, 4.718481], [97.108441, 4.720304], [97.106644, 4.720507], [97.106378, 4.721241], [97.105764, 4.721434], [97.101764, 4.721376], [97.100764, 4.720343], [97.098764, 4.720255], [97.097764, 4.718996], [97.096545, 4.718847], [97.096382, 4.71801], [97.095699, 4.717627], [97.098764, 4.71714], [97.099252, 4.717627], [97.099522, 4.71887], [97.101764, 4.718884], [97.102764, 4.719857], [97.104764, 4.71982], [97.105125, 4.718988], [97.106764, 4.718796], [97.107065, 4.717928], [97.107911, 4.717773], [97.108011, 4.713873], [97.114764, 4.713725], [97.115569, 4.713822], [97.115764, 4.71472], [97.120603, 4.714789], [97.120711, 4.71568], [97.121608, 4.715783], [97.121715, 4.717676], [97.123622, 4.71777], [97.123718, 4.718674], [97.124626, 4.718766], [97.124764, 4.719693], [97.124894, 4.718756], [97.126806, 4.718669], [97.126809, 4.717583], [97.124904, 4.717487], [97.124904, 4.715767], [97.126834, 4.715627], [97.124925, 4.715467], [97.124824, 4.713568], [97.119764, 4.713418], [97.119183, 4.713208], [97.119011, 4.711627], [97.119964, 4.710827], [97.123519, 4.710873], [97.123764, 4.711734], [97.126583, 4.711809], [97.126712, 4.71368], [97.127764, 4.713698], [97.127912, 4.712774], [97.128843, 4.712627], [97.12793, 4.712462], [97.127824, 4.709568], [97.126948, 4.709444], [97.126764, 4.70853], [97.123764, 4.708516], [97.123509, 4.709371], [97.121033, 4.709359], [97.120859, 4.707532], [97.11908, 4.707312], [97.118873, 4.706519], [97.118105, 4.706287], [97.117892, 4.7045], [97.116229, 4.703163], [97.116016, 4.698375], [97.114764, 4.697075], [97.113036, 4.696627], [97.113112, 4.695627], [97.116058, 4.695334], [97.116307, 4.696627], [97.117387, 4.697627], [97.117527, 4.701627], [97.119375, 4.703016], [97.119583, 4.704627], [97.120444, 4.704947], [97.120661, 4.70573], [97.123528, 4.705864], [97.123764, 4.706738], [97.126764, 4.706724], [97.126981, 4.702844], [97.127838, 4.702701], [97.128005, 4.700868], [97.12889, 4.700627], [97.129045, 4.697908], [97.129915, 4.697627], [97.129102, 4.697289], [97.128936, 4.695627], [97.129107, 4.69497], [97.129948, 4.694627], [97.130196, 4.692059], [97.132764, 4.691873], [97.133764, 4.690954], [97.135764, 4.691012], [97.136764, 4.692116], [97.137764, 4.691297], [97.139352, 4.691627], [97.138309, 4.692171], [97.137764, 4.693031], [97.135764, 4.693213], [97.134764, 4.69229], [97.134481, 4.693627], [97.133764, 4.694343], [97.132943, 4.693449], [97.131624, 4.693487], [97.131468, 4.699331], [97.130631, 4.699627], [97.130516, 4.702379], [97.129685, 4.702548], [97.129546, 4.704409], [97.12866, 4.704627], [97.128671, 4.707627], [97.129586, 4.707806], [97.129709, 4.710682], [97.130602, 4.71079], [97.130614, 4.714477], [97.129715, 4.714578], [97.129619, 4.715482], [97.128695, 4.715627], [97.128638, 4.720501], [97.126764, 4.720564], [97.126634, 4.721497], [97.125764, 4.721562], [97.1229, 4.721492], [97.122686, 4.720627], [97.122528, 4.725391], [97.121631, 4.725627], [97.121414, 4.730276], [97.120764, 4.731906]]], "type": "Polygon"}, "type": "Feature"}], "type": "FeatureCollection"}