{"features": [{"properties": {"fill-opacity": 0.33, "fillColor": "#bf4040", "opacity": 0.33, "fill": "#bf4040", "fillOpacity": 0.33, "color": "#bf4040", "contour": 15.0, "metric": "time"}, "geometry": {"coordinates": [[[97.3632, 5.034519], [97.361363, 5.034436], [97.361363, 5.032762], [97.362274, 5.032599], [97.362326, 5.028726], [97.370278, 5.028677], [97.370453, 5.027852], [97.371292, 5.027692], [97.371509, 5.026908], [97.372315, 5.026715], [97.372578, 5.025977], [97.373459, 5.025599], [97.372743, 5.024599], [97.3732, 5.022975], [97.375607, 5.025192], [97.3762, 5.026847], [97.374066, 5.027465], [97.373838, 5.028237], [97.373095, 5.028495], [97.372922, 5.029321], [97.372115, 5.029514], [97.371961, 5.03036], [97.364156, 5.030556], [97.36404, 5.034439], [97.3632, 5.034519]]], "type": "Polygon"}, "type": "Feature"}], "type": "FeatureCollection"}