{"features": [{"properties": {"fill-opacity": 0.33, "fillColor": "#bf4040", "opacity": 0.33, "fill": "#bf4040", "fillOpacity": 0.33, "color": "#bf4040", "contour": 15.0, "metric": "time"}, "geometry": {"coordinates": [[[97.347283, 5.135548], [97.340413, 5.135522], [97.340283, 5.134589], [97.335457, 5.134479], [97.335457, 5.132827], [97.340283, 5.132716], [97.340408, 5.131779], [97.342157, 5.131779], [97.342283, 5.133723], [97.346283, 5.133748], [97.34651, 5.13288], [97.348372, 5.132742], [97.348573, 5.131944], [97.349391, 5.131762], [97.349695, 5.130065], [97.35087, 5.130065], [97.351283, 5.130864], [97.353283, 5.12927], [97.354465, 5.12947], [97.353691, 5.131061], [97.352137, 5.132507], [97.35188, 5.13325], [97.350283, 5.13349], [97.350002, 5.134372], [97.348283, 5.134532], [97.348072, 5.135443], [97.347283, 5.135548]]], "type": "Polygon"}, "type": "Feature"}], "type": "FeatureCollection"}