{"features": [{"properties": {"fill-opacity": 0.33, "fillColor": "#bf4040", "opacity": 0.33, "fill": "#bf4040", "fillOpacity": 0.33, "color": "#bf4040", "contour": 15.0, "metric": "time"}, "geometry": {"coordinates": [[[95.445559, 5.17258], [95.44423, 5.171616], [95.443743, 5.169104], [95.441948, 5.167898], [95.441682, 5.167164], [95.439874, 5.166972], [95.439658, 5.166188], [95.438841, 5.166006], [95.438559, 5.165173], [95.435766, 5.16508], [95.435628, 5.156287], [95.434692, 5.156154], [95.434602, 5.154244], [95.433685, 5.154161], [95.433625, 5.151221], [95.432693, 5.151153], [95.432627, 5.150219], [95.431698, 5.150148], [95.431606, 5.14924], [95.430702, 5.149144], [95.430641, 5.144287], [95.42973, 5.144116], [95.429617, 5.143229], [95.428739, 5.143107], [95.42865, 5.141287], [95.42775, 5.141096], [95.427627, 5.139219], [95.426768, 5.139078], [95.42667, 5.136287], [95.425795, 5.136051], [95.425681, 5.134287], [95.424827, 5.134019], [95.424695, 5.132287], [95.42386, 5.131986], [95.423667, 5.130179], [95.422897, 5.129949], [95.422677, 5.129169], [95.421925, 5.128921], [95.421752, 5.128094], [95.421302, 5.128287], [95.421251, 5.129287], [95.420559, 5.129979], [95.418559, 5.128025], [95.417341, 5.128068], [95.416559, 5.128918], [95.415147, 5.128699], [95.414559, 5.127842], [95.413559, 5.128661], [95.4112, 5.128287], [95.412559, 5.127952], [95.413559, 5.12682], [95.418559, 5.126548], [95.419079, 5.124806], [95.419559, 5.124566], [95.421971, 5.124875], [95.422545, 5.125287], [95.421559, 5.125769], [95.421412, 5.126434], [95.422153, 5.126693], [95.422367, 5.127479], [95.4242, 5.127646], [95.424446, 5.1284], [95.425232, 5.128614], [95.425407, 5.130287], [95.426275, 5.130571], [95.426424, 5.132287], [95.427305, 5.132542], [95.427438, 5.134287], [95.428326, 5.13452], [95.428453, 5.137287], [95.429355, 5.137491], [95.429496, 5.139351], [95.430371, 5.139475], [95.4305, 5.141346], [95.431387, 5.141459], [95.431503, 5.142343], [95.432394, 5.142453], [95.432505, 5.143341], [95.433398, 5.143448], [95.4334, 5.146127], [95.432508, 5.146235], [95.432486, 5.147287], [95.433417, 5.147429], [95.433491, 5.149355], [95.434426, 5.14942], [95.434494, 5.150352], [95.435431, 5.150415], [95.435496, 5.152287], [95.436431, 5.152415], [95.436516, 5.154331], [95.437426, 5.15442], [95.437494, 5.162352], [95.440315, 5.162532], [95.440468, 5.164379], [95.441266, 5.16458], [95.441559, 5.165456], [95.443182, 5.165664], [95.443427, 5.166419], [95.445035, 5.167811], [95.445246, 5.1706], [95.446012, 5.171287], [95.445559, 5.17258]]], "type": "Polygon"}, "type": "Feature"}], "type": "FeatureCollection"}