{"features": [{"properties": {"fill-opacity": 0.33, "fillColor": "#bf4040", "opacity": 0.33, "fill": "#bf4040", "fillOpacity": 0.33, "color": "#bf4040", "contour": 15.0, "metric": "time"}, "geometry": {"coordinates": [[[95.270312, 5.856676], [95.268312, 5.856704], [95.267737, 5.856491], [95.267312, 5.855712], [95.262312, 5.855505], [95.26157, 5.855916], [95.261312, 5.856869], [95.260735, 5.855493], [95.259356, 5.854916], [95.259878, 5.852916], [95.259136, 5.851916], [95.258991, 5.850916], [95.260312, 5.85151], [95.26176, 5.850364], [95.262312, 5.849383], [95.26268, 5.850916], [95.261936, 5.85154], [95.26204, 5.852189], [95.263762, 5.852466], [95.265312, 5.854156], [95.267444, 5.854048], [95.267624, 5.851228], [95.268457, 5.850916], [95.268578, 5.848182], [95.269436, 5.847916], [95.269533, 5.844137], [95.270416, 5.843916], [95.270505, 5.84111], [95.271405, 5.840916], [95.271486, 5.83809], [95.272368, 5.837973], [95.272473, 5.836077], [95.273364, 5.835968], [95.273464, 5.835068], [95.274362, 5.834966], [95.274454, 5.833058], [95.279179, 5.83305], [95.279269, 5.83396], [95.281186, 5.834042], [95.281269, 5.834959], [95.282183, 5.835046], [95.282265, 5.835963], [95.283143, 5.836085], [95.283312, 5.83901], [95.283551, 5.838155], [95.286184, 5.838045], [95.287048, 5.83818], [95.287312, 5.839059], [95.287634, 5.838238], [95.288488, 5.837916], [95.28851, 5.835719], [95.287312, 5.835549], [95.28668, 5.834916], [95.287312, 5.830734], [95.287886, 5.833916], [95.289776, 5.834453], [95.290184, 5.837045], [95.29074, 5.836345], [95.292312, 5.836139], [95.294312, 5.838196], [95.296312, 5.83828], [95.296856, 5.837916], [95.297099, 5.836703], [95.298312, 5.836178], [95.298872, 5.836916], [95.297903, 5.838508], [95.297893, 5.839916], [95.297312, 5.840497], [95.296312, 5.840527], [95.295312, 5.839595], [95.293312, 5.839643], [95.292312, 5.838689], [95.291189, 5.838793], [95.29096, 5.839564], [95.2902, 5.839804], [95.289982, 5.840587], [95.289312, 5.840752], [95.285579, 5.840649], [95.285312, 5.839792], [95.28509, 5.841695], [95.284212, 5.841916], [95.284105, 5.843709], [95.283312, 5.843813], [95.282519, 5.843709], [95.282372, 5.841857], [95.280463, 5.841766], [95.280385, 5.839916], [95.279453, 5.839775], [95.279354, 5.835874], [95.277442, 5.835786], [95.277356, 5.834872], [95.276265, 5.834869], [95.276161, 5.836766], [95.275261, 5.836866], [95.275157, 5.837761], [95.274259, 5.837863], [95.274143, 5.839747], [95.273222, 5.839916], [95.27312, 5.842725], [95.272212, 5.842916], [95.272096, 5.8457], [95.271198, 5.845916], [95.271052, 5.849657], [95.270223, 5.849827], [95.270196, 5.851032], [95.271142, 5.852086], [95.272312, 5.852211], [95.273017, 5.852916], [95.272312, 5.853621], [95.271147, 5.853752], [95.270181, 5.854785], [95.271072, 5.855916], [95.270312, 5.856676]]], "type": "Polygon"}, "type": "Feature"}], "type": "FeatureCollection"}