{"features": [{"properties": {"fill-opacity": 0.33, "fillColor": "#bf4040", "opacity": 0.33, "fill": "#bf4040", "fillOpacity": 0.33, "color": "#bf4040", "contour": 15.0, "metric": "time"}, "geometry": {"coordinates": [[[96.748743, 4.396684], [96.748418, 4.394878], [96.750116, 4.392878], [96.749893, 4.388728], [96.749177, 4.388444], [96.748874, 4.387747], [96.747093, 4.387528], [96.746743, 4.385701], [96.746171, 4.387305], [96.745047, 4.388182], [96.74364, 4.387878], [96.744338, 4.386473], [96.744958, 4.386092], [96.745192, 4.384327], [96.746849, 4.383984], [96.74697, 4.380105], [96.747815, 4.37995], [96.747952, 4.379086], [96.748811, 4.378946], [96.748935, 4.377069], [96.749834, 4.376878], [96.748934, 4.376687], [96.748805, 4.375816], [96.744916, 4.375705], [96.744743, 4.374796], [96.740928, 4.374693], [96.740806, 4.373815], [96.739641, 4.373775], [96.739511, 4.376645], [96.73862, 4.376878], [96.738485, 4.37862], [96.734743, 4.378727], [96.734045, 4.378576], [96.733903, 4.376038], [96.734078, 4.375213], [96.734925, 4.374878], [96.733997, 4.374624], [96.733743, 4.373745], [96.733456, 4.374591], [96.732644, 4.374778], [96.732436, 4.375571], [96.731743, 4.375724], [96.727743, 4.375676], [96.726509, 4.374643], [96.724743, 4.374605], [96.723743, 4.375537], [96.722743, 4.375488], [96.721743, 4.374403], [96.718937, 4.373878], [96.72126, 4.373395], [96.727743, 4.373092], [96.728743, 4.374063], [96.730743, 4.374041], [96.731046, 4.373181], [96.73184, 4.372974], [96.732023, 4.372157], [96.732743, 4.372018], [96.735484, 4.372137], [96.735743, 4.372998], [96.738636, 4.372985], [96.738943, 4.372078], [96.741743, 4.371973], [96.742554, 4.372067], [96.742743, 4.372967], [96.744743, 4.37296], [96.744898, 4.371033], [96.745794, 4.370929], [96.745892, 4.370026], [96.746792, 4.369926], [96.746886, 4.369021], [96.74779, 4.368925], [96.747875, 4.36601], [96.748786, 4.36592], [96.748869, 4.365003], [96.751614, 4.365007], [96.751676, 4.365945], [96.752604, 4.366017], [96.752816, 4.366951], [96.754796, 4.366931], [96.754912, 4.365046], [96.756575, 4.365046], [96.756743, 4.366964], [96.756934, 4.364069], [96.757743, 4.363973], [96.758552, 4.364069], [96.758683, 4.366938], [96.758941, 4.366076], [96.761536, 4.366085], [96.761673, 4.366948], [96.763491, 4.36713], [96.763653, 4.367968], [96.765411, 4.36821], [96.765618, 4.369003], [96.766329, 4.369292], [96.766468, 4.370878], [96.766227, 4.371361], [96.765415, 4.371549], [96.765074, 4.372878], [96.768469, 4.373152], [96.768894, 4.374028], [96.769853, 4.373988], [96.770099, 4.373233], [96.770743, 4.373056], [96.774743, 4.373113], [96.775743, 4.374156], [96.776743, 4.374189], [96.777339, 4.373473], [96.778217, 4.373352], [96.778474, 4.372609], [96.779012, 4.372609], [96.779012, 4.373147], [96.778269, 4.373404], [96.778174, 4.375309], [96.776437, 4.375878], [96.776378, 4.377878], [96.776743, 4.378377], [96.778743, 4.378702], [96.77895, 4.379085], [96.777743, 4.380219], [96.777164, 4.379457], [96.775743, 4.379458], [96.774288, 4.381423], [96.773408, 4.381878], [96.772743, 4.383553], [96.771917, 4.381704], [96.770134, 4.381487], [96.769859, 4.380762], [96.769063, 4.380558], [96.768743, 4.37973], [96.765613, 4.379747], [96.765479, 4.380614], [96.764598, 4.380878], [96.764405, 4.38254], [96.76356, 4.382694], [96.763442, 4.384576], [96.762743, 4.385729], [96.762126, 4.384878], [96.761944, 4.382878], [96.762146, 4.38228], [96.762927, 4.382062], [96.762889, 4.380878], [96.759988, 4.380633], [96.759743, 4.379762], [96.75867, 4.379805], [96.758521, 4.380655], [96.757666, 4.380801], [96.757512, 4.381646], [96.755975, 4.381646], [96.755821, 4.3808], [96.753962, 4.380659], [96.753814, 4.379807], [96.752743, 4.379777], [96.752531, 4.380665], [96.75167, 4.380804], [96.751517, 4.381651], [96.74967, 4.381805], [96.749657, 4.382964], [96.750476, 4.383146], [96.750609, 4.383878], [96.75055, 4.386878], [96.751301, 4.38732], [96.75157, 4.389051], [96.752458, 4.389878], [96.751451, 4.390878], [96.751121, 4.394256], [96.749311, 4.395446], [96.748743, 4.396684]]], "type": "Polygon"}, "type": "Feature"}], "type": "FeatureCollection"}