{"features": [{"properties": {"fill-opacity": 0.33, "fillColor": "#bf4040", "opacity": 0.33, "fill": "#bf4040", "fillOpacity": 0.33, "color": "#bf4040", "contour": 15.0, "metric": "time"}, "geometry": {"coordinates": [[[97.535796, 3.838616], [97.534796, 3.838633], [97.534011, 3.83814], [97.534307, 3.83714], [97.533796, 3.835793], [97.533015, 3.83636], [97.531946, 3.83614], [97.532406, 3.835751], [97.532796, 3.83428], [97.533447, 3.833791], [97.534796, 3.833653], [97.535493, 3.834443], [97.536796, 3.834444], [97.53825, 3.832594], [97.538941, 3.832285], [97.539207, 3.831551], [97.539925, 3.83127], [97.539992, 3.83014], [97.538232, 3.828704], [97.537974, 3.826961], [97.537017, 3.825919], [97.532868, 3.82514], [97.533796, 3.82484], [97.534357, 3.82414], [97.533565, 3.82314], [97.533587, 3.82214], [97.536155, 3.823781], [97.53652, 3.824415], [97.537796, 3.824461], [97.538594, 3.825342], [97.540293, 3.825642], [97.540564, 3.82714], [97.541399, 3.827537], [97.541796, 3.828315], [97.542796, 3.828293], [97.543082, 3.827426], [97.543886, 3.827231], [97.544052, 3.825396], [97.544877, 3.825222], [97.545032, 3.824377], [97.545872, 3.824216], [97.546007, 3.822352], [97.546896, 3.82214], [97.545988, 3.821948], [97.54598, 3.818324], [97.546882, 3.81814], [97.545961, 3.817974], [97.545848, 3.816087], [97.544951, 3.815985], [97.544846, 3.81509], [97.543944, 3.814991], [97.543844, 3.814092], [97.542939, 3.813997], [97.542843, 3.813093], [97.54194, 3.812996], [97.54194, 3.811284], [97.542864, 3.81114], [97.541935, 3.811], [97.541921, 3.808266], [97.543796, 3.808204], [97.543935, 3.80728], [97.545796, 3.80721], [97.546655, 3.807281], [97.546748, 3.808188], [97.54765, 3.808286], [97.54765, 3.809994], [97.54573, 3.81014], [97.545724, 3.81314], [97.546646, 3.81329], [97.546744, 3.814192], [97.547636, 3.8143], [97.547741, 3.816195], [97.548626, 3.81631], [97.548616, 3.819961], [97.547796, 3.820237], [97.548871, 3.820215], [97.54903, 3.819374], [97.549878, 3.819222], [97.550065, 3.817409], [97.550945, 3.81714], [97.551111, 3.815456], [97.551909, 3.815253], [97.552164, 3.814509], [97.552925, 3.814269], [97.553073, 3.81214], [97.554345, 3.810689], [97.557796, 3.810483], [97.558796, 3.809581], [97.560218, 3.809717], [97.560111, 3.810456], [97.5592, 3.811545], [97.557796, 3.811797], [97.556796, 3.812835], [97.555629, 3.812974], [97.555352, 3.814697], [97.553674, 3.816018], [97.553455, 3.8168], [97.55269, 3.817034], [97.55252, 3.818864], [97.551669, 3.81914], [97.551545, 3.82089], [97.550717, 3.821061], [97.550569, 3.821913], [97.549723, 3.822067], [97.549584, 3.822929], [97.548727, 3.823071], [97.548586, 3.82393], [97.547724, 3.824069], [97.547564, 3.825908], [97.546675, 3.82614], [97.546528, 3.827873], [97.545707, 3.828051], [97.545524, 3.828868], [97.544701, 3.829046], [97.544505, 3.82985], [97.543694, 3.830038], [97.543476, 3.83082], [97.542685, 3.831029], [97.54245, 3.831795], [97.541673, 3.832018], [97.541413, 3.832758], [97.540659, 3.833003], [97.540351, 3.833695], [97.536541, 3.836885], [97.535796, 3.838616]]], "type": "Polygon"}, "type": "Feature"}], "type": "FeatureCollection"}