{"features": [{"properties": {"fill-opacity": 0.33, "fillColor": "#bf4040", "opacity": 0.33, "fill": "#bf4040", "fillOpacity": 0.33, "color": "#bf4040", "contour": 15.0, "metric": "time"}, "geometry": {"coordinates": [[[96.954382, 3.643288], [96.953382, 3.642344], [96.952382, 3.643271], [96.95001, 3.643014], [96.949824, 3.642642], [96.951027, 3.642287], [96.951682, 3.641642], [96.951004, 3.640642], [96.950554, 3.636642], [96.94869, 3.636333], [96.948475, 3.634549], [96.947651, 3.634372], [96.947468, 3.633556], [96.946635, 3.633388], [96.946457, 3.630566], [96.945608, 3.630416], [96.945382, 3.629525], [96.944382, 3.630214], [96.944, 3.630023], [96.943567, 3.626642], [96.942685, 3.626339], [96.942382, 3.625497], [96.940382, 3.62548], [96.940038, 3.626298], [96.939261, 3.626521], [96.939382, 3.627881], [96.941382, 3.625982], [96.942042, 3.626642], [96.942072, 3.627642], [96.940873, 3.629133], [96.93922, 3.62948], [96.939092, 3.630642], [96.940115, 3.631909], [96.941695, 3.632329], [96.941959, 3.633064], [96.943305, 3.633642], [96.941382, 3.63394], [96.940741, 3.633282], [96.938979, 3.633045], [96.937707, 3.631642], [96.937382, 3.629408], [96.936792, 3.634642], [96.935382, 3.635677], [96.93435, 3.635674], [96.935253, 3.635513], [96.935045, 3.634642], [96.935824, 3.633642], [96.935708, 3.631642], [96.934586, 3.630438], [96.932382, 3.630221], [96.930382, 3.631884], [96.929382, 3.631642], [96.929047, 3.629642], [96.930683, 3.628943], [96.930772, 3.626642], [96.929204, 3.62482], [96.928738, 3.623642], [96.929382, 3.623437], [96.932134, 3.62589], [96.933382, 3.625909], [96.933867, 3.625127], [96.935521, 3.624781], [96.935783, 3.624043], [96.9375, 3.62376], [96.937715, 3.622975], [96.938488, 3.622748], [96.938692, 3.621952], [96.939532, 3.621642], [96.937738, 3.621286], [96.937509, 3.620514], [96.936821, 3.620203], [96.936382, 3.619369], [96.934382, 3.621244], [96.933382, 3.620228], [96.932382, 3.620082], [96.931382, 3.620842], [96.930819, 3.620642], [96.931257, 3.617517], [96.93248, 3.61674], [96.931997, 3.615642], [96.932156, 3.613416], [96.932468, 3.612727], [96.933447, 3.612642], [96.933651, 3.610911], [96.936382, 3.610107], [96.938382, 3.610315], [96.93909, 3.611933], [96.940382, 3.612969], [96.941382, 3.612057], [96.942715, 3.611975], [96.944382, 3.610335], [96.945325, 3.610642], [96.944716, 3.610976], [96.944595, 3.611855], [96.943076, 3.613336], [96.942925, 3.614642], [96.944801, 3.615223], [96.945735, 3.616288], [96.945735, 3.616995], [96.944382, 3.617172], [96.943382, 3.616326], [96.942138, 3.616642], [96.942998, 3.617026], [96.943263, 3.617761], [96.944047, 3.617977], [96.944275, 3.618749], [96.947106, 3.618917], [96.947294, 3.61973], [96.948132, 3.619892], [96.948301, 3.620723], [96.949148, 3.620876], [96.949382, 3.621757], [96.950514, 3.621774], [96.950687, 3.619947], [96.951491, 3.619751], [96.951727, 3.618987], [96.954554, 3.618813], [96.957104, 3.616364], [96.958056, 3.616642], [96.95852, 3.61778], [96.957382, 3.618146], [96.955875, 3.620135], [96.953382, 3.620449], [96.953046, 3.621306], [96.95228, 3.62154], [96.952103, 3.622363], [96.951249, 3.622509], [96.951129, 3.623389], [96.949382, 3.623527], [96.949167, 3.624427], [96.948282, 3.624642], [96.94919, 3.624834], [96.94932, 3.625704], [96.950202, 3.625822], [96.950323, 3.6267], [96.951212, 3.626812], [96.951326, 3.627698], [96.952219, 3.627805], [96.952329, 3.628694], [96.954239, 3.628785], [96.954336, 3.629687], [96.955251, 3.629772], [96.955382, 3.630706], [96.95643, 3.63069], [96.956533, 3.629793], [96.958441, 3.6297], [96.958565, 3.628825], [96.960198, 3.628825], [96.960202, 3.631462], [96.958382, 3.631559], [96.958234, 3.632494], [96.956337, 3.632597], [96.956248, 3.633508], [96.955309, 3.633642], [96.956205, 3.633819], [96.95632, 3.634703], [96.956619, 3.633879], [96.961382, 3.633838], [96.962382, 3.632914], [96.963109, 3.633642], [96.963126, 3.634642], [96.962382, 3.635386], [96.958382, 3.635516], [96.958158, 3.636418], [96.957382, 3.63653], [96.954563, 3.636461], [96.954439, 3.635585], [96.953542, 3.635482], [96.953425, 3.631598], [96.952519, 3.631505], [96.952382, 3.630568], [96.952209, 3.632469], [96.950555, 3.632469], [96.950463, 3.629642], [96.949551, 3.629473], [96.949439, 3.628584], [96.948559, 3.628465], [96.948318, 3.627577], [96.948261, 3.631642], [96.949128, 3.631895], [96.949293, 3.632731], [96.950102, 3.632922], [96.950281, 3.634742], [96.952049, 3.634974], [96.952267, 3.635757], [96.953021, 3.636002], [96.953224, 3.6388], [96.953855, 3.639169], [96.954176, 3.640848], [96.955039, 3.641642], [96.955028, 3.642642], [96.954382, 3.643288]]], "type": "Polygon"}, "type": "Feature"}], "type": "FeatureCollection"}