{"features": [{"properties": {"fill-opacity": 0.33, "fillColor": "#bf4040", "opacity": 0.33, "fill": "#bf4040", "fillOpacity": 0.33, "color": "#bf4040", "contour": 15.0, "metric": "time"}, "geometry": {"coordinates": [[[96.550062, 5.118928], [96.549316, 5.113242], [96.550272, 5.112242], [96.550201, 5.108103], [96.549329, 5.107974], [96.549183, 5.10612], [96.548296, 5.106008], [96.548159, 5.101242], [96.548255, 5.100435], [96.549151, 5.100242], [96.549143, 5.098242], [96.548217, 5.098086], [96.548112, 5.097192], [96.547209, 5.097094], [96.547193, 5.091373], [96.550936, 5.091367], [96.550936, 5.094116], [96.549188, 5.094116], [96.548996, 5.093242], [96.549013, 5.09529], [96.549913, 5.09539], [96.550011, 5.096293], [96.550905, 5.096399], [96.550875, 5.102055], [96.549998, 5.102177], [96.549988, 5.103316], [96.550325, 5.102505], [96.551154, 5.102334], [96.551358, 5.101538], [96.552164, 5.101344], [96.552387, 5.100567], [96.553736, 5.100567], [96.553899, 5.101242], [96.553765, 5.103945], [96.552062, 5.104106], [96.55181, 5.10499], [96.549945, 5.105242], [96.55081, 5.105493], [96.550923, 5.107381], [96.551771, 5.107532], [96.551903, 5.109242], [96.552711, 5.109592], [96.552887, 5.110242], [96.552679, 5.111859], [96.551927, 5.112107], [96.551582, 5.113762], [96.550782, 5.114242], [96.5508, 5.115503], [96.553453, 5.116242], [96.550752, 5.116932], [96.550062, 5.118928]]], "type": "Polygon"}, "type": "Feature"}], "type": "FeatureCollection"}