{"features": [{"properties": {"fill-opacity": 0.33, "fillColor": "#bf4040", "opacity": 0.33, "fill": "#bf4040", "fillOpacity": 0.33, "color": "#bf4040", "contour": 15.0, "metric": "time"}, "geometry": {"coordinates": [[[97.009234, 3.579458], [97.007792, 3.57929], [97.007413, 3.577668], [97.005768, 3.577314], [97.003556, 3.574525], [97.001234, 3.573871], [97.001234, 3.573589], [97.004234, 3.573339], [97.007234, 3.576114], [97.00762, 3.575234], [97.008352, 3.574966], [97.008549, 3.574163], [97.012302, 3.573916], [97.012411, 3.572025], [97.013289, 3.571903], [97.013391, 3.571005], [97.01528, 3.570894], [97.015362, 3.568976], [97.018107, 3.568975], [97.018107, 3.570721], [97.017167, 3.570848], [97.017092, 3.572706], [97.015182, 3.572796], [97.01507, 3.573684], [97.014139, 3.573848], [97.014026, 3.57564], [97.010234, 3.575711], [97.009864, 3.576478], [97.009096, 3.57671], [97.009009, 3.578072], [97.009844, 3.578848], [97.009234, 3.579458]]], "type": "Polygon"}, "type": "Feature"}], "type": "FeatureCollection"}