{"features": [{"properties": {"fill-opacity": 0.33, "fillColor": "#bf4040", "opacity": 0.33, "fill": "#bf4040", "fillOpacity": 0.33, "color": "#bf4040", "contour": 15.0, "metric": "time"}, "geometry": {"coordinates": [[[96.876564, 3.758724], [96.873813, 3.758581], [96.873564, 3.757693], [96.870903, 3.757491], [96.870683, 3.756711], [96.869953, 3.756441], [96.868564, 3.754543], [96.866176, 3.754443], [96.865564, 3.7551], [96.864748, 3.754831], [96.865564, 3.753489], [96.869564, 3.753075], [96.87115, 3.754244], [96.871436, 3.754958], [96.872215, 3.755179], [96.872564, 3.755981], [96.879564, 3.755917], [96.879725, 3.754992], [96.881612, 3.754879], [96.881703, 3.75397], [96.882609, 3.753876], [96.882697, 3.752964], [96.88443, 3.752964], [96.88452, 3.753874], [96.886437, 3.753957], [96.886437, 3.755704], [96.883564, 3.755764], [96.883418, 3.756685], [96.88151, 3.756777], [96.881394, 3.757661], [96.877564, 3.757735], [96.87735, 3.758617], [96.876564, 3.758724]]], "type": "Polygon"}, "type": "Feature"}], "type": "FeatureCollection"}