{"features": [{"properties": {"fill-opacity": 0.33, "fillColor": "#bf4040", "opacity": 0.33, "fill": "#bf4040", "fillOpacity": 0.33, "color": "#bf4040", "contour": 15.0, "metric": "time"}, "geometry": {"coordinates": [[[97.840512, 4.172566], [97.839917, 4.172301], [97.839811, 4.169301], [97.839512, 4.169065], [97.838065, 4.169301], [97.837512, 4.170796], [97.836512, 4.171567], [97.834512, 4.170753], [97.831512, 4.172016], [97.83089, 4.170922], [97.829598, 4.170301], [97.828979, 4.169301], [97.830512, 4.168779], [97.830719, 4.168094], [97.828512, 4.167876], [97.828134, 4.167301], [97.828351, 4.166141], [97.829512, 4.165727], [97.830512, 4.166625], [97.831512, 4.165563], [97.833668, 4.165301], [97.832857, 4.164956], [97.832512, 4.163052], [97.831512, 4.163959], [97.830132, 4.16368], [97.829242, 4.160301], [97.829877, 4.159666], [97.830512, 4.157483], [97.831155, 4.158657], [97.832512, 4.159509], [97.833512, 4.158815], [97.834928, 4.158717], [97.835512, 4.158069], [97.836632, 4.158421], [97.83691, 4.1577], [97.837727, 4.157516], [97.837686, 4.157126], [97.834975, 4.156837], [97.833799, 4.156301], [97.836512, 4.155647], [97.837512, 4.154631], [97.838997, 4.155816], [97.839277, 4.157301], [97.839043, 4.157832], [97.838296, 4.158085], [97.838155, 4.159944], [97.837405, 4.160194], [97.83744, 4.162373], [97.838572, 4.162361], [97.838684, 4.161473], [97.839567, 4.161357], [97.839672, 4.160461], [97.841512, 4.160376], [97.842361, 4.160452], [97.842465, 4.162347], [97.843378, 4.162435], [97.843382, 4.167171], [97.842468, 4.167257], [97.842376, 4.168165], [97.841237, 4.168301], [97.840938, 4.171727], [97.840512, 4.172566]]], "type": "Polygon"}, "type": "Feature"}], "type": "FeatureCollection"}