{"features": [{"properties": {"fill-opacity": 0.33, "fillColor": "#bf4040", "opacity": 0.33, "fill": "#bf4040", "fillOpacity": 0.33, "color": "#bf4040", "contour": 15.0, "metric": "time"}, "geometry": {"coordinates": [[[96.410023, 5.131268], [96.409627, 5.129941], [96.410355, 5.129273], [96.410268, 5.128696], [96.407422, 5.127941], [96.410233, 5.127151], [96.410196, 5.123941], [96.409329, 5.123636], [96.409169, 5.122795], [96.409303, 5.121221], [96.410147, 5.120941], [96.410123, 5.117941], [96.409209, 5.117755], [96.409079, 5.115885], [96.408186, 5.115778], [96.408076, 5.114889], [96.407177, 5.114787], [96.40707, 5.112894], [96.406161, 5.112803], [96.406068, 5.111897], [96.405153, 5.111811], [96.405066, 5.109899], [96.403161, 5.109804], [96.40307, 5.108894], [96.402169, 5.108795], [96.402262, 5.09918], [96.404023, 5.099063], [96.404295, 5.098214], [96.405023, 5.098077], [96.406733, 5.098231], [96.406878, 5.098941], [96.406733, 5.099652], [96.405931, 5.099849], [96.405756, 5.100674], [96.403913, 5.100941], [96.403947, 5.106941], [96.404882, 5.107082], [96.405023, 5.108006], [96.406894, 5.10807], [96.406979, 5.109985], [96.407888, 5.110076], [96.407977, 5.110988], [96.408879, 5.111085], [96.408972, 5.112992], [96.409865, 5.113099], [96.409968, 5.113996], [96.410853, 5.114111], [96.410962, 5.116002], [96.411834, 5.11613], [96.411953, 5.118011], [96.412803, 5.118161], [96.412796, 5.120714], [96.411899, 5.120941], [96.411803, 5.125941], [96.412759, 5.126941], [96.412708, 5.127941], [96.411633, 5.128941], [96.411321, 5.130239], [96.410023, 5.131268]]], "type": "Polygon"}, "type": "Feature"}], "type": "FeatureCollection"}