{"features": [{"properties": {"fill-opacity": 0.33, "fillColor": "#bf4040", "opacity": 0.33, "fill": "#bf4040", "fillOpacity": 0.33, "color": "#bf4040", "contour": 15.0, "metric": "time"}, "geometry": {"coordinates": [[[95.375673, 5.441053], [95.37513, 5.440957], [95.375126, 5.439957], [95.373068, 5.438563], [95.372673, 5.437698], [95.369953, 5.436957], [95.372673, 5.436216], [95.372992, 5.435276], [95.373795, 5.434957], [95.372887, 5.434744], [95.37274, 5.433891], [95.371863, 5.433768], [95.371752, 5.430957], [95.370818, 5.430813], [95.370739, 5.427957], [95.3698, 5.427831], [95.3698, 5.426084], [95.371724, 5.426008], [95.37185, 5.425134], [95.375673, 5.425076], [95.375959, 5.424242], [95.376673, 5.4241], [95.382119, 5.424512], [95.382743, 5.425027], [95.38049, 5.425774], [95.380323, 5.426957], [95.379673, 5.427607], [95.378253, 5.427378], [95.378043, 5.426957], [95.378952, 5.425957], [95.377853, 5.425778], [95.377398, 5.426682], [95.374673, 5.426851], [95.374497, 5.427781], [95.37362, 5.427904], [95.373587, 5.431957], [95.37448, 5.432151], [95.374602, 5.433028], [95.379673, 5.433384], [95.380621, 5.434957], [95.379673, 5.435483], [95.378932, 5.434699], [95.376673, 5.434784], [95.376387, 5.435671], [95.375584, 5.435868], [95.375397, 5.436681], [95.374571, 5.436855], [95.376331, 5.438957], [95.375673, 5.441053]]], "type": "Polygon"}, "type": "Feature"}], "type": "FeatureCollection"}