{"features": [{"properties": {"fill-opacity": 0.33, "fillColor": "#bf4040", "opacity": 0.33, "fill": "#bf4040", "fillOpacity": 0.33, "color": "#bf4040", "contour": 15.0, "metric": "time"}, "geometry": {"coordinates": [[[97.882618, 3.441774], [97.882043, 3.4412], [97.882013, 3.4402], [97.880925, 3.4392], [97.881776, 3.438041], [97.878618, 3.437973], [97.877618, 3.438939], [97.876618, 3.438966], [97.875976, 3.438841], [97.875906, 3.4382], [97.876805, 3.437012], [97.875618, 3.436844], [97.874361, 3.438943], [97.872618, 3.439105], [97.871898, 3.4372], [97.873929, 3.43651], [97.875203, 3.434785], [97.876618, 3.434497], [97.877618, 3.433463], [97.878618, 3.43343], [97.878931, 3.432513], [97.879718, 3.4323], [97.87991, 3.431492], [97.880755, 3.4312], [97.880618, 3.430052], [97.876188, 3.429629], [97.875236, 3.4282], [97.875618, 3.427553], [97.876618, 3.427677], [97.877618, 3.428465], [97.882337, 3.42848], [97.882618, 3.429329], [97.882857, 3.428439], [97.883694, 3.428123], [97.882856, 3.427961], [97.882618, 3.427074], [97.880883, 3.426934], [97.880708, 3.426109], [97.8799, 3.425917], [97.879715, 3.425103], [97.878919, 3.424898], [97.878729, 3.423088], [97.875053, 3.422764], [97.874772, 3.422045], [97.873142, 3.420675], [97.872849, 3.418968], [97.868572, 3.4182], [97.871618, 3.417672], [97.872356, 3.415938], [97.873618, 3.414985], [97.874203, 3.4152], [97.873145, 3.4172], [97.874043, 3.417775], [97.874423, 3.419394], [97.876618, 3.421401], [97.880277, 3.42154], [97.880517, 3.423301], [97.881328, 3.423489], [97.881524, 3.424293], [97.882349, 3.424468], [97.882618, 3.425325], [97.882917, 3.424499], [97.883714, 3.424295], [97.883891, 3.423473], [97.884704, 3.423286], [97.884878, 3.42246], [97.885712, 3.422105], [97.884911, 3.421906], [97.884618, 3.421038], [97.882618, 3.421014], [97.881989, 3.420828], [97.881618, 3.419996], [97.880057, 3.41976], [97.878867, 3.4182], [97.878804, 3.417013], [97.877618, 3.416855], [97.876618, 3.415805], [97.87477, 3.4152], [97.877618, 3.41458], [97.878393, 3.415425], [97.879618, 3.415489], [97.880328, 3.4162], [97.880456, 3.417361], [97.881169, 3.417648], [97.881474, 3.418343], [97.88324, 3.418578], [97.883618, 3.419374], [97.884726, 3.419308], [97.884975, 3.417557], [97.88626, 3.417557], [97.886503, 3.418315], [97.887291, 3.418526], [97.887527, 3.421291], [97.889364, 3.421453], [97.88974, 3.422322], [97.889876, 3.421458], [97.890748, 3.4212], [97.890905, 3.418487], [97.891717, 3.418299], [97.891834, 3.4172], [97.890618, 3.41586], [97.889203, 3.415614], [97.889127, 3.414709], [97.889618, 3.413875], [97.892047, 3.4132], [97.892049, 3.4122], [97.893122, 3.4112], [97.893618, 3.40942], [97.896077, 3.40874], [97.896579, 3.409238], [97.896549, 3.4102], [97.896013, 3.4112], [97.896064, 3.4132], [97.895184, 3.413766], [97.895363, 3.414454], [97.899206, 3.4152], [97.894413, 3.415995], [97.895229, 3.416588], [97.895506, 3.418311], [97.901618, 3.418381], [97.902254, 3.418563], [97.902618, 3.419387], [97.903042, 3.418624], [97.904618, 3.418429], [97.905388, 3.4192], [97.904209, 3.420791], [97.902503, 3.421085], [97.902293, 3.421875], [97.898532, 3.422114], [97.898374, 3.422955], [97.897502, 3.4232], [97.897408, 3.426989], [97.89655, 3.427132], [97.896422, 3.428004], [97.895554, 3.428136], [97.895431, 3.429013], [97.893618, 3.42911], [97.893446, 3.430028], [97.892537, 3.4302], [97.893463, 3.430354], [97.893567, 3.43125], [97.894469, 3.431348], [97.894569, 3.432248], [97.895475, 3.432342], [97.895571, 3.433246], [97.89648, 3.433337], [97.896574, 3.435243], [97.897489, 3.435328], [97.897575, 3.436242], [97.898492, 3.436325], [97.898492, 3.438074], [97.895745, 3.438072], [97.895661, 3.437157], [97.894748, 3.437069], [97.894663, 3.435154], [97.893756, 3.435061], [97.893665, 3.434152], [97.892761, 3.434056], [97.892667, 3.43315], [97.890774, 3.433043], [97.890618, 3.432117], [97.890441, 3.433023], [97.887798, 3.433019], [97.887798, 3.43138], [97.888704, 3.4312], [97.887799, 3.431018], [97.887618, 3.430102], [97.886618, 3.430097], [97.886401, 3.430983], [97.885485, 3.4312], [97.886326, 3.431492], [97.886514, 3.433303], [97.8873, 3.433518], [97.8873, 3.434881], [97.884618, 3.435038], [97.88394, 3.434877], [97.883618, 3.43405], [97.883291, 3.434873], [97.882438, 3.4352], [97.882406, 3.4362], [97.885067, 3.43675], [97.886744, 3.4392], [97.884404, 3.439986], [97.882618, 3.441774]]], "type": "Polygon"}, "type": "Feature"}], "type": "FeatureCollection"}