{"features": [{"properties": {"fill-opacity": 0.33, "fillColor": "#bf4040", "opacity": 0.33, "fill": "#bf4040", "fillOpacity": 0.33, "color": "#bf4040", "contour": 15.0, "metric": "time"}, "geometry": {"coordinates": [[[96.305642, 5.13005], [96.305174, 5.129505], [96.304904, 5.127036], [96.306025, 5.125419], [96.307745, 5.125139], [96.307891, 5.123285], [96.308719, 5.123113], [96.308789, 5.118183], [96.310642, 5.118104], [96.310769, 5.117163], [96.314505, 5.117174], [96.314505, 5.118899], [96.312642, 5.118971], [96.312514, 5.119908], [96.310594, 5.119988], [96.311469, 5.12021], [96.311454, 5.122848], [96.310539, 5.123036], [96.310401, 5.124795], [96.309506, 5.125036], [96.309318, 5.126712], [96.307515, 5.126909], [96.307095, 5.12849], [96.306129, 5.129036], [96.305642, 5.13005]]], "type": "Polygon"}, "type": "Feature"}], "type": "FeatureCollection"}