{"features": [{"properties": {"fill-opacity": 0.33, "fillColor": "#bf4040", "opacity": 0.33, "fill": "#bf4040", "fillOpacity": 0.33, "color": "#bf4040", "contour": 15.0, "metric": "time"}, "geometry": {"coordinates": [[[97.060966, 5.098462], [97.060305, 5.097653], [97.057413, 5.097545], [97.057092, 5.096865], [97.056292, 5.096665], [97.056115, 5.095843], [97.053195, 5.095762], [97.053037, 5.094921], [97.052163, 5.094794], [97.052027, 5.09393], [97.04912, 5.093838], [97.049014, 5.092944], [97.048103, 5.092855], [97.048011, 5.091947], [97.047098, 5.09186], [97.047009, 5.090949], [97.046093, 5.090865], [97.046008, 5.08995], [97.044094, 5.089863], [97.043966, 5.088926], [97.042102, 5.088856], [97.042035, 5.087923], [97.033143, 5.087814], [97.033027, 5.086931], [97.032154, 5.086804], [97.032034, 5.083924], [97.031176, 5.083782], [97.030966, 5.080872], [97.027966, 5.080848], [97.027652, 5.081678], [97.026966, 5.081835], [97.018966, 5.081705], [97.017712, 5.082739], [97.017405, 5.084431], [97.016966, 5.084473], [97.016439, 5.083518], [97.016598, 5.080624], [97.016966, 5.080091], [97.018663, 5.080295], [97.019277, 5.079992], [97.019966, 5.074218], [97.020654, 5.079992], [97.020966, 5.080228], [97.025966, 5.080156], [97.026275, 5.079301], [97.028966, 5.079129], [97.029226, 5.078252], [97.030966, 5.078115], [97.031229, 5.077256], [97.032056, 5.077082], [97.032263, 5.075289], [97.03466, 5.075298], [97.03466, 5.076686], [97.033868, 5.076894], [97.033699, 5.078725], [97.032839, 5.078992], [97.032859, 5.081992], [97.033761, 5.082196], [97.033871, 5.084992], [97.034784, 5.085174], [97.034907, 5.086051], [97.042826, 5.086132], [97.042897, 5.087061], [97.045836, 5.087121], [97.045966, 5.088055], [97.046091, 5.087117], [97.047841, 5.087117], [97.047903, 5.088992], [97.048835, 5.089122], [97.048966, 5.09006], [97.049107, 5.089134], [97.050014, 5.08904], [97.050114, 5.088141], [97.052017, 5.088044], [97.052124, 5.087151], [97.053807, 5.087151], [97.053811, 5.089837], [97.051916, 5.089943], [97.05182, 5.090847], [97.050895, 5.090992], [97.050915, 5.092043], [97.053777, 5.092181], [97.053899, 5.093058], [97.054753, 5.093204], [97.05489, 5.094068], [97.056692, 5.094266], [97.056817, 5.095141], [97.05858, 5.095378], [97.058966, 5.096242], [97.061349, 5.096992], [97.061503, 5.097992], [97.060966, 5.098462]]], "type": "Polygon"}, "type": "Feature"}], "type": "FeatureCollection"}