{"features": [{"properties": {"fill-opacity": 0.33, "fillColor": "#bf4040", "opacity": 0.33, "fill": "#bf4040", "fillOpacity": 0.33, "color": "#bf4040", "contour": 15.0, "metric": "time"}, "geometry": {"coordinates": [[[95.420114, 5.572479], [95.419385, 5.571693], [95.418114, 5.571633], [95.417307, 5.57077], [95.41561, 5.570468], [95.414251, 5.568827], [95.41149, 5.568587], [95.410114, 5.566748], [95.407114, 5.566688], [95.406114, 5.56565], [95.405114, 5.566586], [95.402114, 5.566556], [95.401114, 5.567458], [95.399114, 5.56732], [95.398735, 5.564963], [95.399593, 5.563963], [95.399114, 5.563348], [95.397765, 5.562963], [95.397917, 5.561963], [95.396893, 5.560963], [95.398446, 5.560294], [95.39842, 5.559657], [95.396174, 5.558963], [95.396785, 5.557963], [95.396414, 5.556664], [95.394842, 5.556236], [95.394114, 5.555441], [95.391774, 5.554963], [95.394432, 5.554281], [95.395042, 5.55289], [95.396924, 5.551963], [95.396892, 5.55074], [95.398114, 5.549506], [95.399103, 5.549975], [95.398803, 5.551274], [95.399458, 5.55062], [95.399131, 5.54998], [95.399662, 5.550416], [95.401114, 5.550275], [95.402284, 5.549132], [95.402114, 5.548655], [95.398444, 5.547963], [95.39957, 5.547419], [95.399955, 5.545963], [95.39956, 5.544963], [95.400027, 5.543876], [95.402453, 5.543624], [95.403009, 5.543963], [95.402626, 5.544963], [95.403114, 5.545302], [95.403575, 5.544502], [95.403295, 5.544144], [95.403654, 5.544424], [95.407114, 5.544169], [95.407492, 5.54334], [95.409242, 5.543091], [95.4095, 5.542577], [95.409114, 5.542158], [95.407998, 5.541963], [95.407026, 5.540875], [95.407227, 5.539963], [95.409471, 5.53932], [95.410114, 5.53774], [95.41114, 5.537963], [95.411821, 5.539257], [95.41431, 5.539159], [95.414681, 5.535963], [95.415674, 5.534963], [95.415527, 5.533963], [95.416114, 5.533067], [95.416784, 5.538294], [95.418545, 5.538394], [95.419114, 5.537073], [95.419827, 5.53825], [95.423114, 5.538145], [95.423456, 5.537305], [95.427206, 5.537055], [95.427428, 5.535276], [95.428232, 5.53508], [95.428584, 5.533432], [95.429439, 5.532963], [95.428549, 5.531963], [95.430114, 5.531489], [95.430713, 5.532364], [95.430866, 5.533963], [95.429922, 5.534963], [95.430034, 5.538044], [95.430881, 5.538196], [95.431039, 5.539038], [95.431893, 5.539184], [95.432043, 5.540034], [95.433916, 5.540161], [95.434017, 5.54106], [95.434925, 5.541153], [95.435053, 5.542024], [95.437918, 5.542159], [95.438048, 5.54303], [95.4399, 5.543177], [95.440041, 5.544036], [95.440887, 5.544191], [95.440984, 5.548093], [95.442829, 5.548248], [95.443114, 5.549116], [95.444786, 5.549292], [95.444939, 5.551138], [95.445753, 5.551325], [95.445924, 5.552153], [95.446713, 5.552364], [95.446914, 5.556164], [95.448702, 5.557963], [95.448561, 5.56041], [95.448156, 5.561005], [95.447036, 5.561041], [95.446707, 5.559963], [95.44756, 5.558963], [95.446336, 5.557742], [95.443534, 5.557543], [95.44301, 5.556963], [95.440666, 5.556411], [95.440114, 5.555782], [95.436114, 5.556816], [95.435408, 5.556669], [95.435114, 5.555829], [95.433373, 5.555704], [95.433114, 5.554842], [95.428043, 5.554892], [95.427881, 5.55973], [95.427008, 5.559963], [95.428829, 5.560248], [95.428972, 5.560963], [95.428829, 5.561678], [95.42802, 5.561868], [95.427785, 5.562634], [95.426992, 5.562841], [95.426686, 5.563534], [95.422114, 5.563556], [95.422033, 5.562881], [95.422691, 5.56254], [95.425253, 5.562101], [95.425232, 5.560963], [95.424322, 5.560755], [95.424114, 5.559866], [95.421299, 5.559778], [95.421174, 5.558903], [95.420114, 5.558877], [95.419926, 5.559775], [95.418999, 5.559963], [95.418882, 5.56173], [95.417347, 5.56173], [95.41719, 5.560887], [95.416002, 5.560963], [95.416879, 5.561199], [95.417114, 5.562098], [95.41979, 5.562288], [95.419997, 5.56308], [95.420718, 5.56336], [95.420718, 5.564566], [95.418456, 5.564621], [95.418114, 5.563815], [95.413977, 5.563963], [95.414819, 5.564258], [95.414967, 5.564963], [95.414803, 5.566652], [95.413995, 5.567082], [95.415695, 5.567382], [95.416949, 5.569128], [95.41859, 5.569488], [95.419114, 5.570314], [95.420114, 5.569462], [95.421114, 5.569319], [95.421387, 5.569691], [95.421185, 5.570963], [95.420114, 5.572479]]], "type": "Polygon"}, "type": "Feature"}], "type": "FeatureCollection"}