{"features": [{"properties": {"fill-opacity": 0.33, "fillColor": "#bf4040", "opacity": 0.33, "fill": "#bf4040", "fillOpacity": 0.33, "color": "#bf4040", "contour": 15.0, "metric": "time"}, "geometry": {"coordinates": [[[98.034134, 4.463203], [98.031262, 4.463139], [98.031186, 4.456215], [98.027313, 4.456088], [98.027193, 4.455207], [98.026134, 4.455173], [98.025913, 4.458045], [98.023363, 4.458038], [98.023134, 4.454162], [98.02206, 4.454192], [98.021864, 4.457996], [98.02104, 4.458172], [98.020839, 4.458971], [98.020134, 4.459119], [98.016481, 4.45892], [98.016253, 4.458148], [98.015505, 4.457896], [98.015134, 4.457094], [98.013134, 4.457064], [98.012634, 4.457766], [98.011391, 4.458009], [98.010134, 4.457966], [98.009134, 4.456965], [98.008134, 4.457833], [98.007387, 4.457013], [98.005838, 4.45697], [98.00498, 4.457112], [98.004134, 4.458281], [98.002058, 4.457266], [98.003605, 4.455737], [98.004134, 4.45373], [98.004664, 4.454737], [98.005819, 4.455582], [98.00637, 4.455502], [98.006497, 4.453266], [98.005867, 4.452266], [98.00604, 4.451172], [98.007134, 4.451773], [98.008134, 4.450671], [98.010134, 4.450602], [98.011389, 4.449266], [98.011659, 4.44779], [98.013455, 4.446266], [98.013408, 4.443993], [98.010987, 4.443414], [98.010846, 4.442555], [98.010293, 4.442266], [98.012592, 4.440724], [98.012815, 4.439266], [98.014454, 4.438586], [98.014741, 4.43666], [98.014081, 4.43632], [98.014134, 4.435959], [98.015848, 4.43598], [98.016134, 4.435497], [98.016512, 4.435889], [98.019134, 4.435781], [98.019622, 4.435266], [98.02025, 4.432382], [98.022134, 4.431341], [98.022418, 4.431983], [98.023168, 4.432266], [98.022524, 4.433266], [98.022832, 4.433569], [98.025324, 4.433456], [98.026488, 4.432266], [98.026739, 4.430871], [98.027636, 4.430266], [98.027134, 4.429572], [98.026075, 4.429207], [98.028556, 4.428688], [98.029134, 4.427331], [98.029526, 4.429266], [98.030134, 4.429638], [98.033134, 4.429645], [98.034961, 4.428093], [98.036134, 4.427891], [98.035415, 4.429547], [98.034808, 4.429939], [98.034854, 4.430547], [98.03848, 4.431266], [98.036134, 4.431728], [98.035539, 4.432266], [98.03562, 4.433266], [98.037134, 4.43467], [98.041134, 4.434991], [98.041238, 4.434162], [98.040596, 4.433266], [98.040619, 4.431266], [98.041134, 4.431015], [98.041921, 4.43248], [98.043867, 4.432266], [98.043452, 4.432584], [98.043756, 4.433645], [98.046205, 4.434266], [98.04467, 4.434802], [98.04377, 4.436266], [98.04392, 4.440266], [98.04469, 4.440711], [98.044944, 4.443266], [98.045779, 4.443622], [98.046027, 4.445374], [98.046332, 4.445266], [98.046399, 4.443266], [98.047134, 4.442531], [98.04787, 4.443266], [98.048012, 4.445389], [98.050134, 4.44548], [98.051426, 4.444266], [98.051687, 4.442819], [98.053662, 4.441266], [98.054038, 4.44017], [98.055902, 4.440034], [98.056134, 4.439567], [98.056658, 4.441266], [98.055732, 4.442864], [98.055557, 4.445689], [98.052853, 4.446266], [98.054134, 4.44767], [98.056408, 4.447993], [98.056481, 4.44992], [98.056883, 4.450266], [98.054701, 4.450833], [98.054134, 4.4524], [98.053716, 4.451685], [98.05271, 4.451266], [98.052494, 4.448266], [98.051316, 4.447085], [98.046134, 4.447105], [98.04583, 4.447962], [98.044134, 4.448122], [98.043869, 4.449001], [98.043014, 4.449266], [98.042896, 4.451028], [98.042058, 4.45119], [98.041913, 4.452045], [98.041063, 4.452195], [98.04093, 4.454062], [98.040068, 4.4542], [98.039941, 4.455073], [98.033083, 4.455215], [98.03307, 4.461266], [98.035007, 4.461393], [98.035007, 4.463139], [98.034134, 4.463203]]], "type": "Polygon"}, "type": "Feature"}], "type": "FeatureCollection"}