{"features": [{"properties": {"fill-opacity": 0.33, "fillColor": "#bf4040", "opacity": 0.33, "fill": "#bf4040", "fillOpacity": 0.33, "color": "#bf4040", "contour": 15.0, "metric": "time"}, "geometry": {"coordinates": [[[96.101458, 4.463786], [96.099597, 4.463717], [96.099458, 4.462789], [96.097589, 4.462724], [96.097501, 4.461813], [96.096584, 4.46173], [96.096521, 4.459856], [96.096584, 4.458981], [96.097523, 4.458856], [96.097594, 4.455992], [96.098504, 4.455902], [96.098601, 4.454998], [96.099506, 4.454904], [96.099606, 4.454004], [96.100535, 4.453856], [96.100565, 4.444856], [96.100672, 4.444069], [96.101569, 4.443856], [96.101541, 4.442773], [96.099738, 4.442576], [96.099554, 4.441759], [96.097775, 4.441539], [96.097458, 4.440684], [96.097072, 4.44147], [96.094458, 4.441639], [96.093458, 4.44262], [96.092458, 4.441594], [96.089458, 4.441473], [96.08884, 4.440856], [96.088808, 4.438506], [96.088186, 4.438128], [96.087458, 4.436635], [96.088458, 4.436564], [96.089751, 4.437563], [96.090215, 4.440099], [96.095458, 4.440052], [96.095824, 4.439222], [96.096458, 4.439039], [96.099136, 4.439177], [96.099354, 4.439959], [96.101167, 4.440147], [96.101365, 4.440948], [96.103208, 4.441106], [96.103458, 4.441976], [96.109143, 4.442171], [96.109349, 4.442964], [96.110112, 4.443201], [96.110339, 4.443975], [96.113022, 4.444292], [96.113303, 4.44501], [96.114951, 4.445362], [96.11591, 4.446404], [96.115979, 4.449856], [96.116661, 4.450856], [96.116458, 4.452044], [96.115953, 4.451361], [96.11518, 4.451134], [96.114812, 4.447856], [96.113633, 4.446681], [96.111933, 4.446381], [96.111458, 4.445654], [96.108815, 4.445498], [96.108571, 4.444742], [96.107778, 4.444535], [96.107458, 4.443709], [96.103381, 4.443778], [96.103258, 4.447655], [96.102364, 4.447856], [96.102367, 4.448856], [96.103282, 4.449032], [96.10337, 4.449856], [96.103282, 4.450679], [96.102373, 4.450856], [96.102308, 4.455705], [96.101409, 4.455807], [96.101314, 4.456712], [96.100411, 4.456808], [96.100319, 4.457717], [96.099391, 4.457856], [96.099414, 4.460899], [96.101323, 4.460991], [96.101412, 4.461902], [96.102318, 4.461995], [96.102318, 4.463716], [96.101458, 4.463786]]], "type": "Polygon"}, "type": "Feature"}], "type": "FeatureCollection"}