{"features": [{"properties": {"fill-opacity": 0.33, "fillColor": "#bf4040", "opacity": 0.33, "fill": "#bf4040", "fillOpacity": 0.33, "color": "#bf4040", "contour": 15.0, "metric": "time"}, "geometry": {"coordinates": [[[96.521613, 5.105636], [96.520558, 5.105463], [96.522206, 5.103057], [96.523769, 5.10262], [96.523772, 5.101463], [96.521861, 5.101215], [96.521691, 5.100385], [96.520833, 5.100243], [96.520705, 5.096463], [96.519781, 5.096295], [96.519667, 5.095409], [96.516753, 5.095323], [96.516742, 5.089593], [96.518483, 5.089593], [96.518565, 5.09351], [96.521446, 5.09363], [96.521556, 5.09452], [96.522435, 5.09464], [96.522539, 5.098537], [96.523377, 5.098699], [96.523613, 5.09959], [96.525328, 5.099748], [96.525503, 5.100573], [96.526209, 5.100867], [96.526419, 5.102657], [96.527049, 5.103463], [96.527226, 5.104463], [96.526613, 5.104966], [96.525613, 5.105125], [96.524798, 5.104278], [96.523613, 5.104162], [96.521613, 5.105636]]], "type": "Polygon"}, "type": "Feature"}], "type": "FeatureCollection"}