{"features": [{"properties": {"fill-opacity": 0.33, "fillColor": "#bf4040", "opacity": 0.33, "fill": "#bf4040", "fillOpacity": 0.33, "color": "#bf4040", "contour": 15.0, "metric": "time"}, "geometry": {"coordinates": [[[95.313502, 5.560008], [95.311276, 5.558487], [95.312001, 5.557261], [95.310502, 5.555796], [95.309502, 5.556216], [95.308502, 5.557271], [95.307825, 5.556938], [95.30617, 5.555261], [95.305673, 5.55309], [95.304502, 5.551607], [95.299145, 5.549618], [95.297502, 5.548204], [95.296502, 5.546504], [95.296376, 5.545387], [95.292991, 5.541261], [95.293669, 5.540261], [95.29372, 5.539043], [95.291658, 5.538261], [95.290617, 5.535146], [95.288839, 5.533924], [95.288532, 5.533261], [95.290815, 5.530574], [95.290581, 5.529261], [95.291207, 5.528261], [95.290502, 5.527879], [95.288502, 5.528522], [95.286149, 5.528614], [95.285718, 5.528261], [95.286385, 5.527261], [95.285486, 5.526261], [95.285757, 5.524261], [95.284993, 5.522261], [95.284153, 5.521261], [95.285594, 5.520261], [95.285801, 5.51856], [95.286502, 5.518237], [95.287645, 5.518405], [95.287987, 5.517261], [95.287285, 5.516261], [95.28843, 5.514189], [95.289502, 5.514236], [95.290018, 5.513778], [95.291732, 5.513491], [95.292502, 5.51097], [95.292788, 5.510975], [95.292857, 5.512261], [95.293156, 5.512607], [95.293744, 5.512504], [95.293826, 5.510937], [95.293078, 5.510685], [95.29237, 5.509261], [95.292777, 5.508537], [95.294878, 5.507637], [95.295502, 5.505415], [95.296266, 5.509497], [95.297502, 5.508531], [95.298665, 5.508424], [95.298388, 5.506261], [95.299554, 5.504261], [95.298567, 5.503261], [95.299636, 5.500261], [95.300502, 5.499157], [95.302078, 5.498838], [95.302502, 5.498067], [95.302811, 5.499261], [95.304127, 5.500636], [95.30494, 5.5007], [95.305502, 5.500299], [95.306502, 5.502815], [95.307963, 5.502723], [95.308176, 5.501935], [95.30976, 5.501519], [95.310502, 5.497497], [95.311471, 5.498261], [95.310923, 5.499261], [95.311721, 5.500042], [95.312197, 5.501566], [95.313769, 5.501529], [95.314502, 5.499625], [95.315502, 5.499461], [95.315833, 5.501261], [95.31511, 5.502261], [95.316502, 5.503577], [95.317502, 5.502885], [95.318502, 5.50277], [95.319502, 5.503672], [95.320502, 5.502826], [95.32187, 5.50263], [95.321748, 5.501261], [95.322249, 5.501008], [95.323502, 5.500692], [95.324502, 5.501541], [95.327502, 5.500436], [95.329118, 5.501261], [95.328066, 5.501825], [95.32816, 5.502602], [95.329502, 5.502825], [95.329931, 5.502261], [95.329618, 5.501261], [95.330062, 5.500821], [95.330814, 5.500949], [95.332088, 5.502261], [95.332046, 5.503717], [95.333926, 5.503837], [95.33519, 5.504573], [95.336457, 5.506306], [95.337376, 5.506387], [95.33775, 5.507013], [95.337221, 5.509261], [95.337901, 5.510261], [95.336757, 5.512261], [95.338873, 5.512889], [95.339106, 5.514657], [95.33974, 5.515261], [95.337485, 5.517261], [95.337948, 5.518261], [95.336796, 5.519556], [95.336177, 5.521586], [95.338105, 5.523658], [95.339502, 5.523623], [95.340502, 5.5243], [95.343502, 5.527718], [95.343676, 5.529087], [95.344506, 5.529261], [95.344538, 5.530297], [95.343785, 5.530544], [95.34366, 5.531261], [95.343953, 5.534261], [95.342747, 5.536261], [95.342003, 5.536762], [95.341502, 5.539276], [95.337835, 5.540594], [95.337597, 5.541357], [95.336881, 5.541641], [95.336574, 5.543334], [95.335856, 5.543615], [95.335502, 5.544794], [95.333502, 5.54525], [95.332217, 5.544976], [95.332876, 5.546261], [95.331542, 5.547301], [95.330502, 5.549744], [95.328502, 5.549765], [95.328034, 5.550261], [95.328502, 5.550987], [95.329642, 5.551121], [95.329622, 5.551382], [95.328502, 5.552204], [95.326502, 5.551499], [95.325096, 5.551856], [95.324502, 5.55271], [95.322502, 5.552729], [95.322029, 5.553261], [95.322082, 5.555842], [95.321502, 5.556482], [95.31929, 5.555473], [95.318173, 5.555589], [95.317502, 5.55525], [95.317396, 5.556155], [95.316298, 5.557058], [95.315936, 5.558261], [95.313502, 5.560008]]], "type": "Polygon"}, "type": "Feature"}], "type": "FeatureCollection"}