{"features": [{"properties": {"fill-opacity": 0.33, "fillColor": "#bf4040", "opacity": 0.33, "fill": "#bf4040", "fillOpacity": 0.33, "color": "#bf4040", "contour": 15.0, "metric": "time"}, "geometry": {"coordinates": [[[97.913384, 2.836461], [97.91161, 2.836337], [97.911464, 2.835483], [97.910652, 2.835296], [97.910652, 2.833831], [97.915438, 2.833617], [97.915535, 2.832714], [97.916454, 2.832563], [97.916459, 2.828488], [97.915541, 2.828406], [97.915445, 2.826502], [97.914581, 2.826367], [97.914497, 2.824451], [97.913625, 2.824322], [97.913474, 2.823474], [97.912685, 2.823263], [97.912531, 2.821417], [97.91166, 2.820563], [97.911325, 2.818563], [97.913384, 2.81797], [97.913977, 2.818563], [97.914202, 2.821563], [97.915113, 2.821835], [97.915272, 2.823676], [97.916173, 2.823775], [97.916319, 2.824629], [97.9172, 2.824747], [97.917309, 2.827638], [97.91824, 2.827707], [97.918321, 2.830563], [97.918236, 2.834415], [97.917333, 2.834512], [97.917219, 2.835398], [97.914319, 2.835498], [97.91418, 2.836359], [97.913384, 2.836461]]], "type": "Polygon"}, "type": "Feature"}], "type": "FeatureCollection"}