{"features": [{"properties": {"fill-opacity": 0.33, "fillColor": "#bf4040", "opacity": 0.33, "fill": "#bf4040", "fillOpacity": 0.33, "color": "#bf4040", "contour": 15.0, "metric": "time"}, "geometry": {"coordinates": [[[97.094066, 4.387703], [97.092066, 4.387932], [97.091237, 4.387101], [97.089426, 4.386912], [97.089066, 4.386133], [97.084066, 4.386193], [97.083921, 4.387128], [97.081201, 4.387137], [97.08111, 4.386228], [97.080193, 4.386145], [97.080193, 4.384399], [97.090066, 4.384438], [97.090734, 4.384603], [97.091066, 4.385478], [97.092066, 4.385529], [97.093066, 4.386641], [97.094865, 4.387272], [97.094066, 4.387703]]], "type": "Polygon"}, "type": "Feature"}], "type": "FeatureCollection"}