{"features": [{"properties": {"fill-opacity": 0.33, "fillColor": "#bf4040", "opacity": 0.33, "fill": "#bf4040", "fillOpacity": 0.33, "color": "#bf4040", "contour": 15.0, "metric": "time"}, "geometry": {"coordinates": [[[97.369854, 3.941507], [97.369467, 3.940827], [97.368366, 3.940314], [97.3681, 3.93958], [97.368307, 3.93828], [97.369019, 3.937827], [97.368944, 3.931916], [97.368011, 3.93167], [97.367922, 3.928827], [97.367991, 3.927963], [97.368917, 3.927827], [97.367989, 3.927692], [97.367929, 3.924827], [97.368005, 3.923978], [97.368912, 3.923768], [97.368042, 3.923638], [97.367854, 3.921699], [97.363668, 3.921641], [97.363596, 3.923084], [97.365246, 3.924827], [97.365104, 3.927077], [97.364854, 3.927334], [97.363854, 3.927092], [97.363324, 3.924827], [97.36224, 3.923827], [97.362076, 3.922605], [97.360426, 3.922255], [97.360292, 3.920389], [97.359595, 3.919827], [97.360854, 3.919442], [97.361518, 3.920162], [97.36252, 3.92016], [97.363854, 3.919085], [97.366034, 3.919007], [97.367206, 3.917827], [97.367456, 3.916429], [97.36919, 3.916162], [97.370928, 3.914752], [97.371221, 3.914827], [97.371065, 3.916038], [97.370156, 3.917129], [97.368594, 3.917567], [97.368542, 3.918827], [97.367581, 3.919827], [97.369637, 3.920043], [97.369785, 3.920895], [97.370647, 3.921033], [97.370699, 3.925672], [97.369784, 3.925827], [97.370723, 3.925957], [97.370811, 3.926869], [97.371729, 3.926952], [97.371729, 3.928702], [97.370811, 3.928784], [97.370719, 3.929692], [97.369782, 3.929827], [97.370694, 3.929986], [97.370774, 3.930827], [97.370674, 3.938647], [97.369854, 3.941507]]], "type": "Polygon"}, "type": "Feature"}], "type": "FeatureCollection"}