{"features": [{"properties": {"fill-opacity": 0.33, "fillColor": "#bf4040", "opacity": 0.33, "fill": "#bf4040", "fillOpacity": 0.33, "color": "#bf4040", "contour": 15.0, "metric": "time"}, "geometry": {"coordinates": [[[96.028205, 5.193285], [96.027521, 5.191004], [96.023957, 5.19032], [96.025205, 5.189929], [96.026508, 5.18832], [96.024711, 5.187814], [96.023205, 5.186135], [96.018111, 5.186226], [96.017815, 5.18893], [96.016976, 5.18932], [96.017887, 5.19032], [96.017932, 5.191592], [96.019425, 5.1921], [96.019533, 5.192648], [96.019205, 5.193137], [96.016835, 5.19269], [96.016538, 5.19132], [96.015471, 5.19032], [96.015406, 5.18832], [96.015607, 5.187722], [96.016379, 5.18732], [96.01552, 5.187005], [96.015205, 5.186136], [96.013538, 5.185987], [96.013372, 5.18532], [96.013502, 5.183617], [96.014318, 5.18332], [96.014272, 5.181253], [96.013129, 5.181244], [96.012963, 5.182078], [96.011118, 5.182233], [96.010902, 5.184017], [96.009508, 5.184017], [96.009304, 5.183221], [96.008525, 5.183], [96.008525, 5.18164], [96.0093, 5.181414], [96.00947, 5.180584], [96.011205, 5.180443], [96.011434, 5.179549], [96.012299, 5.17932], [96.012286, 5.17532], [96.011359, 5.175166], [96.011282, 5.17432], [96.011359, 5.173474], [96.012279, 5.17332], [96.012351, 5.171465], [96.013275, 5.17132], [96.01325, 5.170275], [96.012337, 5.170187], [96.012271, 5.16832], [96.012337, 5.167452], [96.013268, 5.16732], [96.013331, 5.165446], [96.017073, 5.165452], [96.017137, 5.167388], [96.020059, 5.167466], [96.020155, 5.16837], [96.021054, 5.168471], [96.021152, 5.170373], [96.022043, 5.170482], [96.022205, 5.172409], [96.023268, 5.172383], [96.023411, 5.170526], [96.025997, 5.170528], [96.026205, 5.171429], [96.031205, 5.171495], [96.031621, 5.170736], [96.032789, 5.170736], [96.033009, 5.17232], [96.032814, 5.172928], [96.032061, 5.17332], [96.032891, 5.173634], [96.033096, 5.174429], [96.038205, 5.17458], [96.038698, 5.174826], [96.038928, 5.175596], [96.039675, 5.17585], [96.040205, 5.177802], [96.043034, 5.17832], [96.039907, 5.179022], [96.039625, 5.18032], [96.040196, 5.18132], [96.039205, 5.181585], [96.038825, 5.1807], [96.038481, 5.176043], [96.032205, 5.176158], [96.031529, 5.175996], [96.031104, 5.175219], [96.030835, 5.17795], [96.030006, 5.17832], [96.030972, 5.17932], [96.030688, 5.181803], [96.026205, 5.181949], [96.02593, 5.18232], [96.026205, 5.183102], [96.026959, 5.18332], [96.025963, 5.185078], [96.026037, 5.186488], [96.029874, 5.18732], [96.027959, 5.188074], [96.027853, 5.18932], [96.02873, 5.19032], [96.029108, 5.192223], [96.028205, 5.193285]]], "type": "Polygon"}, "type": "Feature"}], "type": "FeatureCollection"}