{"features": [{"properties": {"fill-opacity": 0.33, "fillColor": "#bf4040", "opacity": 0.33, "fill": "#bf4040", "fillOpacity": 0.33, "color": "#bf4040", "contour": 15.0, "metric": "time"}, "geometry": {"coordinates": [[[97.875795, 3.521339], [97.874322, 3.521081], [97.873795, 3.519451], [97.864795, 3.519478], [97.864055, 3.519348], [97.863848, 3.518555], [97.862795, 3.518539], [97.862638, 3.51945], [97.852452, 3.519264], [97.851795, 3.5198], [97.851458, 3.519608], [97.851381, 3.518608], [97.852232, 3.518044], [97.854795, 3.517808], [97.855178, 3.516991], [97.855955, 3.516767], [97.858553, 3.51685], [97.85872, 3.517683], [97.860795, 3.517694], [97.860942, 3.516754], [97.861842, 3.516655], [97.861935, 3.515747], [97.864668, 3.515734], [97.864795, 3.516674], [97.868633, 3.51677], [97.868795, 3.517695], [97.874795, 3.517801], [97.875409, 3.517994], [97.875795, 3.518859], [97.878447, 3.519608], [97.876795, 3.520246], [97.875795, 3.521339]]], "type": "Polygon"}, "type": "Feature"}], "type": "FeatureCollection"}