{"features": [{"properties": {"fill-opacity": 0.33, "fillColor": "#bf4040", "opacity": 0.33, "fill": "#bf4040", "fillOpacity": 0.33, "color": "#bf4040", "contour": 15.0, "metric": "time"}, "geometry": {"coordinates": [[[96.630486, 4.838614], [96.627202, 4.838193], [96.626941, 4.837909], [96.627619, 4.835909], [96.626727, 4.835668], [96.62656, 4.833835], [96.625701, 4.833694], [96.625556, 4.832839], [96.624691, 4.832704], [96.624551, 4.830845], [96.623675, 4.830721], [96.623547, 4.829848], [96.622665, 4.82973], [96.622543, 4.827853], [96.621652, 4.827743], [96.62154, 4.826855], [96.619641, 4.826755], [96.619537, 4.825859], [96.617631, 4.825765], [96.617534, 4.824862], [96.616626, 4.824769], [96.616554, 4.822909], [96.615618, 4.822777], [96.615551, 4.821844], [96.615615, 4.820038], [96.616529, 4.819951], [96.616612, 4.819035], [96.618361, 4.819035], [96.618419, 4.822909], [96.619346, 4.82305], [96.619439, 4.823957], [96.621335, 4.82406], [96.621435, 4.82496], [96.623324, 4.825071], [96.623431, 4.825964], [96.624318, 4.826077], [96.624427, 4.827968], [96.625306, 4.82809], [96.625424, 4.828971], [96.626293, 4.829103], [96.626419, 4.830977], [96.627278, 4.831118], [96.627415, 4.831981], [96.628265, 4.832131], [96.628373, 4.833909], [96.629241, 4.834155], [96.629397, 4.834999], [96.631486, 4.835095], [96.632486, 4.834134], [96.635138, 4.834258], [96.635886, 4.83451], [96.636486, 4.835484], [96.637717, 4.835909], [96.634486, 4.836586], [96.633486, 4.835649], [96.633052, 4.836474], [96.630486, 4.838614]]], "type": "Polygon"}, "type": "Feature"}], "type": "FeatureCollection"}