{"features": [{"properties": {"fill-opacity": 0.33, "fillColor": "#bf4040", "opacity": 0.33, "fill": "#bf4040", "fillOpacity": 0.33, "color": "#bf4040", "contour": 15.0, "metric": "time"}, "geometry": {"coordinates": [[[95.858092, 5.245749], [95.857092, 5.246006], [95.856977, 5.245691], [95.857692, 5.244576], [95.857509, 5.242576], [95.856442, 5.241576], [95.856371, 5.239576], [95.857267, 5.238751], [95.857554, 5.237038], [95.859221, 5.235447], [95.857905, 5.235389], [95.857092, 5.236238], [95.85308, 5.235576], [95.856092, 5.234931], [95.857092, 5.233856], [95.862092, 5.233735], [95.862389, 5.232872], [95.864183, 5.232666], [95.864196, 5.230576], [95.863282, 5.230386], [95.86315, 5.229518], [95.862253, 5.229415], [95.862164, 5.227504], [95.86123, 5.227439], [95.861156, 5.225512], [95.857249, 5.22542], [95.857145, 5.224524], [95.856252, 5.224416], [95.856262, 5.220745], [95.857151, 5.220634], [95.857272, 5.219755], [95.85919, 5.219576], [95.858421, 5.219248], [95.858207, 5.218461], [95.856527, 5.217142], [95.8563, 5.213368], [95.854578, 5.213091], [95.854257, 5.212411], [95.852635, 5.212033], [95.852092, 5.211207], [95.84919, 5.210576], [95.850482, 5.209965], [95.850794, 5.208278], [95.851575, 5.208059], [95.851521, 5.207576], [95.852092, 5.207004], [95.854092, 5.206881], [95.856324, 5.208807], [95.856728, 5.208211], [95.858323, 5.207806], [95.858635, 5.207119], [95.860283, 5.206766], [95.860664, 5.205147], [95.862825, 5.203308], [95.86472, 5.203203], [95.865092, 5.202837], [95.865433, 5.203576], [95.863715, 5.204198], [95.862695, 5.205576], [95.862877, 5.206791], [95.863741, 5.207576], [95.862901, 5.208384], [95.862883, 5.209576], [95.863711, 5.209957], [95.86397, 5.210698], [95.864737, 5.210932], [95.864915, 5.211576], [95.864938, 5.214576], [95.864783, 5.215266], [95.864007, 5.215661], [95.86619, 5.215674], [95.866427, 5.214576], [95.865491, 5.213576], [95.865533, 5.212576], [95.867092, 5.211223], [95.867996, 5.211576], [95.867533, 5.212576], [95.869642, 5.214026], [95.869952, 5.214717], [95.872092, 5.214812], [95.87262, 5.215048], [95.872842, 5.215826], [95.875092, 5.213941], [95.877092, 5.214078], [95.878092, 5.213231], [95.879498, 5.213576], [95.878092, 5.214958], [95.87584, 5.215324], [95.87263, 5.219113], [95.871948, 5.219432], [95.871689, 5.220172], [95.870914, 5.220576], [95.874605, 5.221064], [95.875816, 5.222576], [95.875786, 5.223576], [95.876707, 5.224576], [95.87679, 5.225878], [95.877898, 5.226576], [95.878241, 5.227724], [95.877783, 5.228266], [95.876092, 5.228221], [95.872244, 5.224424], [95.871519, 5.224149], [95.871228, 5.22344], [95.869458, 5.22321], [95.869209, 5.222459], [95.868428, 5.22224], [95.868092, 5.221426], [95.867952, 5.223436], [95.867092, 5.223506], [95.866232, 5.223436], [95.866092, 5.222511], [95.86324, 5.222428], [95.863143, 5.221525], [95.862249, 5.221419], [95.862182, 5.220486], [95.861027, 5.220511], [95.860901, 5.221384], [95.859032, 5.221516], [95.858915, 5.222398], [95.858039, 5.222629], [95.858938, 5.22273], [95.859092, 5.223648], [95.861966, 5.223702], [95.862029, 5.22464], [95.862964, 5.224705], [95.863021, 5.226647], [95.863943, 5.226725], [95.864039, 5.227629], [95.864922, 5.227746], [95.865092, 5.228673], [95.866865, 5.228804], [95.867015, 5.229653], [95.867848, 5.22982], [95.86801, 5.230658], [95.868836, 5.230832], [95.868959, 5.232576], [95.869811, 5.232857], [95.869994, 5.234674], [95.870784, 5.234884], [95.870973, 5.235695], [95.871649, 5.236019], [95.872092, 5.236857], [95.874092, 5.23728], [95.874403, 5.237886], [95.874092, 5.23873], [95.873494, 5.238174], [95.871092, 5.238342], [95.870092, 5.2374], [95.86797, 5.237453], [95.866649, 5.239132], [95.864929, 5.239412], [95.86479, 5.240576], [95.865741, 5.241576], [95.865703, 5.242576], [95.864474, 5.243957], [95.863785, 5.243883], [95.863375, 5.240293], [95.863587, 5.23807], [95.865237, 5.237721], [95.866467, 5.23595], [95.868237, 5.235576], [95.867361, 5.235307], [95.867179, 5.234489], [95.866345, 5.234323], [95.866007, 5.23349], [95.865819, 5.234302], [95.864092, 5.234437], [95.863778, 5.235262], [95.86198, 5.235463], [95.86173, 5.236214], [95.860968, 5.236451], [95.860697, 5.237181], [95.858938, 5.238422], [95.858578, 5.240062], [95.857783, 5.240576], [95.858706, 5.241576], [95.858092, 5.245749]]], "type": "Polygon"}, "type": "Feature"}], "type": "FeatureCollection"}