{"features": [{"properties": {"fill-opacity": 0.33, "fillColor": "#bf4040", "opacity": 0.33, "fill": "#bf4040", "fillOpacity": 0.33, "color": "#bf4040", "contour": 15.0, "metric": "time"}, "geometry": {"coordinates": [[[95.340963, 5.600273], [95.340632, 5.59962], [95.339755, 5.599497], [95.338256, 5.597996], [95.335963, 5.597966], [95.334963, 5.597021], [95.332963, 5.597056], [95.332105, 5.596146], [95.330338, 5.595914], [95.329963, 5.594134], [95.326287, 5.593965], [95.326287, 5.592612], [95.327065, 5.592391], [95.327258, 5.591583], [95.328094, 5.591288], [95.328025, 5.584226], [95.324963, 5.584181], [95.324736, 5.585061], [95.321878, 5.585204], [95.32361, 5.585641], [95.32361, 5.586936], [95.318963, 5.587141], [95.318258, 5.586994], [95.318059, 5.586192], [95.317262, 5.585989], [95.31706, 5.584191], [95.315257, 5.583994], [95.315382, 5.582288], [95.316507, 5.579833], [95.318042, 5.579367], [95.318373, 5.578698], [95.319127, 5.578452], [95.319319, 5.577645], [95.321068, 5.577393], [95.321224, 5.57655], [95.322047, 5.576372], [95.322076, 5.574401], [95.32302, 5.574346], [95.323045, 5.573288], [95.321999, 5.573253], [95.321214, 5.572038], [95.320416, 5.572288], [95.319963, 5.573499], [95.316963, 5.572479], [95.314103, 5.572288], [95.312559, 5.570288], [95.312344, 5.566288], [95.310422, 5.565288], [95.310326, 5.562925], [95.307963, 5.562947], [95.307397, 5.561855], [95.306131, 5.561288], [95.30655, 5.559288], [95.306052, 5.558288], [95.307084, 5.557409], [95.308963, 5.554465], [95.310963, 5.552687], [95.311187, 5.553065], [95.312406, 5.552731], [95.313872, 5.550288], [95.311799, 5.549288], [95.312025, 5.548288], [95.312963, 5.547271], [95.313963, 5.547845], [95.314549, 5.547288], [95.313471, 5.544288], [95.314963, 5.543946], [95.315974, 5.545299], [95.316906, 5.543231], [95.317963, 5.543656], [95.319159, 5.543288], [95.321963, 5.541463], [95.322466, 5.540288], [95.324963, 5.538706], [95.32556, 5.539288], [95.325332, 5.540288], [95.326227, 5.540553], [95.3266, 5.538925], [95.327963, 5.538035], [95.328963, 5.538666], [95.329435, 5.537288], [95.329963, 5.536917], [95.330514, 5.537288], [95.330963, 5.53945], [95.332963, 5.537048], [95.334963, 5.537656], [95.335963, 5.539244], [95.337963, 5.53953], [95.339963, 5.540738], [95.340827, 5.540152], [95.341682, 5.540288], [95.341963, 5.541973], [95.344191, 5.543288], [95.344963, 5.54507], [95.346453, 5.546288], [95.347186, 5.549066], [95.348963, 5.549556], [95.350454, 5.551288], [95.350811, 5.552288], [95.349321, 5.553288], [95.349473, 5.553779], [95.351527, 5.556288], [95.351798, 5.557288], [95.351347, 5.558288], [95.352963, 5.55934], [95.35341, 5.561288], [95.352884, 5.563368], [95.354029, 5.564288], [95.354325, 5.565288], [95.355503, 5.566288], [95.355635, 5.56696], [95.354963, 5.567881], [95.353593, 5.568288], [95.353963, 5.569569], [95.3531, 5.572288], [95.351194, 5.57352], [95.350868, 5.574194], [95.349963, 5.574362], [95.349671, 5.574996], [95.349739, 5.576513], [95.351378, 5.577873], [95.352565, 5.579686], [95.353562, 5.580288], [95.352963, 5.581001], [95.352355, 5.580897], [95.352194, 5.580057], [95.351019, 5.580288], [95.350963, 5.583496], [95.34781, 5.584441], [95.347185, 5.584066], [95.347233, 5.582288], [95.345963, 5.581947], [95.345609, 5.582288], [95.345753, 5.583499], [95.346316, 5.584288], [95.344963, 5.585821], [95.343582, 5.585907], [95.3431, 5.587425], [95.341963, 5.587887], [95.341889, 5.586288], [95.342466, 5.585288], [95.341963, 5.584823], [95.339963, 5.584459], [95.339476, 5.591288], [95.339963, 5.592289], [95.339571, 5.593288], [95.339855, 5.594396], [95.340963, 5.594372], [95.342043, 5.595288], [95.342319, 5.596288], [95.339963, 5.596679], [95.339506, 5.597288], [95.341116, 5.599288], [95.340963, 5.600273]]], "type": "Polygon"}, "type": "Feature"}], "type": "FeatureCollection"}