{"features": [{"properties": {"fill-opacity": 0.33, "fillColor": "#bf4040", "opacity": 0.33, "fill": "#bf4040", "fillOpacity": 0.33, "color": "#bf4040", "contour": 15.0, "metric": "time"}, "geometry": {"coordinates": [[[96.320625, 2.55765], [96.320107, 2.556235], [96.319244, 2.555717], [96.320625, 2.555368], [96.321299, 2.554717], [96.32089, 2.552717], [96.319866, 2.551717], [96.319817, 2.549525], [96.318993, 2.54935], [96.318743, 2.5486], [96.317964, 2.548378], [96.317721, 2.545621], [96.316521, 2.545613], [96.316302, 2.546393], [96.315512, 2.546603], [96.315264, 2.547355], [96.314499, 2.54759], [96.31421, 2.548301], [96.312464, 2.548555], [96.311625, 2.549441], [96.310625, 2.549403], [96.310386, 2.548956], [96.310317, 2.548408], [96.311116, 2.547208], [96.31276, 2.546851], [96.312993, 2.546084], [96.313744, 2.545835], [96.313964, 2.545055], [96.314734, 2.544826], [96.314944, 2.544035], [96.317625, 2.543857], [96.317889, 2.542981], [96.319625, 2.542842], [96.319866, 2.541957], [96.321735, 2.541717], [96.32169, 2.540652], [96.320815, 2.540527], [96.320687, 2.539655], [96.319808, 2.539535], [96.319684, 2.538658], [96.318798, 2.538545], [96.318682, 2.537661], [96.317789, 2.537554], [96.317706, 2.536637], [96.315778, 2.536564], [96.3157, 2.535642], [96.314771, 2.535571], [96.31476, 2.530852], [96.31567, 2.530761], [96.315756, 2.529847], [96.316668, 2.52976], [96.316752, 2.528843], [96.321494, 2.528848], [96.321625, 2.529784], [96.324483, 2.529859], [96.324625, 2.53079], [96.32747, 2.530872], [96.327625, 2.531797], [96.329459, 2.531883], [96.329569, 2.532773], [96.330453, 2.532889], [96.330625, 2.533807], [96.332693, 2.533785], [96.332843, 2.532935], [96.333739, 2.532717], [96.333865, 2.530956], [96.33571, 2.530801], [96.335885, 2.529976], [96.336765, 2.529717], [96.33692, 2.528011], [96.337783, 2.527717], [96.337835, 2.523717], [96.338045, 2.523136], [96.338858, 2.522717], [96.339145, 2.520237], [96.340625, 2.519038], [96.341882, 2.518974], [96.343625, 2.517292], [96.345253, 2.517344], [96.345625, 2.517039], [96.34573, 2.517822], [96.344255, 2.518346], [96.343023, 2.520114], [96.341625, 2.520376], [96.340444, 2.521535], [96.340407, 2.523717], [96.339431, 2.524717], [96.339318, 2.52941], [96.338528, 2.529619], [96.33835, 2.531441], [96.337538, 2.531629], [96.337369, 2.53246], [96.335512, 2.532717], [96.335514, 2.533828], [96.336625, 2.533834], [96.336877, 2.532968], [96.340625, 2.532864], [96.340941, 2.532033], [96.341625, 2.531875], [96.34231, 2.532033], [96.342519, 2.532823], [96.343295, 2.533047], [96.343295, 2.534386], [96.338625, 2.534586], [96.338377, 2.535468], [96.33655, 2.535641], [96.336403, 2.536494], [96.334517, 2.536717], [96.335393, 2.536949], [96.335528, 2.541814], [96.336334, 2.542009], [96.336625, 2.542879], [96.338272, 2.54307], [96.338443, 2.545717], [96.33826, 2.546351], [96.337429, 2.546717], [96.337136, 2.549717], [96.337625, 2.550348], [96.338929, 2.550717], [96.336625, 2.551086], [96.33485, 2.549492], [96.333625, 2.549448], [96.333107, 2.550198], [96.331486, 2.550577], [96.331221, 2.551312], [96.329503, 2.551594], [96.329239, 2.55233], [96.326473, 2.552564], [96.324422, 2.554513], [96.324013, 2.556104], [96.321216, 2.556307], [96.320625, 2.55765]]], "type": "Polygon"}, "type": "Feature"}], "type": "FeatureCollection"}