{"features": [{"properties": {"fill-opacity": 0.33, "fillColor": "#bf4040", "opacity": 0.33, "fill": "#bf4040", "fillOpacity": 0.33, "color": "#bf4040", "contour": 15.0, "metric": "time"}, "geometry": {"coordinates": [[[98.021591, 4.527433], [98.020639, 4.52751], [98.020488, 4.526559], [98.019591, 4.525245], [98.018591, 4.526193], [98.016242, 4.525907], [98.016242, 4.52521], [98.017591, 4.524965], [98.017923, 4.524559], [98.016053, 4.523096], [98.015724, 4.521425], [98.013943, 4.520206], [98.013754, 4.518559], [98.012899, 4.51825], [98.012684, 4.516465], [98.011863, 4.516286], [98.011677, 4.515472], [98.010845, 4.515304], [98.010709, 4.513559], [98.009819, 4.513331], [98.009676, 4.506559], [98.008759, 4.50639], [98.008642, 4.504507], [98.00674, 4.504409], [98.006591, 4.503488], [98.004731, 4.503418], [98.004591, 4.502493], [98.000716, 4.502433], [98.000633, 4.501516], [97.99972, 4.501429], [97.999634, 4.500515], [97.998724, 4.500426], [97.998724, 4.498692], [97.999637, 4.498512], [97.996742, 4.498407], [97.996591, 4.49748], [97.994533, 4.497501], [97.994407, 4.498375], [97.993527, 4.498495], [97.99339, 4.499358], [97.990794, 4.499355], [97.990794, 4.497762], [97.991656, 4.497624], [97.99178, 4.496748], [97.992677, 4.496559], [97.989789, 4.49636], [97.989658, 4.495491], [97.988799, 4.49535], [97.988591, 4.494447], [97.988323, 4.495291], [97.98745, 4.495418], [97.987254, 4.497222], [97.986471, 4.497439], [97.986193, 4.498161], [97.984001, 4.498148], [97.984001, 4.496969], [97.984718, 4.496686], [97.984936, 4.495904], [97.985699, 4.495667], [97.985888, 4.494856], [97.986731, 4.494699], [97.986843, 4.492811], [97.987707, 4.492559], [97.986842, 4.492307], [97.986675, 4.491474], [97.984967, 4.491182], [97.984701, 4.490449], [97.983936, 4.490213], [97.983696, 4.487453], [97.983094, 4.487559], [97.982893, 4.488861], [97.981591, 4.489807], [97.978591, 4.489843], [97.976591, 4.488811], [97.976069, 4.487081], [97.975591, 4.487147], [97.973855, 4.485559], [97.975176, 4.482144], [97.976688, 4.481656], [97.977181, 4.478559], [97.976471, 4.476439], [97.977591, 4.475044], [97.981762, 4.475387], [97.982054, 4.476559], [97.981305, 4.477559], [97.982062, 4.478087], [97.982305, 4.478845], [97.983788, 4.479559], [97.983664, 4.481631], [97.982591, 4.481832], [97.98236, 4.482559], [97.983147, 4.483002], [97.983462, 4.483688], [97.984236, 4.483913], [97.984477, 4.484672], [97.985263, 4.484887], [97.985487, 4.485662], [97.985913, 4.484881], [97.987268, 4.484881], [97.987278, 4.487246], [97.986449, 4.487559], [97.988322, 4.487828], [97.988468, 4.489559], [97.989359, 4.48979], [97.989516, 4.490633], [97.989874, 4.487842], [97.99069, 4.487658], [97.990903, 4.486871], [97.992278, 4.486871], [97.992294, 4.489262], [97.99146, 4.489559], [97.991487, 4.492559], [97.992393, 4.492756], [97.992527, 4.493622], [97.993403, 4.493746], [97.993531, 4.494618], [97.99542, 4.49473], [97.995535, 4.495614], [97.996591, 4.495637], [97.996754, 4.494722], [97.997646, 4.494614], [97.997761, 4.493729], [97.99942, 4.493729], [97.999541, 4.496608], [98.000638, 4.496606], [98.000736, 4.495704], [98.003441, 4.495708], [98.003541, 4.496608], [98.004439, 4.496711], [98.004518, 4.499559], [98.005458, 4.499691], [98.005546, 4.500603], [98.006454, 4.500695], [98.006544, 4.501605], [98.009437, 4.501712], [98.009539, 4.50261], [98.011428, 4.502721], [98.011536, 4.503613], [98.01242, 4.503729], [98.012404, 4.508372], [98.011495, 4.508559], [98.011487, 4.510559], [98.012369, 4.510781], [98.012478, 4.512559], [98.013347, 4.512802], [98.013504, 4.513645], [98.015284, 4.513865], [98.015378, 4.516559], [98.016215, 4.516935], [98.016411, 4.519559], [98.017186, 4.519963], [98.017441, 4.521709], [98.019591, 4.521881], [98.020591, 4.522924], [98.021947, 4.523202], [98.022135, 4.526559], [98.021591, 4.527433]]], "type": "Polygon"}, "type": "Feature"}], "type": "FeatureCollection"}