{"features": [{"properties": {"fill-opacity": 0.33, "fillColor": "#bf4040", "opacity": 0.33, "fill": "#bf4040", "fillOpacity": 0.33, "color": "#bf4040", "contour": 15.0, "metric": "time"}, "geometry": {"coordinates": [[[96.861434, 4.669524], [96.857434, 4.669935], [96.85678, 4.669281], [96.856741, 4.668281], [96.857434, 4.667588], [96.860647, 4.667494], [96.86084, 4.666687], [96.861616, 4.666281], [96.861787, 4.664633], [96.864108, 4.664607], [96.864434, 4.665428], [96.864741, 4.664588], [96.865684, 4.664281], [96.864956, 4.663759], [96.864657, 4.662057], [96.863705, 4.66101], [96.86124, 4.660475], [96.86118, 4.659535], [96.860722, 4.659281], [96.861434, 4.659164], [96.862434, 4.659842], [96.864837, 4.659878], [96.86587, 4.660844], [96.866434, 4.662536], [96.866485, 4.65923], [96.863575, 4.65914], [96.863479, 4.657236], [96.861565, 4.65715], [96.861565, 4.655412], [96.862476, 4.655239], [96.858363, 4.655209], [96.858285, 4.657131], [96.855587, 4.657128], [96.855342, 4.656281], [96.855315, 4.658399], [96.857098, 4.658616], [96.857308, 4.659407], [96.858131, 4.659584], [96.858335, 4.66038], [96.860107, 4.660608], [96.860107, 4.661953], [96.858283, 4.662281], [96.859084, 4.662631], [96.859055, 4.664901], [96.857814, 4.664901], [96.857552, 4.664163], [96.856767, 4.663948], [96.856537, 4.663178], [96.855729, 4.662986], [96.855528, 4.662187], [96.854703, 4.662012], [96.854519, 4.661195], [96.85267, 4.661045], [96.852434, 4.660169], [96.850339, 4.660186], [96.850011, 4.663857], [96.848858, 4.663857], [96.848615, 4.661281], [96.847765, 4.66095], [96.847434, 4.660032], [96.846915, 4.661762], [96.844852, 4.663699], [96.84402, 4.663866], [96.84379, 4.664636], [96.842841, 4.665281], [96.842434, 4.666519], [96.841837, 4.662281], [96.842036, 4.661882], [96.843712, 4.661281], [96.841965, 4.66075], [96.84173, 4.660281], [96.844619, 4.657281], [96.842434, 4.657038], [96.841434, 4.657969], [96.840746, 4.657281], [96.840434, 4.655935], [96.839434, 4.656713], [96.838788, 4.656281], [96.83871, 4.655005], [96.838169, 4.654281], [96.839434, 4.653882], [96.840146, 4.654569], [96.84164, 4.654487], [96.84185, 4.653865], [96.841183, 4.653531], [96.839853, 4.651281], [96.840178, 4.650025], [96.841579, 4.649426], [96.842881, 4.648281], [96.842434, 4.647592], [96.841434, 4.647821], [96.841388, 4.647327], [96.841434, 4.646887], [96.842912, 4.645758], [96.843434, 4.645511], [96.844691, 4.646024], [96.844833, 4.647281], [96.844086, 4.647933], [96.843956, 4.649281], [96.845238, 4.650477], [96.846434, 4.650524], [96.847631, 4.649477], [96.847809, 4.647655], [96.848432, 4.647279], [96.848214, 4.646281], [96.849113, 4.644959], [96.850434, 4.644211], [96.851035, 4.643281], [96.850991, 4.641838], [96.851445, 4.64127], [96.850434, 4.640413], [96.850434, 4.63873], [96.853434, 4.636335], [96.854936, 4.637779], [96.85708, 4.638281], [96.8568, 4.639914], [96.858434, 4.64119], [96.857854, 4.642281], [96.858147, 4.642568], [96.85987, 4.642717], [96.860639, 4.642076], [96.861473, 4.642281], [96.861434, 4.643721], [96.862434, 4.643403], [96.863434, 4.643772], [96.864106, 4.643281], [96.864122, 4.642281], [96.864434, 4.64215], [96.865007, 4.642708], [96.866913, 4.643281], [96.865966, 4.643812], [96.864815, 4.645661], [96.864171, 4.646018], [96.864165, 4.64655], [96.864943, 4.647281], [96.864757, 4.648604], [96.863434, 4.648709], [96.862861, 4.649708], [96.862007, 4.649708], [96.859434, 4.647061], [96.859043, 4.647889], [96.856327, 4.648174], [96.857135, 4.64858], [96.857135, 4.649982], [96.854322, 4.650281], [96.854434, 4.651374], [96.857261, 4.651454], [96.857434, 4.654353], [96.857574, 4.653421], [96.859479, 4.653326], [96.859567, 4.652414], [96.862304, 4.652411], [96.862391, 4.653323], [96.864308, 4.653406], [96.86437, 4.655281], [96.865298, 4.655417], [96.865387, 4.657328], [96.868281, 4.657434], [96.868374, 4.66234], [96.869252, 4.662463], [96.869372, 4.663343], [96.870243, 4.663472], [96.870368, 4.664346], [96.871232, 4.664483], [96.871216, 4.668062], [96.866434, 4.668084], [96.865756, 4.667958], [96.865434, 4.667141], [96.863434, 4.667125], [96.863204, 4.66805], [96.861221, 4.668068], [96.861678, 4.669281], [96.861434, 4.669524]]], "type": "Polygon"}, "type": "Feature"}], "type": "FeatureCollection"}