{"features": [{"properties": {"fill-opacity": 0.33, "fillColor": "#bf4040", "opacity": 0.33, "fill": "#bf4040", "fillOpacity": 0.33, "color": "#bf4040", "contour": 15.0, "metric": "time"}, "geometry": {"coordinates": [[[96.250944, 2.470586], [96.250106, 2.470505], [96.249997, 2.469614], [96.249101, 2.46951], [96.248995, 2.468616], [96.248094, 2.468516], [96.247944, 2.467596], [96.24107, 2.467541], [96.241009, 2.464667], [96.24008, 2.464531], [96.240018, 2.460667], [96.239099, 2.460512], [96.239021, 2.459667], [96.239101, 2.457824], [96.239997, 2.457721], [96.240107, 2.45683], [96.241029, 2.456667], [96.241038, 2.453667], [96.240145, 2.453465], [96.240013, 2.452598], [96.239155, 2.452456], [96.239017, 2.451594], [96.238171, 2.45144], [96.238101, 2.444667], [96.237301, 2.44431], [96.23707, 2.442541], [96.234767, 2.442491], [96.232944, 2.444306], [96.231944, 2.443324], [96.229944, 2.443206], [96.227882, 2.444729], [96.227694, 2.443667], [96.228648, 2.442371], [96.232944, 2.441972], [96.233455, 2.441178], [96.234195, 2.440918], [96.237944, 2.440858], [96.238563, 2.441048], [96.238944, 2.441848], [96.240944, 2.441858], [96.241389, 2.441113], [96.243105, 2.440828], [96.244492, 2.439215], [96.246193, 2.438917], [96.246944, 2.43809], [96.248267, 2.438344], [96.24829, 2.439013], [96.247565, 2.439667], [96.248944, 2.441108], [96.250944, 2.43947], [96.25168, 2.439931], [96.251917, 2.440667], [96.250308, 2.442032], [96.247944, 2.442226], [96.247191, 2.44142], [96.245944, 2.441378], [96.244486, 2.443209], [96.242811, 2.443534], [96.243632, 2.443979], [96.243839, 2.444772], [96.244598, 2.445013], [96.244771, 2.445667], [96.244598, 2.446321], [96.243843, 2.446567], [96.243681, 2.448405], [96.242826, 2.448667], [96.242849, 2.453667], [96.243759, 2.453852], [96.243851, 2.454667], [96.243759, 2.455483], [96.242856, 2.455667], [96.242775, 2.458499], [96.241863, 2.458667], [96.241874, 2.462667], [96.242809, 2.462802], [96.242902, 2.465709], [96.245944, 2.465735], [96.246085, 2.464808], [96.248802, 2.464809], [96.248896, 2.465715], [96.249797, 2.465814], [96.249894, 2.466717], [96.250793, 2.466818], [96.250892, 2.467719], [96.251785, 2.467826], [96.251782, 2.470505], [96.250944, 2.470586]]], "type": "Polygon"}, "type": "Feature"}], "type": "FeatureCollection"}