{"features": [{"properties": {"fill-opacity": 0.33, "fillColor": "#bf4040", "opacity": 0.33, "fill": "#bf4040", "fillOpacity": 0.33, "color": "#bf4040", "contour": 15.0, "metric": "time"}, "geometry": {"coordinates": [[[95.8731, 4.549819], [95.871552, 4.548445], [95.871232, 4.544313], [95.867566, 4.543979], [95.865313, 4.541232], [95.863694, 4.540851], [95.862485, 4.53906], [95.861046, 4.538499], [95.8611, 4.537445], [95.861346, 4.538199], [95.8631, 4.538023], [95.864842, 4.539703], [95.866545, 4.54], [95.8691, 4.54266], [95.870227, 4.542572], [95.870464, 4.54181], [95.872262, 4.541607], [95.872407, 4.539752], [95.873236, 4.539445], [95.873204, 4.533445], [95.873307, 4.532653], [95.874198, 4.532445], [95.874274, 4.528619], [95.875157, 4.528502], [95.875267, 4.527613], [95.877177, 4.527445], [95.876249, 4.527296], [95.876145, 4.5244], [95.875233, 4.524312], [95.8751, 4.523382], [95.873226, 4.523319], [95.873226, 4.520571], [95.874974, 4.520571], [95.8751, 4.521509], [95.87697, 4.521575], [95.877056, 4.522489], [95.877966, 4.522579], [95.878054, 4.523491], [95.87896, 4.523585], [95.879053, 4.524492], [95.880951, 4.524594], [95.881152, 4.525497], [95.881185, 4.523445], [95.88028, 4.523265], [95.880285, 4.52063], [95.881162, 4.520508], [95.881291, 4.519636], [95.882166, 4.519511], [95.882302, 4.518647], [95.884207, 4.518552], [95.883335, 4.51821], [95.883233, 4.514445], [95.882387, 4.514158], [95.882244, 4.513445], [95.882275, 4.510445], [95.882451, 4.509796], [95.884221, 4.509566], [95.88451, 4.507855], [95.88626, 4.506605], [95.886624, 4.504969], [95.887429, 4.504445], [95.887458, 4.502087], [95.885872, 4.501217], [95.886206, 4.500551], [95.8871, 4.500125], [95.887655, 4.50089], [95.889353, 4.501445], [95.889696, 4.503445], [95.888855, 4.504201], [95.888895, 4.50565], [95.890541, 4.506004], [95.8911, 4.506847], [95.89421, 4.507335], [95.894301, 4.507647], [95.8931, 4.510565], [95.892496, 4.509049], [95.890821, 4.509724], [95.890371, 4.508174], [95.8871, 4.508205], [95.886649, 4.509995], [95.885968, 4.510313], [95.885731, 4.511076], [95.883987, 4.511333], [95.88395, 4.512445], [95.884816, 4.512729], [95.884958, 4.513445], [95.884979, 4.516445], [95.88587, 4.516675], [95.88588, 4.519225], [95.884993, 4.519338], [95.884892, 4.520237], [95.884032, 4.520378], [95.883902, 4.521247], [95.883007, 4.521445], [95.883015, 4.523445], [95.883932, 4.523613], [95.884016, 4.524445], [95.883932, 4.525278], [95.88302, 4.525445], [95.882942, 4.527287], [95.879251, 4.527294], [95.8791, 4.526373], [95.878941, 4.529286], [95.8771, 4.529364], [95.876928, 4.530274], [95.876009, 4.530445], [95.875894, 4.534239], [95.87499, 4.534555], [95.874976, 4.537445], [95.875837, 4.537708], [95.875837, 4.539182], [95.874963, 4.539445], [95.874809, 4.541155], [95.873999, 4.541344], [95.873788, 4.542133], [95.872938, 4.542283], [95.872745, 4.547445], [95.873881, 4.549445], [95.8731, 4.549819]]], "type": "Polygon"}, "type": "Feature"}], "type": "FeatureCollection"}