{"features": [{"properties": {"fill-opacity": 0.33, "fillColor": "#bf4040", "opacity": 0.33, "fill": "#bf4040", "fillOpacity": 0.33, "color": "#bf4040", "contour": 15.0, "metric": "time"}, "geometry": {"coordinates": [[[96.101811, 4.897016], [96.099811, 4.896922], [96.099258, 4.896369], [96.099811, 4.895817], [96.101031, 4.895589], [96.101039, 4.893369], [96.101998, 4.892369], [96.101883, 4.887297], [96.099734, 4.887292], [96.099662, 4.888221], [96.098764, 4.888322], [96.098664, 4.890223], [96.097728, 4.890369], [96.097637, 4.892195], [96.095985, 4.892195], [96.095811, 4.891279], [96.095607, 4.892165], [96.09474, 4.892298], [96.095565, 4.892615], [96.095555, 4.895114], [96.094067, 4.895114], [96.093893, 4.894287], [96.093048, 4.894132], [96.093028, 4.890587], [96.093879, 4.890437], [96.094003, 4.889561], [96.095811, 4.88946], [96.095968, 4.888527], [96.09686, 4.888419], [96.096874, 4.885369], [96.095943, 4.885237], [96.095737, 4.884295], [96.093728, 4.884287], [96.093642, 4.8852], [96.090992, 4.885188], [96.090874, 4.884306], [96.090012, 4.884169], [96.089811, 4.883234], [96.089509, 4.884067], [96.088113, 4.884067], [96.0881, 4.881658], [96.0889, 4.881459], [96.089057, 4.880615], [96.089888, 4.880447], [96.090044, 4.879602], [96.091578, 4.879602], [96.091709, 4.882369], [96.092625, 4.882556], [96.092751, 4.883429], [96.092972, 4.882531], [96.094884, 4.882369], [96.094034, 4.882146], [96.093895, 4.880286], [96.092088, 4.880093], [96.091811, 4.879224], [96.090123, 4.879057], [96.089923, 4.877257], [96.08917, 4.877011], [96.08899, 4.876369], [96.089014, 4.874369], [96.087333, 4.872848], [96.087017, 4.871164], [96.086544, 4.871102], [96.085811, 4.871955], [96.084354, 4.871826], [96.084471, 4.87103], [96.085275, 4.870369], [96.085155, 4.868369], [96.085523, 4.868082], [96.086001, 4.86818], [96.086528, 4.869652], [96.087811, 4.869677], [96.088811, 4.86876], [96.089811, 4.868811], [96.090811, 4.869924], [96.092749, 4.870369], [96.08957, 4.871128], [96.089573, 4.872369], [96.090373, 4.872807], [96.090625, 4.875369], [96.091474, 4.875706], [96.091709, 4.877472], [96.093527, 4.877653], [96.093811, 4.8785], [96.095557, 4.878624], [96.095733, 4.879448], [96.096598, 4.879582], [96.096811, 4.880446], [96.097007, 4.879566], [96.097811, 4.879468], [96.100627, 4.879553], [96.100811, 4.880462], [96.10292, 4.880479], [96.103053, 4.879611], [96.105572, 4.879608], [96.105736, 4.882445], [96.107568, 4.882613], [96.107811, 4.883499], [96.108915, 4.883474], [96.109174, 4.882733], [96.109811, 4.882551], [96.111461, 4.88272], [96.111811, 4.88454], [96.112208, 4.883767], [96.11303, 4.883369], [96.112987, 4.882193], [96.112095, 4.881369], [96.112447, 4.878006], [96.112811, 4.877824], [96.113356, 4.878369], [96.113613, 4.880567], [96.115811, 4.880652], [96.117242, 4.879369], [96.117494, 4.877053], [96.117954, 4.876227], [96.118273, 4.878369], [96.119337, 4.879369], [96.117486, 4.881369], [96.118364, 4.882369], [96.118153, 4.883711], [96.116811, 4.884796], [96.115771, 4.884329], [96.115338, 4.884896], [96.113682, 4.88524], [96.113447, 4.886006], [96.111702, 4.88626], [96.111428, 4.887987], [96.110608, 4.888166], [96.110271, 4.89083], [96.106625, 4.891184], [96.106501, 4.893369], [96.105811, 4.89409], [96.104809, 4.894367], [96.10266, 4.894219], [96.102458, 4.896369], [96.101811, 4.897016]]], "type": "Polygon"}, "type": "Feature"}], "type": "FeatureCollection"}