{"features": [{"properties": {"fill-opacity": 0.33, "fillColor": "#bf4040", "opacity": 0.33, "fill": "#bf4040", "fillOpacity": 0.33, "color": "#bf4040", "contour": 15.0, "metric": "time"}, "geometry": {"coordinates": [[[96.294483, 5.129315], [96.29263, 5.127628], [96.291859, 5.1274], [96.291617, 5.124775], [96.290721, 5.124537], [96.290549, 5.117775], [96.28961, 5.117648], [96.28961, 5.115902], [96.292355, 5.115904], [96.292437, 5.117821], [96.293339, 5.117919], [96.293326, 5.120617], [96.292396, 5.120775], [96.292376, 5.122775], [96.293231, 5.123027], [96.293358, 5.1259], [96.294026, 5.126232], [96.295145, 5.127775], [96.294483, 5.129315]]], "type": "Polygon"}, "type": "Feature"}], "type": "FeatureCollection"}