{"features": [{"properties": {"fill-opacity": 0.33, "fillColor": "#bf4040", "opacity": 0.33, "fill": "#bf4040", "fillOpacity": 0.33, "color": "#bf4040", "contour": 15.0, "metric": "time"}, "geometry": {"coordinates": [[[96.950299, 3.643767], [96.94944, 3.643697], [96.949371, 3.640838], [96.948452, 3.640685], [96.948351, 3.639786], [96.946463, 3.639675], [96.946299, 3.638753], [96.944474, 3.638663], [96.944389, 3.636838], [96.94349, 3.636648], [96.943366, 3.634771], [96.941516, 3.634621], [96.941299, 3.633723], [96.938555, 3.633583], [96.938386, 3.632751], [96.937571, 3.632567], [96.937299, 3.629599], [96.936773, 3.634312], [96.936299, 3.63521], [96.934299, 3.634981], [96.934282, 3.634821], [96.935681, 3.634219], [96.935763, 3.633838], [96.935637, 3.631838], [96.934299, 3.630489], [96.931954, 3.630492], [96.930299, 3.6319], [96.929639, 3.631499], [96.930325, 3.629863], [96.930235, 3.628838], [96.930849, 3.627838], [96.930754, 3.626384], [96.930165, 3.625838], [96.930299, 3.625006], [96.930592, 3.625545], [96.931299, 3.625534], [96.931943, 3.626194], [96.933299, 3.626204], [96.933841, 3.62538], [96.935475, 3.625014], [96.935788, 3.624327], [96.93746, 3.623999], [96.939453, 3.621991], [96.937299, 3.619448], [96.936299, 3.619205], [96.935261, 3.619876], [96.9348, 3.619338], [96.934784, 3.618838], [96.935839, 3.617838], [96.935101, 3.616838], [96.935317, 3.615838], [96.937299, 3.613619], [96.940983, 3.613838], [96.941166, 3.614971], [96.943766, 3.615838], [96.942299, 3.616228], [96.941825, 3.616838], [96.94378, 3.617357], [96.94414, 3.618997], [96.946926, 3.619211], [96.947181, 3.619957], [96.94797, 3.620167], [96.948193, 3.620944], [96.948993, 3.621144], [96.949299, 3.621984], [96.949665, 3.621204], [96.950428, 3.620967], [96.950723, 3.620262], [96.952299, 3.619091], [96.953551, 3.61909], [96.954299, 3.618305], [96.956461, 3.618677], [96.954995, 3.619534], [96.954709, 3.620248], [96.953122, 3.620661], [96.951923, 3.622462], [96.951181, 3.62272], [96.95097, 3.623509], [96.949299, 3.623692], [96.949029, 3.624567], [96.948176, 3.624838], [96.950043, 3.625094], [96.950212, 3.626925], [96.952014, 3.627124], [96.9522, 3.627938], [96.952978, 3.628159], [96.953185, 3.628952], [96.95392, 3.629217], [96.955081, 3.631056], [96.956703, 3.631838], [96.955299, 3.633156], [96.954299, 3.632721], [96.95348, 3.631657], [96.950636, 3.631501], [96.950393, 3.628744], [96.948564, 3.628573], [96.948223, 3.627762], [96.948204, 3.630838], [96.949115, 3.631022], [96.949241, 3.632896], [96.95013, 3.633007], [96.950244, 3.633893], [96.951136, 3.634001], [96.951246, 3.634891], [96.952145, 3.634993], [96.952249, 3.635889], [96.953152, 3.635985], [96.95323, 3.638838], [96.954162, 3.638976], [96.954257, 3.640881], [96.955174, 3.640964], [96.955174, 3.642712], [96.951299, 3.64277], [96.951158, 3.643697], [96.950299, 3.643767]]], "type": "Polygon"}, "type": "Feature"}], "type": "FeatureCollection"}