{"features": [{"properties": {"fill-opacity": 0.33, "fillColor": "#bf4040", "opacity": 0.33, "fill": "#bf4040", "fillOpacity": 0.33, "color": "#bf4040", "contour": 15.0, "metric": "time"}, "geometry": {"coordinates": [[[96.887127, 5.082278], [96.886952, 5.081694], [96.885924, 5.081721], [96.884682, 5.080519], [96.884376, 5.074519], [96.885351, 5.073519], [96.885285, 5.068519], [96.885443, 5.067835], [96.886229, 5.067621], [96.88627, 5.066662], [96.88539, 5.066256], [96.885241, 5.062519], [96.884345, 5.062301], [96.884228, 5.059519], [96.88332, 5.059326], [96.883188, 5.057458], [96.882305, 5.05734], [96.882186, 5.05646], [96.881305, 5.056341], [96.881213, 5.054432], [96.880302, 5.054344], [96.880184, 5.053462], [96.879066, 5.053457], [96.878939, 5.054331], [96.877315, 5.054331], [96.877313, 5.051705], [96.882207, 5.051519], [96.881297, 5.051349], [96.881213, 5.049519], [96.880307, 5.049339], [96.880191, 5.047455], [96.879323, 5.047323], [96.879195, 5.046451], [96.878334, 5.046312], [96.878201, 5.044445], [96.877354, 5.044292], [96.877205, 5.04344], [96.876369, 5.043277], [96.876389, 5.039781], [96.877269, 5.039376], [96.876421, 5.039224], [96.876292, 5.036519], [96.875503, 5.036142], [96.875317, 5.034708], [96.87551, 5.033902], [96.876337, 5.033519], [96.876401, 5.030519], [96.875676, 5.02997], [96.875396, 5.02825], [96.874587, 5.027519], [96.874547, 5.026098], [96.873928, 5.025519], [96.874127, 5.024382], [96.874556, 5.02509], [96.875357, 5.025289], [96.875624, 5.026519], [96.876719, 5.027519], [96.876772, 5.028519], [96.877822, 5.029519], [96.877985, 5.038661], [96.878851, 5.038794], [96.878989, 5.039519], [96.878858, 5.04125], [96.878002, 5.041519], [96.878891, 5.041755], [96.879051, 5.042595], [96.879903, 5.042743], [96.880058, 5.044588], [96.880922, 5.044724], [96.881061, 5.045584], [96.881935, 5.045711], [96.882034, 5.047519], [96.882949, 5.047697], [96.883071, 5.049575], [96.884956, 5.049689], [96.885127, 5.050592], [96.885269, 5.049661], [96.887127, 5.049588], [96.887261, 5.048652], [96.888171, 5.048562], [96.888253, 5.046644], [96.890001, 5.046644], [96.889995, 5.050387], [96.889082, 5.050474], [96.888989, 5.051381], [96.88708, 5.051471], [96.886982, 5.052374], [96.88505, 5.052519], [96.885961, 5.052684], [96.886069, 5.053576], [96.886943, 5.053703], [96.886943, 5.055334], [96.886039, 5.055519], [96.886064, 5.056581], [96.886933, 5.056712], [96.88703, 5.057519], [96.886933, 5.058325], [96.88603, 5.058519], [96.886022, 5.060519], [96.886905, 5.060741], [96.88704, 5.064606], [96.888243, 5.064635], [96.888526, 5.062917], [96.889268, 5.062659], [96.889617, 5.061008], [96.891325, 5.059716], [96.891708, 5.0581], [96.893466, 5.056858], [96.894026, 5.055417], [96.89476, 5.055519], [96.894811, 5.057834], [96.89781, 5.058519], [96.897127, 5.058905], [96.895127, 5.059034], [96.894519, 5.05991], [96.89291, 5.060301], [96.890967, 5.062359], [96.890696, 5.064088], [96.889941, 5.064519], [96.889516, 5.068908], [96.888738, 5.068908], [96.888127, 5.067362], [96.887815, 5.069207], [96.886962, 5.069519], [96.886883, 5.074519], [96.885929, 5.075717], [96.887425, 5.075817], [96.888127, 5.075013], [96.890958, 5.075519], [96.889127, 5.075946], [96.887844, 5.077236], [96.887127, 5.082278]]], "type": "Polygon"}, "type": "Feature"}], "type": "FeatureCollection"}