{"features": [{"properties": {"fill-opacity": 0.33, "fillColor": "#bf4040", "opacity": 0.33, "fill": "#bf4040", "fillOpacity": 0.33, "color": "#bf4040", "contour": 15.0, "metric": "time"}, "geometry": {"coordinates": [[[97.672764, 2.901533], [97.671946, 2.901442], [97.671812, 2.898576], [97.668891, 2.898497], [97.668826, 2.892562], [97.665764, 2.892511], [97.665523, 2.893383], [97.664005, 2.893383], [97.663764, 2.892501], [97.662023, 2.892364], [97.661764, 2.891487], [97.660051, 2.891337], [97.659912, 2.890475], [97.657764, 2.89045], [97.657364, 2.891224], [97.65562, 2.89148], [97.654764, 2.892388], [97.653589, 2.892449], [97.653548, 2.892839], [97.654392, 2.893624], [97.654378, 2.894624], [97.653764, 2.895238], [97.652764, 2.894289], [97.651764, 2.895176], [97.649426, 2.895286], [97.648764, 2.896806], [97.647764, 2.896571], [97.646503, 2.895624], [97.648156, 2.895016], [97.650344, 2.892204], [97.651764, 2.891926], [97.652764, 2.890895], [97.653764, 2.890864], [97.654196, 2.890056], [97.655894, 2.889754], [97.656135, 2.888994], [97.659764, 2.888777], [97.660457, 2.888931], [97.660615, 2.889772], [97.661854, 2.889714], [97.66201, 2.881624], [97.663051, 2.880624], [97.663378, 2.875624], [97.663014, 2.874624], [97.663764, 2.874027], [97.664359, 2.874624], [97.664493, 2.881624], [97.663539, 2.882624], [97.663584, 2.885624], [97.664432, 2.885955], [97.664601, 2.887624], [97.664437, 2.888297], [97.663616, 2.888624], [97.663764, 2.890746], [97.671764, 2.890728], [97.671982, 2.889842], [97.674764, 2.889741], [97.675015, 2.888875], [97.677764, 2.888761], [97.67806, 2.88792], [97.681764, 2.887795], [97.682144, 2.887003], [97.682764, 2.886814], [97.686764, 2.886882], [97.687764, 2.885917], [97.689005, 2.885864], [97.691764, 2.88331], [97.693475, 2.883624], [97.692316, 2.884175], [97.690178, 2.887038], [97.688764, 2.887303], [97.687764, 2.888338], [97.683764, 2.888427], [97.683397, 2.889257], [97.679764, 2.889471], [97.679475, 2.890335], [97.67668, 2.89054], [97.676518, 2.891378], [97.673691, 2.89155], [97.673548, 2.892408], [97.672541, 2.892624], [97.673426, 2.892961], [97.67366, 2.893728], [97.674483, 2.893905], [97.674677, 2.894711], [97.676542, 2.894846], [97.676661, 2.896624], [97.676558, 2.897418], [97.675699, 2.897559], [97.675581, 2.89844], [97.674707, 2.898567], [97.674602, 2.899462], [97.673711, 2.89957], [97.673582, 2.901442], [97.672764, 2.901533]]], "type": "Polygon"}, "type": "Feature"}], "type": "FeatureCollection"}