{"features": [{"properties": {"fill-opacity": 0.33, "fillColor": "#bf4040", "opacity": 0.33, "fill": "#bf4040", "fillOpacity": 0.33, "color": "#bf4040", "contour": 15.0, "metric": "time"}, "geometry": {"coordinates": [[[97.230644, 2.232057], [97.229836, 2.231961], [97.229708, 2.231089], [97.228841, 2.230956], [97.228836, 2.226345], [97.229707, 2.226216], [97.229837, 2.225345], [97.230644, 2.225249], [97.23245, 2.225347], [97.232644, 2.226235], [97.232802, 2.22531], [97.233696, 2.225204], [97.232799, 2.224997], [97.232799, 2.223307], [97.234715, 2.223152], [97.233782, 2.223015], [97.233708, 2.219152], [97.23277, 2.219027], [97.23277, 2.217278], [97.235519, 2.217278], [97.235577, 2.221152], [97.236505, 2.221292], [97.236561, 2.227152], [97.236478, 2.227986], [97.234589, 2.228097], [97.234555, 2.229152], [97.236445, 2.229351], [97.236445, 2.230954], [97.232831, 2.230965], [97.232644, 2.230064], [97.232461, 2.230969], [97.231582, 2.23109], [97.231453, 2.231961], [97.230644, 2.232057]]], "type": "Polygon"}, "type": "Feature"}], "type": "FeatureCollection"}