{"features": [{"properties": {"fill-opacity": 0.33, "fillColor": "#bf4040", "opacity": 0.33, "fill": "#bf4040", "fillOpacity": 0.33, "color": "#bf4040", "contour": 15.0, "metric": "time"}, "geometry": {"coordinates": [[[97.949124, 2.535877], [97.948799, 2.53525], [97.948124, 2.535237], [97.946789, 2.53426], [97.94432, 2.531729], [97.943124, 2.532694], [97.941534, 2.532515], [97.940242, 2.530807], [97.939469, 2.53058], [97.939232, 2.529817], [97.937426, 2.529624], [97.937219, 2.52883], [97.936399, 2.52865], [97.936212, 2.527838], [97.935379, 2.52767], [97.935124, 2.526808], [97.934901, 2.527702], [97.933052, 2.527853], [97.932893, 2.528694], [97.932043, 2.528843], [97.931856, 2.529657], [97.931028, 2.529829], [97.930787, 2.532925], [97.929124, 2.534756], [97.92849, 2.532925], [97.929327, 2.532128], [97.92941, 2.528211], [97.930243, 2.527925], [97.928312, 2.527737], [97.928124, 2.526827], [97.927052, 2.526853], [97.926901, 2.527702], [97.926124, 2.527814], [97.921394, 2.527655], [97.921264, 2.526785], [97.918451, 2.526598], [97.918124, 2.525748], [97.914124, 2.525685], [97.912124, 2.523608], [97.909783, 2.523584], [97.908198, 2.524999], [97.907668, 2.524925], [97.907935, 2.523736], [97.910124, 2.521373], [97.911124, 2.522284], [97.913586, 2.522463], [97.915124, 2.524145], [97.919792, 2.524257], [97.920017, 2.525033], [97.921832, 2.525217], [97.921984, 2.526065], [97.925124, 2.526043], [97.925343, 2.525143], [97.926193, 2.524994], [97.926124, 2.522831], [97.919353, 2.522696], [97.919223, 2.517925], [97.919322, 2.517123], [97.923124, 2.517014], [97.923292, 2.516093], [97.925178, 2.515979], [97.925296, 2.513097], [97.929124, 2.513003], [97.929287, 2.511087], [97.930208, 2.510925], [97.929299, 2.51075], [97.929184, 2.509865], [97.928308, 2.509741], [97.928187, 2.508862], [97.927316, 2.508733], [97.927229, 2.505925], [97.927334, 2.505135], [97.929124, 2.505033], [97.929357, 2.504158], [97.930204, 2.504005], [97.930382, 2.502183], [97.931261, 2.501925], [97.931248, 2.497801], [97.930524, 2.497525], [97.930124, 2.4967], [97.928629, 2.496421], [97.928124, 2.495641], [97.927124, 2.495598], [97.926124, 2.496476], [97.924765, 2.496566], [97.923124, 2.497947], [97.922854, 2.497195], [97.923835, 2.495636], [97.925124, 2.495374], [97.926124, 2.494297], [97.929124, 2.494188], [97.930274, 2.495075], [97.93063, 2.49343], [97.931418, 2.492925], [97.929543, 2.490925], [97.930124, 2.487703], [97.930902, 2.487925], [97.930519, 2.488925], [97.930841, 2.490208], [97.934549, 2.493501], [97.936361, 2.495688], [97.936526, 2.496523], [97.937213, 2.497014], [97.936021, 2.497028], [97.933375, 2.494674], [97.931952, 2.494753], [97.931913, 2.495925], [97.932752, 2.496297], [97.932938, 2.496925], [97.932857, 2.503658], [97.932039, 2.50384], [97.931886, 2.505687], [97.931047, 2.505848], [97.930899, 2.5067], [97.929024, 2.506925], [97.929934, 2.507116], [97.930062, 2.507987], [97.930943, 2.508106], [97.931065, 2.508984], [97.931951, 2.509098], [97.93196, 2.513761], [97.931075, 2.513974], [97.934992, 2.514058], [97.935059, 2.515925], [97.935998, 2.516051], [97.935975, 2.524776], [97.931037, 2.524925], [97.931927, 2.525122], [97.932124, 2.526028], [97.933198, 2.525999], [97.93335, 2.525151], [97.93688, 2.525169], [97.93704, 2.526009], [97.937866, 2.526183], [97.938034, 2.527015], [97.938846, 2.527203], [97.939026, 2.528023], [97.9408, 2.528249], [97.941012, 2.529038], [97.941779, 2.52927], [97.942124, 2.530126], [97.945595, 2.530455], [97.949224, 2.534825], [97.949124, 2.535877]]], "type": "Polygon"}, "type": "Feature"}], "type": "FeatureCollection"}