{"features": [{"properties": {"fill-opacity": 0.33, "fillColor": "#bf4040", "opacity": 0.33, "fill": "#bf4040", "fillOpacity": 0.33, "color": "#bf4040", "contour": 15.0, "metric": "time"}, "geometry": {"coordinates": [[[96.134267, 4.329963], [96.133267, 4.330019], [96.131973, 4.329123], [96.131649, 4.326829], [96.130823, 4.326273], [96.130446, 4.32465], [96.129771, 4.324325], [96.129411, 4.322684], [96.127757, 4.321339], [96.127436, 4.31966], [96.125682, 4.318414], [96.125389, 4.316707], [96.123608, 4.316487], [96.123375, 4.315721], [96.122578, 4.315518], [96.122366, 4.31473], [96.121553, 4.314543], [96.121358, 4.313738], [96.119542, 4.313554], [96.119267, 4.312682], [96.118154, 4.312715], [96.117897, 4.313458], [96.117267, 4.313643], [96.115651, 4.313445], [96.115267, 4.312622], [96.114788, 4.313349], [96.113267, 4.313549], [96.112546, 4.312829], [96.113411, 4.311685], [96.111751, 4.311345], [96.111267, 4.310555], [96.110267, 4.312138], [96.108534, 4.309562], [96.106933, 4.309163], [96.106267, 4.308215], [96.104588, 4.307829], [96.107267, 4.307379], [96.108267, 4.308249], [96.110267, 4.308164], [96.111065, 4.309031], [96.112761, 4.309335], [96.113267, 4.310051], [96.115267, 4.310019], [96.115553, 4.307829], [96.116267, 4.307114], [96.116982, 4.307829], [96.117149, 4.309946], [96.118947, 4.310149], [96.119165, 4.310931], [96.124267, 4.310942], [96.124484, 4.310045], [96.12836, 4.309829], [96.128335, 4.306829], [96.127396, 4.3067], [96.127394, 4.303955], [96.129141, 4.303955], [96.129224, 4.304872], [96.130133, 4.304963], [96.130194, 4.307829], [96.131107, 4.307989], [96.13121, 4.308886], [96.133267, 4.308927], [96.13349, 4.307051], [96.136042, 4.307054], [96.136194, 4.307902], [96.137267, 4.307945], [96.137517, 4.307078], [96.142267, 4.306977], [96.142615, 4.306176], [96.14339, 4.305951], [96.143648, 4.305209], [96.145267, 4.304047], [96.146267, 4.305057], [96.148476, 4.305038], [96.149267, 4.304197], [96.150579, 4.30414], [96.150984, 4.301829], [96.151456, 4.30164], [96.151703, 4.304829], [96.152606, 4.305829], [96.151807, 4.306829], [96.152809, 4.307829], [96.151812, 4.308829], [96.153603, 4.310829], [96.153546, 4.312108], [96.152745, 4.313829], [96.153502, 4.314594], [96.153481, 4.315829], [96.153267, 4.315869], [96.152029, 4.315067], [96.150267, 4.313448], [96.14989, 4.313829], [96.149581, 4.316143], [96.148617, 4.317178], [96.147795, 4.317301], [96.147671, 4.315829], [96.146607, 4.314829], [96.14647, 4.312829], [96.145464, 4.312632], [96.145406, 4.31069], [96.144267, 4.311638], [96.142635, 4.311461], [96.142384, 4.310712], [96.141614, 4.310482], [96.141367, 4.308729], [96.14018, 4.308741], [96.140128, 4.309829], [96.140971, 4.310125], [96.141155, 4.311941], [96.14191, 4.312186], [96.143122, 4.313974], [96.145047, 4.313049], [96.145699, 4.313829], [96.144689, 4.315251], [96.142082, 4.315644], [96.141267, 4.316514], [96.138267, 4.316601], [96.13712, 4.315681], [96.137013, 4.316829], [96.135979, 4.317829], [96.135712, 4.319274], [96.134875, 4.319829], [96.134786, 4.321347], [96.131141, 4.321702], [96.131101, 4.322995], [96.13176, 4.323336], [96.132053, 4.325043], [96.132922, 4.325829], [96.132901, 4.328195], [96.134267, 4.329963]]], "type": "Polygon"}, "type": "Feature"}], "type": "FeatureCollection"}