{"features": [{"properties": {"fill-opacity": 0.33, "fillColor": "#bf4040", "opacity": 0.33, "fill": "#bf4040", "fillOpacity": 0.33, "color": "#bf4040", "contour": 15.0, "metric": "time"}, "geometry": {"coordinates": [[[95.622813, 5.519803], [95.622286, 5.519058], [95.621549, 5.518795], [95.621308, 5.517532], [95.621813, 5.517027], [95.622813, 5.516935], [95.622993, 5.516352], [95.621283, 5.516061], [95.618988, 5.513356], [95.617359, 5.512985], [95.617159, 5.512185], [95.615813, 5.512094], [95.614813, 5.510982], [95.612854, 5.510532], [95.615813, 5.51003], [95.616525, 5.51082], [95.617183, 5.510902], [95.617813, 5.509895], [95.619813, 5.511791], [95.620132, 5.508851], [95.620957, 5.508532], [95.620943, 5.506532], [95.620062, 5.506282], [95.619889, 5.504455], [95.619034, 5.50431], [95.618885, 5.503459], [95.618024, 5.503321], [95.617881, 5.502463], [95.617014, 5.50233], [95.616878, 5.501466], [95.616005, 5.501339], [95.615813, 5.500441], [95.615621, 5.50134], [95.613745, 5.501464], [95.613575, 5.503294], [95.61273, 5.50345], [95.612556, 5.504275], [95.611069, 5.504275], [95.610813, 5.503413], [95.608813, 5.50341], [95.608527, 5.505246], [95.606714, 5.505433], [95.607464, 5.50588], [95.607813, 5.506731], [95.609813, 5.506798], [95.610546, 5.507532], [95.60965, 5.508369], [95.609313, 5.510032], [95.608545, 5.510532], [95.608279, 5.511999], [95.606343, 5.512001], [95.606033, 5.509311], [95.604813, 5.509328], [95.603291, 5.51101], [95.601602, 5.511322], [95.60129, 5.513532], [95.600813, 5.514009], [95.598813, 5.512108], [95.5969, 5.513619], [95.596255, 5.513532], [95.596587, 5.512306], [95.598418, 5.510137], [95.600813, 5.509838], [95.602813, 5.507797], [95.604942, 5.507661], [95.604813, 5.507365], [95.602181, 5.507163], [95.602188, 5.504907], [95.602929, 5.504648], [95.603151, 5.50387], [95.604914, 5.503633], [95.605121, 5.502841], [95.6069, 5.502619], [95.607068, 5.501787], [95.607896, 5.501616], [95.608069, 5.500789], [95.608921, 5.500532], [95.608029, 5.500315], [95.607884, 5.49946], [95.607033, 5.499311], [95.606928, 5.497417], [95.60605, 5.497294], [95.605947, 5.494397], [95.605091, 5.494253], [95.604909, 5.493435], [95.604113, 5.493232], [95.603917, 5.492427], [95.60314, 5.492204], [95.602932, 5.490412], [95.602185, 5.490159], [95.601944, 5.4894], [95.601229, 5.489116], [95.601094, 5.48525], [95.600347, 5.484997], [95.600065, 5.483279], [95.598481, 5.481532], [95.598464, 5.480183], [95.598813, 5.479723], [95.600096, 5.480248], [95.600359, 5.481532], [95.60122, 5.482124], [95.601531, 5.484813], [95.602303, 5.485041], [95.602548, 5.485532], [95.602592, 5.487532], [95.603412, 5.487932], [95.603686, 5.488658], [95.604446, 5.488898], [95.604704, 5.49064], [95.605499, 5.490845], [95.605712, 5.491632], [95.606521, 5.491824], [95.606678, 5.493666], [95.607551, 5.493793], [95.607697, 5.496647], [95.60859, 5.496755], [95.60874, 5.497604], [95.611813, 5.497625], [95.611992, 5.496711], [95.612893, 5.496532], [95.612864, 5.49548], [95.611971, 5.495373], [95.611895, 5.493449], [95.610981, 5.493363], [95.610872, 5.491472], [95.609994, 5.49135], [95.609999, 5.488718], [95.611626, 5.488718], [95.611752, 5.489593], [95.612633, 5.489712], [95.61273, 5.492614], [95.613863, 5.492582], [95.613963, 5.491683], [95.615662, 5.491683], [95.615813, 5.492602], [95.61595, 5.491669], [95.618855, 5.491574], [95.618938, 5.490657], [95.621687, 5.490657], [95.621687, 5.492406], [95.62077, 5.492489], [95.620683, 5.493403], [95.618768, 5.493487], [95.618676, 5.494395], [95.617766, 5.494485], [95.61767, 5.495389], [95.615762, 5.495482], [95.615731, 5.496532], [95.617624, 5.49672], [95.61775, 5.498594], [95.619601, 5.498744], [95.619742, 5.501603], [95.620593, 5.501751], [95.620738, 5.502607], [95.621579, 5.502765], [95.62173, 5.504614], [95.622557, 5.504787], [95.622659, 5.509532], [95.622506, 5.510226], [95.62165, 5.510532], [95.621628, 5.512532], [95.621994, 5.512713], [95.622813, 5.51189], [95.623241, 5.512104], [95.62354, 5.514532], [95.625492, 5.516532], [95.62422, 5.517939], [95.623131, 5.518532], [95.622813, 5.519803]]], "type": "Polygon"}, "type": "Feature"}], "type": "FeatureCollection"}