{"features": [{"properties": {"fill-opacity": 0.33, "fillColor": "#bf4040", "opacity": 0.33, "fill": "#bf4040", "fillOpacity": 0.33, "color": "#bf4040", "contour": 15.0, "metric": "time"}, "geometry": {"coordinates": [[[96.951425, 4.718616], [96.949839, 4.717446], [96.949425, 4.716684], [96.948705, 4.71814], [96.947336, 4.717949], [96.947766, 4.717201], [96.947861, 4.715295], [96.949425, 4.715036], [96.949425, 4.714693], [96.947229, 4.714664], [96.946924, 4.715359], [96.94558, 4.716015], [96.944641, 4.715644], [96.944629, 4.71486], [96.946532, 4.712967], [96.946425, 4.711789], [96.942425, 4.711789], [96.942265, 4.7127], [96.940506, 4.712778], [96.939591, 4.712694], [96.939425, 4.711757], [96.939184, 4.712619], [96.936295, 4.71273], [96.933425, 4.71557], [96.932348, 4.71486], [96.93482, 4.711255], [96.937425, 4.711004], [96.937659, 4.710094], [96.938425, 4.709977], [96.948271, 4.710014], [96.948425, 4.711951], [96.955425, 4.712157], [96.956425, 4.711322], [96.956783, 4.711501], [96.957009, 4.71286], [96.956425, 4.713443], [96.954425, 4.713628], [96.954007, 4.714442], [96.953425, 4.714651], [96.952842, 4.714442], [96.952539, 4.713745], [96.951342, 4.713777], [96.951223, 4.71586], [96.952195, 4.71686], [96.952181, 4.71786], [96.951425, 4.718616]]], "type": "Polygon"}, "type": "Feature"}], "type": "FeatureCollection"}