{"features": [{"properties": {"fill-opacity": 0.33, "fillColor": "#bf4040", "opacity": 0.33, "fill": "#bf4040", "fillOpacity": 0.33, "color": "#bf4040", "contour": 15.0, "metric": "time"}, "geometry": {"coordinates": [[[96.509796, 4.364992], [96.508796, 4.365293], [96.508428, 4.364139], [96.50834, 4.36277], [96.509199, 4.36177], [96.509098, 4.35977], [96.50828, 4.359286], [96.508025, 4.358541], [96.5082, 4.356174], [96.509964, 4.35477], [96.509104, 4.354462], [96.508933, 4.35177], [96.508054, 4.351512], [96.507925, 4.35077], [96.508022, 4.346996], [96.508903, 4.34677], [96.508968, 4.339942], [96.509852, 4.339826], [96.509959, 4.338933], [96.510849, 4.338823], [96.510952, 4.337926], [96.511847, 4.337821], [96.511945, 4.336918], [96.512845, 4.336818], [96.512937, 4.334911], [96.513842, 4.334816], [96.513932, 4.333906], [96.51484, 4.333814], [96.514926, 4.332899], [96.515859, 4.33277], [96.514927, 4.332639], [96.514841, 4.330725], [96.513935, 4.330631], [96.513845, 4.327721], [96.512946, 4.32762], [96.512796, 4.326692], [96.510957, 4.326609], [96.510852, 4.324714], [96.509967, 4.324599], [96.509854, 4.323712], [96.508975, 4.323591], [96.508859, 4.321707], [96.507993, 4.321573], [96.507924, 4.31377], [96.507072, 4.313494], [96.506949, 4.31077], [96.506126, 4.310441], [96.505927, 4.307639], [96.504288, 4.306278], [96.503976, 4.30459], [96.499796, 4.304239], [96.498796, 4.303017], [96.497908, 4.30277], [96.499405, 4.302379], [96.501796, 4.302153], [96.502796, 4.303087], [96.504796, 4.303047], [96.505519, 4.30377], [96.505638, 4.304928], [96.507394, 4.306172], [96.507624, 4.30877], [96.508472, 4.309094], [96.508634, 4.30977], [96.508653, 4.31177], [96.509527, 4.312039], [96.509693, 4.31877], [96.510598, 4.318968], [96.510705, 4.32177], [96.511623, 4.321943], [96.511739, 4.322827], [96.512629, 4.322937], [96.512743, 4.324823], [96.514643, 4.324923], [96.514746, 4.32582], [96.515648, 4.325918], [96.515726, 4.32877], [96.516661, 4.328905], [96.516753, 4.330813], [96.517668, 4.330898], [96.517668, 4.334641], [96.516753, 4.334727], [96.516664, 4.335637], [96.515751, 4.335725], [96.515659, 4.336632], [96.514749, 4.336723], [96.51465, 4.338623], [96.513746, 4.33872], [96.513643, 4.339617], [96.512744, 4.339718], [96.512637, 4.340611], [96.511742, 4.340716], [96.511628, 4.341602], [96.510708, 4.34177], [96.510684, 4.34777], [96.510572, 4.348546], [96.509678, 4.34877], [96.509673, 4.34977], [96.510526, 4.35004], [96.510652, 4.35277], [96.511484, 4.353082], [96.51164, 4.35377], [96.511617, 4.35577], [96.511438, 4.356412], [96.510673, 4.356647], [96.510406, 4.35738], [96.509578, 4.35777], [96.51051, 4.35877], [96.510323, 4.36277], [96.509796, 4.364992]]], "type": "Polygon"}, "type": "Feature"}], "type": "FeatureCollection"}