{"features": [{"properties": {"fill-opacity": 0.33, "fillColor": "#bf4040", "opacity": 0.33, "fill": "#bf4040", "fillOpacity": 0.33, "color": "#bf4040", "contour": 15.0, "metric": "time"}, "geometry": {"coordinates": [[[95.675789, 5.236367], [95.675299, 5.234032], [95.676054, 5.233297], [95.676054, 5.232032], [95.67519, 5.23163], [95.6749, 5.22992], [95.674104, 5.229716], [95.673883, 5.228938], [95.673071, 5.22875], [95.673071, 5.227314], [95.675866, 5.227109], [95.676006, 5.226249], [95.676858, 5.226101], [95.676986, 5.225229], [95.677849, 5.225092], [95.677934, 5.222177], [95.678836, 5.222079], [95.678927, 5.22117], [95.679833, 5.221076], [95.67992, 5.220163], [95.680831, 5.220074], [95.680915, 5.219158], [95.682662, 5.219158], [95.682662, 5.221905], [95.681745, 5.221988], [95.681655, 5.222898], [95.680717, 5.223032], [95.68061, 5.226852], [95.678724, 5.226967], [95.678582, 5.227824], [95.677715, 5.227958], [95.677552, 5.228795], [95.676623, 5.229032], [95.676655, 5.230166], [95.67756, 5.231032], [95.67743, 5.233673], [95.677179, 5.234422], [95.676235, 5.235032], [95.675789, 5.236367]]], "type": "Polygon"}, "type": "Feature"}], "type": "FeatureCollection"}