{"features": [{"properties": {"fill-opacity": 0.33, "fillColor": "#bf4040", "opacity": 0.33, "fill": "#bf4040", "fillOpacity": 0.33, "color": "#bf4040", "contour": 15.0, "metric": "time"}, "geometry": {"coordinates": [[[97.736274, 4.764657], [97.73557, 4.764509], [97.735363, 4.761716], [97.732551, 4.761528], [97.732362, 4.760717], [97.731531, 4.760548], [97.731355, 4.759724], [97.729504, 4.759576], [97.729377, 4.756806], [97.728474, 4.756606], [97.728336, 4.754744], [97.727458, 4.754621], [97.727336, 4.752743], [97.725474, 4.752605], [97.725274, 4.751694], [97.725031, 4.752563], [97.722138, 4.752671], [97.721977, 4.75451], [97.721274, 4.754658], [97.719574, 4.754505], [97.719574, 4.753106], [97.72037, 4.752903], [97.720551, 4.752083], [97.721409, 4.751941], [97.721537, 4.751069], [97.723354, 4.750886], [97.723508, 4.750041], [97.724349, 4.749881], [97.724498, 4.74903], [97.725274, 4.748918], [97.727057, 4.749022], [97.727274, 4.749908], [97.727469, 4.749001], [97.731091, 4.748988], [97.731214, 4.749865], [97.7321, 4.749979], [97.732274, 4.750888], [97.734274, 4.750879], [97.734416, 4.749948], [97.736131, 4.749948], [97.736227, 4.750853], [97.739141, 4.750938], [97.739316, 4.751848], [97.739399, 4.750931], [97.740316, 4.750848], [97.740402, 4.749934], [97.741343, 4.749806], [97.740416, 4.749663], [97.740421, 4.746953], [97.741323, 4.746855], [97.741426, 4.745958], [97.742352, 4.745806], [97.741439, 4.74564], [97.74133, 4.744749], [97.740448, 4.744631], [97.740333, 4.743746], [97.739454, 4.743625], [97.739472, 4.740004], [97.740342, 4.739874], [97.740486, 4.739018], [97.741346, 4.738878], [97.741497, 4.738029], [97.742391, 4.737806], [97.742547, 4.73408], [97.743367, 4.733899], [97.743566, 4.733098], [97.746386, 4.732918], [97.746689, 4.730221], [97.747421, 4.729953], [97.747733, 4.729265], [97.750274, 4.729083], [97.751274, 4.728124], [97.752592, 4.729124], [97.75297, 4.728806], [97.752927, 4.727806], [97.753274, 4.727668], [97.755274, 4.729605], [97.755957, 4.729806], [97.753274, 4.730328], [97.752274, 4.731401], [97.751274, 4.730496], [97.750719, 4.732251], [97.750274, 4.732474], [97.749274, 4.73245], [97.748274, 4.731581], [97.747936, 4.734468], [97.745274, 4.734655], [97.744996, 4.735528], [97.744183, 4.735715], [97.744046, 4.739578], [97.7432, 4.739732], [97.743059, 4.740591], [97.742203, 4.740736], [97.742069, 4.741601], [97.741178, 4.741806], [97.742096, 4.741983], [97.742216, 4.742863], [97.743106, 4.742973], [97.743219, 4.743861], [97.744112, 4.743967], [97.744119, 4.747651], [97.743226, 4.747853], [97.74513, 4.747949], [97.745226, 4.748853], [97.746128, 4.748951], [97.746274, 4.749879], [97.749118, 4.749961], [97.74922, 4.750859], [97.750111, 4.750968], [97.750218, 4.751861], [97.751103, 4.751976], [97.751215, 4.752864], [97.752092, 4.752988], [97.752274, 4.753901], [97.752472, 4.753004], [97.755274, 4.752913], [97.756059, 4.75302], [97.7562, 4.753879], [97.757046, 4.754034], [97.757274, 4.754926], [97.757531, 4.754063], [97.760992, 4.754087], [97.761175, 4.754904], [97.763935, 4.755144], [97.764155, 4.755925], [97.765865, 4.756214], [97.766274, 4.757031], [97.767455, 4.756987], [97.768274, 4.756106], [97.77054, 4.756073], [97.773274, 4.753651], [97.773925, 4.753806], [97.773544, 4.754806], [97.770782, 4.757806], [97.770516, 4.759049], [97.769125, 4.759954], [97.768674, 4.758405], [97.765274, 4.758589], [97.764706, 4.758373], [97.764409, 4.75767], [97.762628, 4.757451], [97.762274, 4.756647], [97.759574, 4.756505], [97.759274, 4.755674], [97.759025, 4.756557], [97.756274, 4.756687], [97.755511, 4.756568], [97.755349, 4.75573], [97.75449, 4.755589], [97.754274, 4.754703], [97.754077, 4.755609], [97.750457, 4.755622], [97.750333, 4.754746], [97.749448, 4.754631], [97.74933, 4.753749], [97.74844, 4.753639], [97.748328, 4.752751], [97.747434, 4.752645], [97.747274, 4.75173], [97.747124, 4.752656], [97.746274, 4.752731], [97.745423, 4.752656], [97.745274, 4.751734], [97.742274, 4.75174], [97.742146, 4.752678], [97.741231, 4.752763], [97.741146, 4.753678], [97.737404, 4.753675], [97.737274, 4.752739], [97.734274, 4.752732], [97.735112, 4.752967], [97.735219, 4.753861], [97.736106, 4.753973], [97.7361, 4.756632], [97.735171, 4.756806], [97.736057, 4.757022], [97.736196, 4.758883], [97.737028, 4.759052], [97.737125, 4.763806], [97.736977, 4.764509], [97.736274, 4.764657]]], "type": "Polygon"}, "type": "Feature"}], "type": "FeatureCollection"}