{"features": [{"properties": {"fill-opacity": 0.33, "fillColor": "#bf4040", "opacity": 0.33, "fill": "#bf4040", "fillOpacity": 0.33, "color": "#bf4040", "contour": 15.0, "metric": "time"}, "geometry": {"coordinates": [[[95.89029, 5.455923], [95.88929, 5.455753], [95.88829, 5.45445], [95.88729, 5.455045], [95.88629, 5.454941], [95.886871, 5.454507], [95.886861, 5.453926], [95.885714, 5.452503], [95.885558, 5.450926], [95.883704, 5.449512], [95.883416, 5.4488], [95.87729, 5.448665], [95.87629, 5.447622], [95.87429, 5.44752], [95.87329, 5.446448], [95.870637, 5.445926], [95.87429, 5.445364], [95.87529, 5.446268], [95.87729, 5.446207], [95.87829, 5.447159], [95.881408, 5.447044], [95.881637, 5.444273], [95.883385, 5.444021], [95.883557, 5.442193], [95.884412, 5.441926], [95.883548, 5.441668], [95.883548, 5.440184], [95.884408, 5.439926], [95.883486, 5.43973], [95.883381, 5.437835], [95.882231, 5.437867], [95.8821, 5.439736], [95.88029, 5.43983], [95.880088, 5.440724], [95.87929, 5.440825], [95.87729, 5.440818], [95.875169, 5.439805], [95.874202, 5.439838], [95.874002, 5.440637], [95.87329, 5.440782], [95.872382, 5.439834], [95.871566, 5.43965], [95.871386, 5.43883], [95.870596, 5.43862], [95.870443, 5.437926], [95.870596, 5.437232], [95.87229, 5.437067], [95.873009, 5.437207], [95.87329, 5.438056], [95.877058, 5.438158], [95.877215, 5.439001], [95.87829, 5.43903], [95.878489, 5.438124], [95.880353, 5.437988], [95.879467, 5.437749], [95.879467, 5.436103], [95.880348, 5.435984], [95.880453, 5.434089], [95.881343, 5.433873], [95.87946, 5.433756], [95.87929, 5.432837], [95.877475, 5.432741], [95.877353, 5.431863], [95.876483, 5.431733], [95.876356, 5.43086], [95.875492, 5.430724], [95.87529, 5.429819], [95.87129, 5.429796], [95.871011, 5.430647], [95.87029, 5.430786], [95.86629, 5.43075], [95.865642, 5.430574], [95.865466, 5.429926], [95.865642, 5.429278], [95.86929, 5.429071], [95.869562, 5.428198], [95.87229, 5.428048], [95.872524, 5.42716], [95.87429, 5.42704], [95.875061, 5.427155], [95.87529, 5.428033], [95.877081, 5.428135], [95.877223, 5.428994], [95.878092, 5.429124], [95.878226, 5.42999], [95.879102, 5.430114], [95.879229, 5.430987], [95.881117, 5.431099], [95.881343, 5.431979], [95.881342, 5.429874], [95.879453, 5.429763], [95.879345, 5.428871], [95.878459, 5.428757], [95.878348, 5.427868], [95.877468, 5.427748], [95.877471, 5.425107], [95.87911, 5.425107], [95.879231, 5.425985], [95.880118, 5.426098], [95.88029, 5.427008], [95.882343, 5.426979], [95.88235, 5.424867], [95.881477, 5.424739], [95.881388, 5.423828], [95.879508, 5.423708], [95.879508, 5.422144], [95.882085, 5.422131], [95.882192, 5.423024], [95.883352, 5.422988], [95.883501, 5.421136], [95.884402, 5.420926], [95.884538, 5.418174], [95.885375, 5.418011], [95.885554, 5.41719], [95.886381, 5.417017], [95.886438, 5.415926], [95.88429, 5.415689], [95.88329, 5.416624], [95.88029, 5.416564], [95.880073, 5.415708], [95.88129, 5.415404], [95.88229, 5.414296], [95.88429, 5.414163], [95.884718, 5.413354], [95.88529, 5.41314], [95.88629, 5.414105], [95.888402, 5.414037], [95.888643, 5.413279], [95.89029, 5.412272], [95.891512, 5.412148], [95.892562, 5.411198], [95.892668, 5.410548], [95.891379, 5.409926], [95.891838, 5.409474], [95.89529, 5.408576], [95.895426, 5.409926], [95.892094, 5.413926], [95.89329, 5.415161], [95.893662, 5.414926], [95.893923, 5.413559], [95.894576, 5.41364], [95.894991, 5.417926], [95.896727, 5.41849], [95.897063, 5.421153], [95.897853, 5.421363], [95.898072, 5.421926], [95.898076, 5.422926], [95.897862, 5.423498], [95.897159, 5.423795], [95.897114, 5.42475], [95.897976, 5.42524], [95.898193, 5.427023], [95.898991, 5.427225], [95.89929, 5.428084], [95.899668, 5.427304], [95.90129, 5.426159], [95.903047, 5.427926], [95.902816, 5.430452], [95.90109, 5.430926], [95.901004, 5.435926], [95.900088, 5.436926], [95.90087, 5.437346], [95.90129, 5.438158], [95.90229, 5.438191], [95.902562, 5.439926], [95.900833, 5.440468], [95.899891, 5.441527], [95.89929, 5.442785], [95.898596, 5.443232], [95.898304, 5.444939], [95.897593, 5.445229], [95.897431, 5.446067], [95.896751, 5.446386], [95.896536, 5.447171], [95.894903, 5.447539], [95.89429, 5.448663], [95.892156, 5.448792], [95.891806, 5.450442], [95.891017, 5.450926], [95.890728, 5.452364], [95.889846, 5.452926], [95.889853, 5.454363], [95.890719, 5.454926], [95.89029, 5.455923]]], "type": "Polygon"}, "type": "Feature"}], "type": "FeatureCollection"}