{"features": [{"properties": {"fill-opacity": 0.33, "fillColor": "#bf4040", "opacity": 0.33, "fill": "#bf4040", "fillOpacity": 0.33, "color": "#bf4040", "contour": 15.0, "metric": "time"}, "geometry": {"coordinates": [[[95.914024, 2.82076], [95.913552, 2.820031], [95.912307, 2.819558], [95.913691, 2.817225], [95.915278, 2.816811], [95.918474, 2.813007], [95.919166, 2.8127], [95.919425, 2.811958], [95.920152, 2.811686], [95.920385, 2.810919], [95.92114, 2.810674], [95.921353, 2.809887], [95.922131, 2.809665], [95.922334, 2.808868], [95.924118, 2.808652], [95.924296, 2.80783], [95.925112, 2.807646], [95.925277, 2.806811], [95.926107, 2.80664], [95.926261, 2.805795], [95.927101, 2.805635], [95.927249, 2.804783], [95.930092, 2.804626], [95.930221, 2.803755], [95.931118, 2.803558], [95.931114, 2.802558], [95.930195, 2.802388], [95.930108, 2.801475], [95.928185, 2.801398], [95.928024, 2.800481], [95.921155, 2.800428], [95.921024, 2.799495], [95.91998, 2.799514], [95.919888, 2.800422], [95.915024, 2.800482], [95.914865, 2.801399], [95.91394, 2.801558], [95.913851, 2.803385], [95.912024, 2.803472], [95.911843, 2.804376], [95.910961, 2.804495], [95.91083, 2.805363], [95.909024, 2.805457], [95.908809, 2.806342], [95.906949, 2.806483], [95.906793, 2.807326], [95.905901, 2.807558], [95.905762, 2.809296], [95.904934, 2.809468], [95.904745, 2.810279], [95.902919, 2.810453], [95.902663, 2.812197], [95.9019, 2.812434], [95.900583, 2.814117], [95.896781, 2.814315], [95.895541, 2.815558], [95.895278, 2.816812], [95.894024, 2.817622], [95.893278, 2.817558], [95.893831, 2.817365], [95.893681, 2.816558], [95.894409, 2.815942], [95.894666, 2.8142], [95.896569, 2.812102], [95.897024, 2.811875], [95.898024, 2.812815], [95.89917, 2.812704], [95.900386, 2.81092], [95.901141, 2.810675], [95.901344, 2.808878], [95.903024, 2.808709], [95.9033, 2.807834], [95.904112, 2.807645], [95.904267, 2.8058], [95.905103, 2.805636], [95.905254, 2.804788], [95.907024, 2.804667], [95.907234, 2.803768], [95.90909, 2.803624], [95.909216, 2.80275], [95.910086, 2.80262], [95.910205, 2.801739], [95.912082, 2.801615], [95.912187, 2.799721], [95.913078, 2.799612], [95.913182, 2.798716], [95.916024, 2.798632], [95.91617, 2.797704], [95.917879, 2.797704], [95.918024, 2.798628], [95.918159, 2.797692], [95.924889, 2.797694], [95.925024, 2.798628], [95.929865, 2.798718], [95.929971, 2.799612], [95.93086, 2.799723], [95.930941, 2.800642], [95.932847, 2.800736], [95.93283, 2.805364], [95.931958, 2.805492], [95.931819, 2.806353], [95.92895, 2.806484], [95.928793, 2.807327], [95.927945, 2.807479], [95.927774, 2.808308], [95.926939, 2.808473], [95.926759, 2.809293], [95.925934, 2.809467], [95.925742, 2.810276], [95.923923, 2.810456], [95.923706, 2.811239], [95.922913, 2.811447], [95.92267, 2.812203], [95.921902, 2.812436], [95.921638, 2.813172], [95.920889, 2.813423], [95.920593, 2.814127], [95.919874, 2.814408], [95.916429, 2.817963], [95.91471, 2.818244], [95.914024, 2.82076]]], "type": "Polygon"}, "type": "Feature"}], "type": "FeatureCollection"}