{"features": [{"properties": {"fill-opacity": 0.33, "fillColor": "#bf4040", "opacity": 0.33, "fill": "#bf4040", "fillOpacity": 0.33, "color": "#bf4040", "contour": 15.0, "metric": "time"}, "geometry": {"coordinates": [[[96.733648, 4.519571], [96.732648, 4.519556], [96.731648, 4.518428], [96.730325, 4.51824], [96.729648, 4.516565], [96.727507, 4.518059], [96.727006, 4.51556], [96.726648, 4.515312], [96.725259, 4.515918], [96.725252, 4.514918], [96.731648, 4.514193], [96.73306, 4.512331], [96.733778, 4.512048], [96.734005, 4.510275], [96.735648, 4.510086], [96.735958, 4.509229], [96.736648, 4.509073], [96.737337, 4.509229], [96.737648, 4.510061], [96.737735, 4.508831], [96.734476, 4.508747], [96.734291, 4.509562], [96.7325, 4.509771], [96.73206, 4.51133], [96.730648, 4.512078], [96.729729, 4.511837], [96.729848, 4.510918], [96.730887, 4.510158], [96.730805, 4.509761], [96.728648, 4.509635], [96.727648, 4.51056], [96.726648, 4.510547], [96.725648, 4.509451], [96.723916, 4.508918], [96.72346, 4.507918], [96.724648, 4.507742], [96.725648, 4.508385], [96.727849, 4.50812], [96.727878, 4.507687], [96.727051, 4.506918], [96.727067, 4.505918], [96.728648, 4.504441], [96.729125, 4.504918], [96.729298, 4.506918], [96.730477, 4.508089], [96.733819, 4.508089], [96.733778, 4.506788], [96.733068, 4.506498], [96.731912, 4.504918], [96.731961, 4.502918], [96.733032, 4.501918], [96.733509, 4.499779], [96.734048, 4.500518], [96.734429, 4.503136], [96.736165, 4.503401], [96.737521, 4.505045], [96.738304, 4.505262], [96.738554, 4.507011], [96.739648, 4.507041], [96.738809, 4.506757], [96.738696, 4.50487], [96.737788, 4.504778], [96.737773, 4.499044], [96.739522, 4.499044], [96.739605, 4.499961], [96.740518, 4.500048], [96.740648, 4.501998], [96.740813, 4.501083], [96.743648, 4.501005], [96.74383, 4.5001], [96.745712, 4.499983], [96.745847, 4.499117], [96.748441, 4.499125], [96.748521, 4.504918], [96.748395, 4.505665], [96.747513, 4.505918], [96.747498, 4.507918], [96.747349, 4.50862], [96.746558, 4.508829], [96.746648, 4.510042], [96.747783, 4.510054], [96.747931, 4.509201], [96.749756, 4.509027], [96.748844, 4.507918], [96.74908, 4.50635], [96.749648, 4.506134], [96.751262, 4.507304], [96.751538, 4.510027], [96.752648, 4.510098], [96.753073, 4.509343], [96.754804, 4.509074], [96.755141, 4.508412], [96.755913, 4.508183], [96.756127, 4.504918], [96.756648, 4.504397], [96.757116, 4.50445], [96.75735, 4.505215], [96.75902, 4.505546], [96.761101, 4.507918], [96.760648, 4.508496], [96.759041, 4.507524], [96.758392, 4.507663], [96.758169, 4.509918], [96.759031, 4.510918], [96.758648, 4.51258], [96.758084, 4.511482], [96.75737, 4.511196], [96.757054, 4.508918], [96.756648, 4.508632], [96.756382, 4.508653], [96.756165, 4.510435], [96.754509, 4.510779], [96.754254, 4.511524], [96.749499, 4.51177], [96.749361, 4.512632], [96.748648, 4.512775], [96.74693, 4.512636], [96.746648, 4.511794], [96.743899, 4.511667], [96.743648, 4.510785], [96.743483, 4.514918], [96.743318, 4.515589], [96.742648, 4.515753], [96.741977, 4.515589], [96.741812, 4.514918], [96.741525, 4.510795], [96.741384, 4.512654], [96.740507, 4.512918], [96.740347, 4.514617], [96.739544, 4.514815], [96.739324, 4.515595], [96.73847, 4.515918], [96.738231, 4.518501], [96.734648, 4.518659], [96.733648, 4.519571]]], "type": "Polygon"}, "type": "Feature"}], "type": "FeatureCollection"}