{"features": [{"properties": {"fill-opacity": 0.33, "fillColor": "#bf4040", "opacity": 0.33, "fill": "#bf4040", "fillOpacity": 0.33, "color": "#bf4040", "contour": 15.0, "metric": "time"}, "geometry": {"coordinates": [[[98.002451, 4.352127], [97.999999, 4.351738], [98.001836, 4.351123], [98.003451, 4.349128], [98.010574, 4.348861], [98.010807, 4.348094], [98.011562, 4.347849], [98.011766, 4.347053], [98.012603, 4.34689], [98.012574, 4.343738], [98.000451, 4.343443], [97.999451, 4.344385], [97.998159, 4.344446], [97.997565, 4.346852], [97.996451, 4.347041], [97.997003, 4.342738], [97.997451, 4.342179], [98.001451, 4.341997], [98.001923, 4.34121], [98.002679, 4.340966], [98.004007, 4.341181], [98.004451, 4.341935], [98.012451, 4.341862], [98.012699, 4.340986], [98.013451, 4.340862], [98.014202, 4.340986], [98.014451, 4.341851], [98.015451, 4.341846], [98.015661, 4.340948], [98.016555, 4.340842], [98.018242, 4.340946], [98.018451, 4.341835], [98.021451, 4.341825], [98.021625, 4.340912], [98.024451, 4.340817], [98.024606, 4.339893], [98.026505, 4.339792], [98.026622, 4.337909], [98.027509, 4.337796], [98.027629, 4.336916], [98.030451, 4.336834], [98.030661, 4.335948], [98.032524, 4.335811], [98.032676, 4.334963], [98.034451, 4.334857], [98.034715, 4.334002], [98.035591, 4.333738], [98.03481, 4.333379], [98.034451, 4.332546], [98.032872, 4.332316], [98.031451, 4.33047], [98.029451, 4.330394], [98.027451, 4.328237], [98.024878, 4.327738], [98.028451, 4.327178], [98.030231, 4.328957], [98.032451, 4.328993], [98.034003, 4.330185], [98.034312, 4.330876], [98.036086, 4.331103], [98.036451, 4.331903], [98.03681, 4.331097], [98.039451, 4.330929], [98.040068, 4.33112], [98.040451, 4.331921], [98.041657, 4.331944], [98.040719, 4.330738], [98.040823, 4.328738], [98.041885, 4.327738], [98.042451, 4.325213], [98.043296, 4.324738], [98.045261, 4.324548], [98.045451, 4.323846], [98.046037, 4.325152], [98.046987, 4.325738], [98.045089, 4.327738], [98.045451, 4.328156], [98.046451, 4.327766], [98.047591, 4.329738], [98.046131, 4.330418], [98.046119, 4.331069], [98.046448, 4.331741], [98.047273, 4.331915], [98.048807, 4.333381], [98.049568, 4.33462], [98.04962, 4.335569], [98.050961, 4.335738], [98.049451, 4.336057], [98.047748, 4.33444], [98.046451, 4.334364], [98.045451, 4.333445], [98.044451, 4.333467], [98.043451, 4.332503], [98.042245, 4.332532], [98.042057, 4.333345], [98.041326, 4.333613], [98.04109, 4.334377], [98.037451, 4.334591], [98.03718, 4.335467], [98.036364, 4.335651], [98.036202, 4.336489], [98.034451, 4.336619], [98.034227, 4.337514], [98.032451, 4.337632], [98.03225, 4.338537], [98.029391, 4.338678], [98.029276, 4.339563], [98.028367, 4.339738], [98.028288, 4.341575], [98.026399, 4.341686], [98.026381, 4.344738], [98.02832, 4.344868], [98.028451, 4.345801], [98.031322, 4.345866], [98.031407, 4.346781], [98.032318, 4.346871], [98.032318, 4.348605], [98.029582, 4.348607], [98.029493, 4.347695], [98.02658, 4.347608], [98.026451, 4.346672], [98.026312, 4.347599], [98.025403, 4.347691], [98.025304, 4.348591], [98.020451, 4.348658], [98.020267, 4.349554], [98.017626, 4.349563], [98.017509, 4.34868], [98.016628, 4.34856], [98.01651, 4.347678], [98.015635, 4.347553], [98.015521, 4.343667], [98.014451, 4.343625], [98.014155, 4.347442], [98.013298, 4.347585], [98.013116, 4.349403], [98.012334, 4.349621], [98.012088, 4.350375], [98.004451, 4.350396], [98.002451, 4.352127]]], "type": "Polygon"}, "type": "Feature"}], "type": "FeatureCollection"}