{"features": [{"properties": {"fill-opacity": 0.33, "fillColor": "#bf4040", "opacity": 0.33, "fill": "#bf4040", "fillOpacity": 0.33, "color": "#bf4040", "contour": 15.0, "metric": "time"}, "geometry": {"coordinates": [[[95.938342, 5.407348], [95.937529, 5.405909], [95.936342, 5.406362], [95.935281, 5.405034], [95.936736, 5.40449], [95.9389, 5.401654], [95.940342, 5.401388], [95.941342, 5.400353], [95.942342, 5.400334], [95.942761, 5.399515], [95.943532, 5.399096], [95.942342, 5.398789], [95.941342, 5.399644], [95.940342, 5.399783], [95.939168, 5.398922], [95.938798, 5.400551], [95.937093, 5.400847], [95.935342, 5.402539], [95.934342, 5.40143], [95.93322, 5.401096], [95.934678, 5.399432], [95.934979, 5.397733], [95.93665, 5.397096], [95.936342, 5.3965], [95.935157, 5.396281], [95.935419, 5.395096], [95.936342, 5.394563], [95.938342, 5.394537], [95.938893, 5.393647], [95.940342, 5.393349], [95.941733, 5.391486], [95.942466, 5.39122], [95.942673, 5.390096], [95.942607, 5.388831], [95.941836, 5.388602], [95.941575, 5.387863], [95.940784, 5.387654], [95.939494, 5.385944], [95.937871, 5.385567], [95.937342, 5.384692], [95.936342, 5.384552], [95.935929, 5.384096], [95.936308, 5.383096], [95.935904, 5.382096], [95.936221, 5.378096], [95.938342, 5.377777], [95.939342, 5.377291], [95.939703, 5.376457], [95.94042, 5.376096], [95.938735, 5.375703], [95.938521, 5.374917], [95.935087, 5.371351], [95.934612, 5.369826], [95.933783, 5.369096], [95.933843, 5.368597], [95.934342, 5.368537], [95.936342, 5.368804], [95.938568, 5.366321], [95.938577, 5.364861], [95.937936, 5.364502], [95.937342, 5.363409], [95.935588, 5.363096], [95.935988, 5.362742], [95.936342, 5.361021], [95.937473, 5.361096], [95.937342, 5.359877], [95.938342, 5.359908], [95.939342, 5.360845], [95.940786, 5.361096], [95.940342, 5.362531], [95.939342, 5.362575], [95.938978, 5.363096], [95.940818, 5.36462], [95.94109, 5.366349], [95.94187, 5.366568], [95.942121, 5.367317], [95.942925, 5.367513], [95.943342, 5.368282], [95.947972, 5.368466], [95.948342, 5.369242], [95.948715, 5.366468], [95.949473, 5.366227], [95.949749, 5.365503], [95.951594, 5.365096], [95.951575, 5.362863], [95.949823, 5.361096], [95.950342, 5.357917], [95.951206, 5.358096], [95.950542, 5.358296], [95.951019, 5.360419], [95.952082, 5.361356], [95.953111, 5.361327], [95.953029, 5.363096], [95.953342, 5.363381], [95.95446, 5.362096], [95.953563, 5.361096], [95.954108, 5.360862], [95.955683, 5.360755], [95.956171, 5.361096], [95.955828, 5.362096], [95.956342, 5.362533], [95.956932, 5.362096], [95.956865, 5.361096], [95.957196, 5.360949], [95.959519, 5.361273], [95.960045, 5.358096], [95.960999, 5.357753], [95.961342, 5.356877], [95.964342, 5.35803], [95.96537, 5.359068], [95.965543, 5.360297], [95.963986, 5.36074], [95.963091, 5.361845], [95.964342, 5.363432], [95.966342, 5.361394], [95.967535, 5.362096], [95.969342, 5.364503], [95.971342, 5.363104], [95.973342, 5.363548], [95.975342, 5.363425], [95.97614, 5.365298], [95.976617, 5.36537], [95.977342, 5.364665], [95.979342, 5.365514], [95.980715, 5.366724], [95.981858, 5.36858], [95.983448, 5.368991], [95.983789, 5.370096], [95.984805, 5.371096], [95.984651, 5.371405], [95.983342, 5.371688], [95.981342, 5.373706], [95.980342, 5.374125], [95.978342, 5.373967], [95.977164, 5.374918], [95.978156, 5.376096], [95.977987, 5.377741], [95.977229, 5.377983], [95.977014, 5.378768], [95.976238, 5.378991], [95.976037, 5.379791], [95.97425, 5.380004], [95.974075, 5.380829], [95.973256, 5.38101], [95.973091, 5.381844], [95.972262, 5.382016], [95.972112, 5.382866], [95.971268, 5.383021], [95.971126, 5.38388], [95.970272, 5.384026], [95.970136, 5.38589], [95.968342, 5.385999], [95.968152, 5.386906], [95.965286, 5.38704], [95.96516, 5.389913], [95.963342, 5.390003], [95.963156, 5.39091], [95.961281, 5.391035], [95.961152, 5.391906], [95.958534, 5.391904], [95.958342, 5.391004], [95.955342, 5.39101], [95.955159, 5.391913], [95.953278, 5.392032], [95.953144, 5.392898], [95.952236, 5.393096], [95.953066, 5.393372], [95.953065, 5.395819], [95.952253, 5.396007], [95.952077, 5.396831], [95.950253, 5.397007], [95.949957, 5.398711], [95.948231, 5.398985], [95.948003, 5.399757], [95.947222, 5.399976], [95.946963, 5.400717], [95.946208, 5.400962], [95.945916, 5.40167], [95.945191, 5.401945], [95.940657, 5.406411], [95.938905, 5.406659], [95.938342, 5.407348]]], "type": "Polygon"}, "type": "Feature"}], "type": "FeatureCollection"}