{"features": [{"properties": {"fill-opacity": 0.33, "fillColor": "#bf4040", "opacity": 0.33, "fill": "#bf4040", "fillOpacity": 0.33, "color": "#bf4040", "contour": 15.0, "metric": "time"}, "geometry": {"coordinates": [[[95.474369, 5.512978], [95.470926, 5.510086], [95.470635, 5.508377], [95.468859, 5.508153], [95.468511, 5.506502], [95.467369, 5.506445], [95.466369, 5.507426], [95.465804, 5.507209], [95.465545, 5.504644], [95.464685, 5.504328], [95.46447, 5.503542], [95.463659, 5.503353], [95.463369, 5.502514], [95.455369, 5.502436], [95.455148, 5.502864], [95.455919, 5.503644], [95.45572, 5.504995], [95.454369, 5.505145], [95.453369, 5.504322], [95.450369, 5.504286], [95.449865, 5.504644], [95.449745, 5.505644], [95.45014, 5.506644], [95.449248, 5.506764], [95.448678, 5.504335], [95.445609, 5.503644], [95.446824, 5.503099], [95.448251, 5.501526], [95.449053, 5.501328], [95.449601, 5.501411], [95.450088, 5.502925], [95.450598, 5.502873], [95.450705, 5.501644], [95.451693, 5.500644], [95.451987, 5.498262], [95.45275, 5.498262], [95.453044, 5.500644], [95.453369, 5.500922], [95.455369, 5.500852], [95.456369, 5.49986], [95.457369, 5.500823], [95.462369, 5.500777], [95.462442, 5.49857], [95.461583, 5.498429], [95.461438, 5.497574], [95.460571, 5.497441], [95.460434, 5.496578], [95.45956, 5.496452], [95.459431, 5.495582], [95.458549, 5.495464], [95.458432, 5.49458], [95.457541, 5.494471], [95.457425, 5.493587], [95.456534, 5.493478], [95.456423, 5.49259], [95.455528, 5.492485], [95.45542, 5.491592], [95.452534, 5.491479], [95.452369, 5.490559], [95.448369, 5.490546], [95.448161, 5.491436], [95.446293, 5.491569], [95.446281, 5.492732], [95.447093, 5.492919], [95.447269, 5.494743], [95.44904, 5.494972], [95.449204, 5.495644], [95.449024, 5.4973], [95.447369, 5.497464], [95.446728, 5.497285], [95.446476, 5.496536], [95.445674, 5.496339], [95.44551, 5.494644], [95.444634, 5.494379], [95.44445, 5.492562], [95.443607, 5.492406], [95.443447, 5.491565], [95.442609, 5.491403], [95.442369, 5.490517], [95.437369, 5.490476], [95.436705, 5.490308], [95.436545, 5.489468], [95.430369, 5.489277], [95.429369, 5.488257], [95.426369, 5.48862], [95.425903, 5.487644], [95.426855, 5.48713], [95.42709, 5.486365], [95.428369, 5.486068], [95.429369, 5.48703], [95.429989, 5.485264], [95.430741, 5.484644], [95.430369, 5.484195], [95.428369, 5.483935], [95.42803, 5.481644], [95.429369, 5.481671], [95.430016, 5.482996], [95.431369, 5.483029], [95.432129, 5.483884], [95.434847, 5.484165], [95.436902, 5.48611], [95.436902, 5.487178], [95.436163, 5.487644], [95.436998, 5.488014], [95.437192, 5.48882], [95.443369, 5.488768], [95.44412, 5.488892], [95.444369, 5.489759], [95.446261, 5.489752], [95.446572, 5.488847], [95.453369, 5.488728], [95.4542, 5.488813], [95.454369, 5.489723], [95.454513, 5.488788], [95.455414, 5.488689], [95.455499, 5.487775], [95.458242, 5.487771], [95.458242, 5.489517], [95.457325, 5.4896], [95.457291, 5.490644], [95.458205, 5.490807], [95.458313, 5.491699], [95.459197, 5.491815], [95.459306, 5.492706], [95.460141, 5.492872], [95.460303, 5.493709], [95.46118, 5.493832], [95.461369, 5.494741], [95.461485, 5.492644], [95.460641, 5.492372], [95.460505, 5.491644], [95.460641, 5.490916], [95.462497, 5.490772], [95.461661, 5.490351], [95.461518, 5.488793], [95.461674, 5.487949], [95.46253, 5.487644], [95.462543, 5.486644], [95.461753, 5.486259], [95.460522, 5.484491], [95.458893, 5.484119], [95.458575, 5.482437], [95.457621, 5.481391], [95.456137, 5.480644], [95.454825, 5.477644], [95.455369, 5.477512], [95.456623, 5.478389], [95.460369, 5.481902], [95.461805, 5.480644], [95.461072, 5.47994], [95.461072, 5.479347], [95.463494, 5.479518], [95.463626, 5.479902], [95.462991, 5.480267], [95.463094, 5.480918], [95.463733, 5.481009], [95.464369, 5.480351], [95.467516, 5.483496], [95.465954, 5.484644], [95.468189, 5.486823], [95.470369, 5.484919], [95.472805, 5.485207], [95.472805, 5.48608], [95.4711, 5.486644], [95.472034, 5.487644], [95.471909, 5.489103], [95.47264, 5.489373], [95.472659, 5.489935], [95.472369, 5.490152], [95.471828, 5.489185], [95.470944, 5.489069], [95.470369, 5.488388], [95.470018, 5.492293], [95.46727, 5.492546], [95.467078, 5.494353], [95.465659, 5.494353], [95.465461, 5.493552], [95.464292, 5.493567], [95.465137, 5.493876], [95.465251, 5.495644], [95.466114, 5.495898], [95.466241, 5.496644], [95.466114, 5.497389], [95.464252, 5.497527], [95.464256, 5.498644], [95.466974, 5.499038], [95.467369, 5.49986], [95.471369, 5.499971], [95.472042, 5.500644], [95.472369, 5.502073], [95.474369, 5.501975], [95.475643, 5.502644], [95.475065, 5.50434], [95.474513, 5.504788], [95.47378, 5.503233], [95.473369, 5.503109], [95.471046, 5.503321], [95.470858, 5.504134], [95.470143, 5.504644], [95.47021, 5.506803], [95.47466, 5.511352], [95.474667, 5.512942], [95.474369, 5.512978]]], "type": "Polygon"}, "type": "Feature"}], "type": "FeatureCollection"}