{"features": [{"properties": {"fill-opacity": 0.33, "fillColor": "#bf4040", "opacity": 0.33, "fill": "#bf4040", "fillOpacity": 0.33, "color": "#bf4040", "contour": 15.0, "metric": "time"}, "geometry": {"coordinates": [[[97.009443, 3.579812], [97.007569, 3.579749], [97.007486, 3.578832], [97.006576, 3.578742], [97.006488, 3.57783], [97.005582, 3.577736], [97.00549, 3.576828], [97.004588, 3.576731], [97.004492, 3.575826], [97.003593, 3.575726], [97.003494, 3.574824], [97.000609, 3.57471], [97.000443, 3.573789], [96.998638, 3.57368], [96.998505, 3.571813], [96.997635, 3.571683], [96.997443, 3.568768], [96.994684, 3.568635], [96.994525, 3.567793], [96.993698, 3.56762], [96.993443, 3.566734], [96.993123, 3.567555], [96.991329, 3.56776], [96.991086, 3.568517], [96.988826, 3.568492], [96.988826, 3.567258], [96.989565, 3.566996], [96.989795, 3.566227], [96.991443, 3.566038], [96.991746, 3.565177], [96.992583, 3.564875], [96.991743, 3.564576], [96.991548, 3.56377], [96.990776, 3.563543], [96.990443, 3.562692], [96.989287, 3.562719], [96.988263, 3.563695], [96.987843, 3.566275], [96.987443, 3.566475], [96.98668, 3.565638], [96.986195, 3.565626], [96.985782, 3.567214], [96.983443, 3.569], [96.983167, 3.568875], [96.982943, 3.567875], [96.983263, 3.566695], [96.984752, 3.566184], [96.984986, 3.564417], [96.988647, 3.560875], [96.988443, 3.560597], [96.986201, 3.560632], [96.985673, 3.562105], [96.984443, 3.563079], [96.981644, 3.561875], [96.98224, 3.559672], [96.982846, 3.559277], [96.983443, 3.557985], [96.985045, 3.558273], [96.985443, 3.558906], [96.985573, 3.558005], [96.986196, 3.558122], [96.986947, 3.557379], [96.988628, 3.55706], [96.98905, 3.555482], [96.990157, 3.554588], [96.991658, 3.55409], [96.992002, 3.552434], [96.992443, 3.552214], [96.993665, 3.553097], [96.994835, 3.551875], [96.995408, 3.54784], [96.996443, 3.548041], [96.998012, 3.549875], [96.997025, 3.550456], [96.997018, 3.551875], [96.997443, 3.552245], [96.998775, 3.551207], [96.999078, 3.55051], [97.000443, 3.549686], [97.001289, 3.549875], [97.000638, 3.55007], [97.000605, 3.551037], [96.99895, 3.552381], [96.997609, 3.555875], [96.998443, 3.556361], [97.000443, 3.556073], [97.000772, 3.557547], [97.001596, 3.557875], [96.996443, 3.558541], [96.996268, 3.558875], [96.997099, 3.559219], [96.997348, 3.56197], [96.99915, 3.562168], [96.999297, 3.562875], [96.99915, 3.563582], [96.998304, 3.563875], [96.998185, 3.565617], [96.997328, 3.565875], [96.998227, 3.566092], [96.998373, 3.566946], [96.999237, 3.567081], [96.999376, 3.567942], [97.000244, 3.568074], [97.000379, 3.568939], [97.002244, 3.569074], [97.002244, 3.570676], [97.001379, 3.57081], [97.001352, 3.571784], [97.002277, 3.572042], [97.002389, 3.57293], [97.00529, 3.573029], [97.005394, 3.573925], [97.006298, 3.574021], [97.006395, 3.574923], [97.007443, 3.574945], [97.007596, 3.574027], [97.011512, 3.573943], [97.011675, 3.573106], [97.012523, 3.572955], [97.012703, 3.572135], [97.013541, 3.571972], [97.013774, 3.571205], [97.015589, 3.571021], [97.015753, 3.569875], [97.016443, 3.569185], [97.017443, 3.569272], [97.018047, 3.569875], [97.017242, 3.570673], [97.016964, 3.572396], [97.015333, 3.572765], [97.015148, 3.573579], [97.014357, 3.573789], [97.014212, 3.574644], [97.01337, 3.574801], [97.01324, 3.575672], [97.009443, 3.575797], [97.009301, 3.576733], [97.008397, 3.576829], [97.009314, 3.577005], [97.009401, 3.577917], [97.010318, 3.578001], [97.010318, 3.579749], [97.009443, 3.579812]]], "type": "Polygon"}, "type": "Feature"}], "type": "FeatureCollection"}