{"features": [{"properties": {"fill-opacity": 0.33, "fillColor": "#bf4040", "opacity": 0.33, "fill": "#bf4040", "fillOpacity": 0.33, "color": "#bf4040", "contour": 15.0, "metric": "time"}, "geometry": {"coordinates": [[[97.133605, 4.982722], [97.132288, 4.982538], [97.131538, 4.98122], [97.133853, 4.980469], [97.133865, 4.97822], [97.134815, 4.97722], [97.134787, 4.97522], [97.133977, 4.974849], [97.133775, 4.97322], [97.133009, 4.972816], [97.132754, 4.971071], [97.131399, 4.971014], [97.129605, 4.972783], [97.128255, 4.97257], [97.127988, 4.971837], [97.126602, 4.971218], [97.129605, 4.970597], [97.130605, 4.969542], [97.133605, 4.969443], [97.134605, 4.970401], [97.136605, 4.970378], [97.137675, 4.97029], [97.137808, 4.969423], [97.139666, 4.969282], [97.138757, 4.969068], [97.138649, 4.967176], [97.13673, 4.967095], [97.136653, 4.965172], [97.133788, 4.965037], [97.1338, 4.962416], [97.135409, 4.962416], [97.135605, 4.963304], [97.138457, 4.963368], [97.138559, 4.964266], [97.139478, 4.964347], [97.139562, 4.965263], [97.140472, 4.965353], [97.140605, 4.967299], [97.140868, 4.966484], [97.141702, 4.966317], [97.141917, 4.965532], [97.143747, 4.965363], [97.143467, 4.96322], [97.144932, 4.962893], [97.145356, 4.963469], [97.145162, 4.966777], [97.143498, 4.967114], [97.143304, 4.967919], [97.142518, 4.968133], [97.142394, 4.970009], [97.141511, 4.97022], [97.141471, 4.97222], [97.142275, 4.97255], [97.142421, 4.974404], [97.143776, 4.975049], [97.143704, 4.97622], [97.143007, 4.975819], [97.142366, 4.975982], [97.141775, 4.979391], [97.140605, 4.979371], [97.141079, 4.978695], [97.141066, 4.97722], [97.139999, 4.97622], [97.140915, 4.97522], [97.140035, 4.97479], [97.139525, 4.97314], [97.139356, 4.973972], [97.138518, 4.974134], [97.138331, 4.974946], [97.136497, 4.975113], [97.136378, 4.97822], [97.13531, 4.97922], [97.135605, 4.980677], [97.136605, 4.979837], [97.138508, 4.98022], [97.137186, 4.980801], [97.136903, 4.981519], [97.134605, 4.98183], [97.133605, 4.982722]]], "type": "Polygon"}, "type": "Feature"}], "type": "FeatureCollection"}