{"features": [{"properties": {"fill-opacity": 0.33, "fillColor": "#bf4040", "opacity": 0.33, "fill": "#bf4040", "fillOpacity": 0.33, "color": "#bf4040", "contour": 15.0, "metric": "time"}, "geometry": {"coordinates": [[[96.09811, 5.205106], [96.09711, 5.205852], [96.095931, 5.205243], [96.094904, 5.203858], [96.095492, 5.202064], [96.09328, 5.199894], [96.09211, 5.199802], [96.09111, 5.200571], [96.089716, 5.200458], [96.089493, 5.199681], [96.08911, 5.199636], [96.087681, 5.199636], [96.086339, 5.200294], [96.085785, 5.200064], [96.085399, 5.199064], [96.08611, 5.198294], [96.08711, 5.198657], [96.08911, 5.198493], [96.089727, 5.199447], [96.09032, 5.199275], [96.091275, 5.198229], [96.091503, 5.196458], [96.092226, 5.19618], [96.09224, 5.194064], [96.09135, 5.193824], [96.09111, 5.192934], [96.090761, 5.194716], [96.087511, 5.194663], [96.087583, 5.192537], [96.089214, 5.191168], [96.087306, 5.190868], [96.087287, 5.187241], [96.088164, 5.18701], [96.085302, 5.186872], [96.085176, 5.185998], [96.084317, 5.185857], [96.084193, 5.182981], [96.083371, 5.182803], [96.083249, 5.181925], [96.081435, 5.181738], [96.08111, 5.180843], [96.08038, 5.188064], [96.07911, 5.188809], [96.078893, 5.188064], [96.079684, 5.187064], [96.079452, 5.179722], [96.07911, 5.1794], [96.07711, 5.18124], [96.076846, 5.180064], [96.077612, 5.179064], [96.076776, 5.178064], [96.07811, 5.177543], [96.07911, 5.176427], [96.081298, 5.176252], [96.081366, 5.174808], [96.08055, 5.174064], [96.08111, 5.173504], [96.082392, 5.173346], [96.082472, 5.172702], [96.081734, 5.172064], [96.08211, 5.171688], [96.085067, 5.172021], [96.08511, 5.171674], [96.085761, 5.172064], [96.085188, 5.173143], [96.083791, 5.173745], [96.082771, 5.175064], [96.082939, 5.180064], [96.083814, 5.18036], [96.083971, 5.181203], [96.085854, 5.18132], [96.08611, 5.184163], [96.08811, 5.184174], [96.088304, 5.182259], [96.090157, 5.182111], [96.090263, 5.179217], [96.09116, 5.179114], [96.091267, 5.178221], [96.092164, 5.178118], [96.092288, 5.176242], [96.094175, 5.176129], [96.094316, 5.17527], [96.096185, 5.175139], [96.096353, 5.174308], [96.100812, 5.174362], [96.100998, 5.176176], [96.101765, 5.176409], [96.101979, 5.177195], [96.103608, 5.177566], [96.10411, 5.178377], [96.10711, 5.178611], [96.10711, 5.179236], [96.103825, 5.179779], [96.102618, 5.179556], [96.10211, 5.178846], [96.100969, 5.178923], [96.100683, 5.183064], [96.09911, 5.183487], [96.098687, 5.183064], [96.098641, 5.182064], [96.09945, 5.181064], [96.098624, 5.18055], [96.09836, 5.179064], [96.09926, 5.178214], [96.099213, 5.176961], [96.09711, 5.176951], [96.096894, 5.177848], [96.09411, 5.177973], [96.093945, 5.179899], [96.093039, 5.180064], [96.092978, 5.182932], [96.092067, 5.183021], [96.09198, 5.184934], [96.09104, 5.185064], [96.091034, 5.187064], [96.091942, 5.187232], [96.092049, 5.189125], [96.09292, 5.189253], [96.093044, 5.19013], [96.093903, 5.190271], [96.09402, 5.193154], [96.095332, 5.192064], [96.095454, 5.190064], [96.09611, 5.189408], [96.097931, 5.191243], [96.09911, 5.191416], [96.099757, 5.192064], [96.099129, 5.194083], [96.098353, 5.19282], [96.09711, 5.192826], [96.096719, 5.193673], [96.095988, 5.193942], [96.095779, 5.194733], [96.093968, 5.195064], [96.093955, 5.198219], [96.095582, 5.199592], [96.096453, 5.201721], [96.097632, 5.202064], [96.097704, 5.20347], [96.098443, 5.204397], [96.09811, 5.205106]]], "type": "Polygon"}, "type": "Feature"}], "type": "FeatureCollection"}