{"features": [{"properties": {"fill-opacity": 0.33, "fillColor": "#bf4040", "opacity": 0.33, "fill": "#bf4040", "fillOpacity": 0.33, "color": "#bf4040", "contour": 15.0, "metric": "time"}, "geometry": {"coordinates": [[[97.136665, 3.41189], [97.134806, 3.411817], [97.134717, 3.410907], [97.132865, 3.410759], [97.132765, 3.409959], [97.132865, 3.409159], [97.133754, 3.408959], [97.132865, 3.408759], [97.13288, 3.406174], [97.133745, 3.40604], [97.133976, 3.40427], [97.134847, 3.403959], [97.135046, 3.40134], [97.135665, 3.399843], [97.136146, 3.400478], [97.136342, 3.401959], [97.137385, 3.402959], [97.136512, 3.403806], [97.136315, 3.405609], [97.135563, 3.405858], [97.135573, 3.407959], [97.137497, 3.408127], [97.137618, 3.409006], [97.138538, 3.409086], [97.138538, 3.410832], [97.137621, 3.410915], [97.137527, 3.411822], [97.136665, 3.41189]]], "type": "Polygon"}, "type": "Feature"}], "type": "FeatureCollection"}