{"features": [{"properties": {"fill-opacity": 0.33, "fillColor": "#bf4040", "opacity": 0.33, "fill": "#bf4040", "fillOpacity": 0.33, "color": "#bf4040", "contour": 15.0, "metric": "time"}, "geometry": {"coordinates": [[[97.987678, 2.307932], [97.986662, 2.30693], [97.987284, 2.30593], [97.987148, 2.30493], [97.986208, 2.30393], [97.987926, 2.303179], [97.987928, 2.30093], [97.987109, 2.300499], [97.986815, 2.299793], [97.985056, 2.299552], [97.984796, 2.298812], [97.984021, 2.298587], [97.983797, 2.29193], [97.982904, 2.291704], [97.982791, 2.29093], [97.982888, 2.288141], [97.983777, 2.28793], [97.98372, 2.272888], [97.976591, 2.27293], [97.976321, 2.28693], [97.978117, 2.28893], [97.977531, 2.290077], [97.976678, 2.289873], [97.975987, 2.288621], [97.975296, 2.288312], [97.97496, 2.28493], [97.973111, 2.283497], [97.972678, 2.281638], [97.971408, 2.281661], [97.970797, 2.28305], [97.969513, 2.283095], [97.968719, 2.28193], [97.969309, 2.28093], [97.968678, 2.280454], [97.966917, 2.28217], [97.964578, 2.28203], [97.966078, 2.281331], [97.966977, 2.280229], [97.966906, 2.279702], [97.965678, 2.279447], [97.964412, 2.279665], [97.963678, 2.280851], [97.962297, 2.28055], [97.961678, 2.281716], [97.960678, 2.281758], [97.960578, 2.280831], [97.961056, 2.27993], [97.962678, 2.279409], [97.963051, 2.27893], [97.962954, 2.277654], [97.961141, 2.27593], [97.961678, 2.274778], [97.96344, 2.274693], [97.963678, 2.274361], [97.963773, 2.27493], [97.963152, 2.27593], [97.964441, 2.277167], [97.965678, 2.276195], [97.96782, 2.276072], [97.969033, 2.274285], [97.969792, 2.274044], [97.969952, 2.271205], [97.970764, 2.271016], [97.970921, 2.270174], [97.971755, 2.270008], [97.9719, 2.269153], [97.973678, 2.269034], [97.97387, 2.268123], [97.975744, 2.267997], [97.975882, 2.267135], [97.978482, 2.267126], [97.978678, 2.268021], [97.983724, 2.267976], [97.983837, 2.26209], [98.002678, 2.262083], [98.003019, 2.261271], [98.004337, 2.261271], [98.004527, 2.26993], [98.005344, 2.270264], [98.005561, 2.271047], [98.007283, 2.271325], [98.00754, 2.272068], [98.008251, 2.272357], [98.008391, 2.27593], [98.007357, 2.27693], [98.007301, 2.27793], [98.00624, 2.27893], [98.005979, 2.280231], [98.004678, 2.281242], [98.003678, 2.281371], [98.003627, 2.28088], [98.005026, 2.279278], [98.005082, 2.27793], [98.00592, 2.277173], [98.006213, 2.275465], [98.006865, 2.275118], [98.006824, 2.273784], [98.006096, 2.273512], [98.005808, 2.2728], [98.004034, 2.272574], [98.00379, 2.271818], [98.002997, 2.271611], [98.00282, 2.26893], [98.001939, 2.268669], [98.001763, 2.267845], [98.000601, 2.267854], [98.000448, 2.268701], [97.995613, 2.268866], [97.995578, 2.27793], [97.996467, 2.278141], [97.99657, 2.279038], [97.997456, 2.279152], [97.997557, 2.28093], [97.997436, 2.281689], [97.995593, 2.281845], [97.995413, 2.282665], [97.992678, 2.282783], [97.992358, 2.283611], [97.991502, 2.28393], [97.991436, 2.28793], [97.992153, 2.288455], [97.99246, 2.290148], [97.993326, 2.29093], [97.992678, 2.295424], [97.991409, 2.29493], [97.991363, 2.29393], [97.992153, 2.29293], [97.992082, 2.29193], [97.991238, 2.29137], [97.990972, 2.28993], [97.989943, 2.28893], [97.989842, 2.28293], [97.990007, 2.28226], [97.990784, 2.282037], [97.990988, 2.281241], [97.993678, 2.28107], [97.993933, 2.280186], [97.995786, 2.279822], [97.993887, 2.279721], [97.993678, 2.27684], [97.987832, 2.276776], [97.987728, 2.27588], [97.98675, 2.275858], [97.98654, 2.276793], [97.985608, 2.27693], [97.985574, 2.28893], [97.985471, 2.289724], [97.984569, 2.28993], [97.985444, 2.290164], [97.985561, 2.29093], [97.985519, 2.29693], [97.986329, 2.297279], [97.986678, 2.298123], [97.988255, 2.298353], [97.989375, 2.300233], [97.990408, 2.30093], [97.989394, 2.30193], [97.989159, 2.30593], [97.988281, 2.306533], [97.987678, 2.307932]]], "type": "Polygon"}, "type": "Feature"}], "type": "FeatureCollection"}