{"features": [{"properties": {"fill-opacity": 0.33, "fillColor": "#bf4040", "opacity": 0.33, "fill": "#bf4040", "fillOpacity": 0.33, "color": "#bf4040", "contour": 15.0, "metric": "time"}, "geometry": {"coordinates": [[[98.020714, 2.722072], [98.017714, 2.721739], [98.017324, 2.722603], [98.014714, 2.722835], [98.014031, 2.722677], [98.013808, 2.721899], [98.01298, 2.721727], [98.012791, 2.720916], [98.009899, 2.720809], [98.009714, 2.719913], [98.008658, 2.719937], [98.008543, 2.720822], [98.006885, 2.720822], [98.006882, 2.718162], [98.008767, 2.718046], [98.008787, 2.715993], [98.005904, 2.715804], [98.005781, 2.714926], [98.004933, 2.714774], [98.00484, 2.711993], [98.004045, 2.711662], [98.003838, 2.709869], [98.003117, 2.70959], [98.002714, 2.708731], [98.001281, 2.708426], [98.000422, 2.706993], [98.000535, 2.705993], [98.002126, 2.706581], [98.002499, 2.707209], [98.004249, 2.707458], [98.004577, 2.70813], [98.006346, 2.708361], [98.006643, 2.713064], [98.007515, 2.713192], [98.007714, 2.714078], [98.009714, 2.714067], [98.00978, 2.711993], [98.008839, 2.711868], [98.008853, 2.705132], [98.010764, 2.704943], [98.009866, 2.704842], [98.009791, 2.703916], [98.008872, 2.703835], [98.008768, 2.702939], [98.007881, 2.702826], [98.007771, 2.701936], [98.006888, 2.70182], [98.006773, 2.700934], [98.005895, 2.700812], [98.005776, 2.699931], [98.002923, 2.699784], [98.002714, 2.698884], [97.999954, 2.698753], [97.999714, 2.696862], [97.999421, 2.697701], [97.998554, 2.697993], [97.998515, 2.700993], [97.999499, 2.701993], [97.99946, 2.703739], [97.999201, 2.70448], [97.998404, 2.704993], [97.998112, 2.707391], [97.996714, 2.708452], [97.995714, 2.707392], [97.994164, 2.706993], [97.996986, 2.706265], [97.996984, 2.703993], [97.997953, 2.702993], [97.997144, 2.702563], [97.996929, 2.701993], [97.996862, 2.695993], [97.996042, 2.695666], [97.995831, 2.693876], [97.995087, 2.69362], [97.994861, 2.690846], [97.993714, 2.691695], [97.991714, 2.691658], [97.99105, 2.690993], [97.990972, 2.689735], [97.98848, 2.689227], [97.987506, 2.687993], [97.989178, 2.687458], [97.989714, 2.686791], [97.990279, 2.687428], [97.991714, 2.687462], [97.992245, 2.687993], [97.992368, 2.689993], [97.992714, 2.690291], [97.993222, 2.689501], [97.99488, 2.689159], [97.996294, 2.687573], [97.998008, 2.687287], [97.99809, 2.686618], [97.997383, 2.685993], [97.997714, 2.684163], [97.998277, 2.68543], [97.99915, 2.685993], [97.998921, 2.687993], [97.997476, 2.688755], [97.99649, 2.689993], [97.997099, 2.690608], [97.998714, 2.690669], [97.999849, 2.690129], [98.000714, 2.688207], [98.005969, 2.688248], [98.006573, 2.684993], [98.007747, 2.68496], [98.007088, 2.685367], [98.00722, 2.686993], [98.007714, 2.687518], [98.008714, 2.686739], [98.009277, 2.686993], [98.008196, 2.688993], [98.008714, 2.689636], [98.010093, 2.689993], [98.007714, 2.69042], [98.006714, 2.689591], [98.001714, 2.68977], [98.001352, 2.692631], [98.000555, 2.692993], [98.000572, 2.694993], [98.001457, 2.69525], [98.001635, 2.697072], [98.005509, 2.697198], [98.005778, 2.698057], [98.005789, 2.696918], [98.004945, 2.696762], [98.004793, 2.695914], [98.00396, 2.695747], [98.003837, 2.694993], [98.003999, 2.691278], [98.005429, 2.691278], [98.005632, 2.694075], [98.006476, 2.694232], [98.006637, 2.69507], [98.007488, 2.695219], [98.007641, 2.696066], [98.008501, 2.696206], [98.008511, 2.69879], [98.007653, 2.699054], [98.008535, 2.699173], [98.008656, 2.700051], [98.009543, 2.700164], [98.009658, 2.701049], [98.010551, 2.701156], [98.010637, 2.703071], [98.01356, 2.703147], [98.01356, 2.704839], [98.012664, 2.704943], [98.012642, 2.705993], [98.013562, 2.706145], [98.013662, 2.707045], [98.015772, 2.707051], [98.015892, 2.706171], [98.016775, 2.706054], [98.016901, 2.70518], [98.020511, 2.705196], [98.020505, 2.707784], [98.018923, 2.707784], [98.018714, 2.706896], [98.018531, 2.707811], [98.017654, 2.707934], [98.017539, 2.708818], [98.012714, 2.708915], [98.01187, 2.708837], [98.011765, 2.707942], [98.010863, 2.707844], [98.010714, 2.706923], [98.010649, 2.708928], [98.011588, 2.709119], [98.011654, 2.719053], [98.014484, 2.719223], [98.01463, 2.720078], [98.015447, 2.72026], [98.015714, 2.721158], [98.016123, 2.720402], [98.016714, 2.720198], [98.019714, 2.720484], [98.020714, 2.722072]]], "type": "Polygon"}, "type": "Feature"}], "type": "FeatureCollection"}