{"features": [{"properties": {"fill-opacity": 0.33, "fillColor": "#bf4040", "opacity": 0.33, "fill": "#bf4040", "fillOpacity": 0.33, "color": "#bf4040", "contour": 15.0, "metric": "time"}, "geometry": {"coordinates": [[[95.940421, 2.606174], [95.939421, 2.60603], [95.938699, 2.604846], [95.937988, 2.604557], [95.937687, 2.603123], [95.938564, 2.602266], [95.938709, 2.599411], [95.939511, 2.599213], [95.939676, 2.598378], [95.940532, 2.598123], [95.940515, 2.595123], [95.940235, 2.595937], [95.938357, 2.596059], [95.938222, 2.596924], [95.935625, 2.59692], [95.935625, 2.595327], [95.936488, 2.59519], [95.936615, 2.594317], [95.938482, 2.594185], [95.938506, 2.593123], [95.937584, 2.59296], [95.937474, 2.59207], [95.935577, 2.591968], [95.935472, 2.591073], [95.934571, 2.590973], [95.934494, 2.589123], [95.933567, 2.588978], [95.933421, 2.58805], [95.93237, 2.588072], [95.932338, 2.589206], [95.933252, 2.589293], [95.933363, 2.590182], [95.93424, 2.590304], [95.93433, 2.592123], [95.935229, 2.592316], [95.935322, 2.594123], [95.935224, 2.594926], [95.934354, 2.595056], [95.934212, 2.595914], [95.93335, 2.596052], [95.933201, 2.596903], [95.931343, 2.597045], [95.931182, 2.597884], [95.930338, 2.59804], [95.930158, 2.59886], [95.928329, 2.599031], [95.92813, 2.599832], [95.926317, 2.600019], [95.926099, 2.600802], [95.923763, 2.600781], [95.923601, 2.599944], [95.921836, 2.599709], [95.921421, 2.598894], [95.920134, 2.599836], [95.919867, 2.600569], [95.919044, 2.600746], [95.917421, 2.601975], [95.917184, 2.601123], [95.919676, 2.598378], [95.919711, 2.597123], [95.920554, 2.596256], [95.920678, 2.59438], [95.921504, 2.594206], [95.921658, 2.59236], [95.922497, 2.592199], [95.922639, 2.591341], [95.923492, 2.591194], [95.923624, 2.589326], [95.924487, 2.589189], [95.924612, 2.588314], [95.926482, 2.588184], [95.926523, 2.586123], [95.925646, 2.585898], [95.925646, 2.584348], [95.928204, 2.58434], [95.928421, 2.586217], [95.930475, 2.586177], [95.930592, 2.584294], [95.931421, 2.584208], [95.932251, 2.584294], [95.932369, 2.586176], [95.935421, 2.586193], [95.935547, 2.583249], [95.937295, 2.583249], [95.937379, 2.584166], [95.938421, 2.58419], [95.938561, 2.583263], [95.940471, 2.583173], [95.940578, 2.58228], [95.942477, 2.582179], [95.942592, 2.581294], [95.9475, 2.581202], [95.94669, 2.580854], [95.946561, 2.579123], [95.945733, 2.578811], [95.945533, 2.577011], [95.94478, 2.576765], [95.944786, 2.574488], [95.946057, 2.574488], [95.946304, 2.575241], [95.947085, 2.575459], [95.947263, 2.577123], [95.948126, 2.577418], [95.948331, 2.579214], [95.949155, 2.579389], [95.949421, 2.580253], [95.950421, 2.580258], [95.950743, 2.579445], [95.951605, 2.579123], [95.951833, 2.577535], [95.952665, 2.577123], [95.952945, 2.575647], [95.954421, 2.574487], [95.955057, 2.575123], [95.955076, 2.576123], [95.954231, 2.576933], [95.953982, 2.578684], [95.953287, 2.578989], [95.953083, 2.580785], [95.952316, 2.581018], [95.952128, 2.58183], [95.950296, 2.582123], [95.951147, 2.582397], [95.951322, 2.584223], [95.952112, 2.584433], [95.952313, 2.585232], [95.953077, 2.585468], [95.953421, 2.587321], [95.956679, 2.587381], [95.957314, 2.585123], [95.95762, 2.585123], [95.958112, 2.587433], [95.959708, 2.588123], [95.959417, 2.589123], [95.958046, 2.590123], [95.958638, 2.591123], [95.957421, 2.591662], [95.955421, 2.589874], [95.942368, 2.59007], [95.943253, 2.590292], [95.943289, 2.592256], [95.944171, 2.592373], [95.944313, 2.595123], [95.944204, 2.595906], [95.943323, 2.596123], [95.943197, 2.598899], [95.942345, 2.599047], [95.942181, 2.599883], [95.941337, 2.600039], [95.941156, 2.600858], [95.940271, 2.601123], [95.941072, 2.601472], [95.941247, 2.602123], [95.941019, 2.603721], [95.939977, 2.604123], [95.940751, 2.605123], [95.940421, 2.606174]]], "type": "Polygon"}, "type": "Feature"}], "type": "FeatureCollection"}