{"features": [{"properties": {"fill-opacity": 0.33, "fillColor": "#bf4040", "opacity": 0.33, "fill": "#bf4040", "fillOpacity": 0.33, "color": "#bf4040", "contour": 15.0, "metric": "time"}, "geometry": {"coordinates": [[[95.314229, 5.573331], [95.311229, 5.572572], [95.310229, 5.57277], [95.309488, 5.568303], [95.307613, 5.567919], [95.307421, 5.567303], [95.307229, 5.562193], [95.306158, 5.562232], [95.306008, 5.563082], [95.304158, 5.563232], [95.303994, 5.566068], [95.30044, 5.566091], [95.300229, 5.565205], [95.296323, 5.565208], [95.296202, 5.564276], [95.294869, 5.564943], [95.294632, 5.566706], [95.294229, 5.566766], [95.293546, 5.565986], [95.291783, 5.565749], [95.291401, 5.56413], [95.289694, 5.563837], [95.288356, 5.562175], [95.286581, 5.561951], [95.28634, 5.561192], [95.285543, 5.560989], [95.285331, 5.5602], [95.283512, 5.560019], [95.28332, 5.559211], [95.282505, 5.559027], [95.282505, 5.557579], [95.283317, 5.557391], [95.28335, 5.556303], [95.282485, 5.556046], [95.282362, 5.554303], [95.282494, 5.553568], [95.28333, 5.553404], [95.283559, 5.552633], [95.285229, 5.55245], [95.285503, 5.551577], [95.286318, 5.551392], [95.285492, 5.551039], [95.285331, 5.5492], [95.280229, 5.54903], [95.279229, 5.548019], [95.276229, 5.547825], [95.275229, 5.546724], [95.273395, 5.546303], [95.273727, 5.545303], [95.273179, 5.544303], [95.274788, 5.543862], [95.275229, 5.543228], [95.277229, 5.544886], [95.27788, 5.543954], [95.279538, 5.543612], [95.280426, 5.542303], [95.280662, 5.540303], [95.282545, 5.538303], [95.282283, 5.537303], [95.282942, 5.536016], [95.283229, 5.53579], [95.287439, 5.536513], [95.2877, 5.536303], [95.286838, 5.535303], [95.287336, 5.534303], [95.289229, 5.533305], [95.290196, 5.53227], [95.29247, 5.531543], [95.293229, 5.530029], [95.294229, 5.529896], [95.295229, 5.530974], [95.298229, 5.530139], [95.299229, 5.530996], [95.300229, 5.529955], [95.301826, 5.5299], [95.303229, 5.528113], [95.304734, 5.530303], [95.307229, 5.530933], [95.310236, 5.533295], [95.310626, 5.534303], [95.30971, 5.535303], [95.310229, 5.53602], [95.313229, 5.53563], [95.314229, 5.536055], [95.315229, 5.535721], [95.316229, 5.536026], [95.316288, 5.537362], [95.315673, 5.538303], [95.316946, 5.539303], [95.317206, 5.540303], [95.3162, 5.542303], [95.320229, 5.542972], [95.321229, 5.542649], [95.323631, 5.544901], [95.32435, 5.546303], [95.321032, 5.550303], [95.323229, 5.550717], [95.323943, 5.550303], [95.324229, 5.549352], [95.3249, 5.549631], [95.325719, 5.550812], [95.326591, 5.551303], [95.325681, 5.551755], [95.325295, 5.553303], [95.326553, 5.555303], [95.325229, 5.556103], [95.324114, 5.556188], [95.324063, 5.556468], [95.325229, 5.556455], [95.325688, 5.557303], [95.323464, 5.558303], [95.324297, 5.559371], [95.324153, 5.562303], [95.320384, 5.565303], [95.319229, 5.565574], [95.318229, 5.565134], [95.317999, 5.567532], [95.318646, 5.567885], [95.31973, 5.569801], [95.320341, 5.570191], [95.320392, 5.57114], [95.321065, 5.571303], [95.319229, 5.5722], [95.315229, 5.572772], [95.314229, 5.573331]]], "type": "Polygon"}, "type": "Feature"}], "type": "FeatureCollection"}