{"features": [{"properties": {"fill-opacity": 0.33, "fillColor": "#bf4040", "opacity": 0.33, "fill": "#bf4040", "fillOpacity": 0.33, "color": "#bf4040", "contour": 15.0, "metric": "time"}, "geometry": {"coordinates": [[[97.554007, 2.92535], [97.55326, 2.925223], [97.553085, 2.923398], [97.551231, 2.923252], [97.551079, 2.921404], [97.549251, 2.921232], [97.549007, 2.920344], [97.54632, 2.920163], [97.546007, 2.919299], [97.544007, 2.91925], [97.543007, 2.918204], [97.540472, 2.918011], [97.539617, 2.916866], [97.539695, 2.916164], [97.541007, 2.915905], [97.541754, 2.916729], [97.54454, 2.916943], [97.545007, 2.917675], [97.547678, 2.917805], [97.548007, 2.918619], [97.550758, 2.918725], [97.551007, 2.919588], [97.551068, 2.918415], [97.550191, 2.918292], [97.550191, 2.91666], [97.551067, 2.916536], [97.551183, 2.915652], [97.553062, 2.915531], [97.553169, 2.914638], [97.555073, 2.914476], [97.555051, 2.913432], [97.554143, 2.91334], [97.554053, 2.91243], [97.553149, 2.912334], [97.553078, 2.911476], [97.55309, 2.905476], [97.553172, 2.904641], [97.554093, 2.904476], [97.554077, 2.900406], [97.553744, 2.902213], [97.552867, 2.902476], [97.552711, 2.90418], [97.55185, 2.904476], [97.551598, 2.909067], [97.549432, 2.909051], [97.549432, 2.907901], [97.550197, 2.907476], [97.550316, 2.902785], [97.551105, 2.902574], [97.55127, 2.900739], [97.552132, 2.900476], [97.550266, 2.900217], [97.550096, 2.899387], [97.549007, 2.899333], [97.54867, 2.901139], [97.547892, 2.901361], [97.547647, 2.902116], [97.546367, 2.902116], [97.546349, 2.899818], [97.547117, 2.899586], [97.547309, 2.897778], [97.548167, 2.897476], [97.548161, 2.896322], [97.545596, 2.895887], [97.545359, 2.894476], [97.546224, 2.893693], [97.546231, 2.893252], [97.544668, 2.891815], [97.544393, 2.89109], [97.542961, 2.890522], [97.543007, 2.889665], [97.543212, 2.890271], [97.545263, 2.89022], [97.547007, 2.891805], [97.547383, 2.890852], [97.548007, 2.890664], [97.551007, 2.89064], [97.55168, 2.890803], [97.552007, 2.89165], [97.553634, 2.891849], [97.55382, 2.892476], [97.553634, 2.893103], [97.552896, 2.893365], [97.552871, 2.894476], [97.555726, 2.894757], [97.555726, 2.896195], [97.553884, 2.896476], [97.554763, 2.89672], [97.554896, 2.898476], [97.555799, 2.898684], [97.556007, 2.899575], [97.556224, 2.898693], [97.557081, 2.89855], [97.557237, 2.897706], [97.558086, 2.897555], [97.55825, 2.896719], [97.560095, 2.896564], [97.560214, 2.893476], [97.560421, 2.89289], [97.5613, 2.892476], [97.561241, 2.890476], [97.562007, 2.88971], [97.563007, 2.890683], [97.564007, 2.889753], [97.566007, 2.889699], [97.567007, 2.890714], [97.568007, 2.889819], [97.569007, 2.889864], [97.571007, 2.891925], [97.574081, 2.892402], [97.574007, 2.89282], [97.570007, 2.893027], [97.569007, 2.892138], [97.568521, 2.89399], [97.568007, 2.894233], [97.564007, 2.894304], [97.563692, 2.895161], [97.562863, 2.895476], [97.562696, 2.898165], [97.561907, 2.898376], [97.561672, 2.899141], [97.560823, 2.899476], [97.56058, 2.902049], [97.558443, 2.90204], [97.558443, 2.900912], [97.559205, 2.900476], [97.559007, 2.899358], [97.558788, 2.900257], [97.557935, 2.900404], [97.557798, 2.901267], [97.55694, 2.901409], [97.55681, 2.902279], [97.555944, 2.902413], [97.555839, 2.906308], [97.554927, 2.906476], [97.554935, 2.910476], [97.555869, 2.910614], [97.555962, 2.911521], [97.557878, 2.911605], [97.557965, 2.912518], [97.558881, 2.912602], [97.558961, 2.914522], [97.561857, 2.914626], [97.561932, 2.915476], [97.561857, 2.916326], [97.55896, 2.916429], [97.558863, 2.917332], [97.555157, 2.917326], [97.555007, 2.916398], [97.554839, 2.917308], [97.552949, 2.917418], [97.552942, 2.918541], [97.553804, 2.918679], [97.553904, 2.920476], [97.5538, 2.92127], [97.5529, 2.921476], [97.554768, 2.921715], [97.554888, 2.922476], [97.554754, 2.925223], [97.554007, 2.92535]]], "type": "Polygon"}, "type": "Feature"}], "type": "FeatureCollection"}