{"features": [{"properties": {"fill-opacity": 0.33, "fillColor": "#bf4040", "opacity": 0.33, "fill": "#bf4040", "fillOpacity": 0.33, "color": "#bf4040", "contour": 15.0, "metric": "time"}, "geometry": {"coordinates": [[[97.83446, 2.710171], [97.833732, 2.710035], [97.83346, 2.709177], [97.828788, 2.708979], [97.828574, 2.708193], [97.825876, 2.707891], [97.82546, 2.707082], [97.81946, 2.706856], [97.81882, 2.707308], [97.818568, 2.708417], [97.81746, 2.70868], [97.817366, 2.708308], [97.818034, 2.707883], [97.818003, 2.705851], [97.81846, 2.705314], [97.81946, 2.705759], [97.821673, 2.705521], [97.822022, 2.70187], [97.82246, 2.701819], [97.822948, 2.702308], [97.823262, 2.705506], [97.82646, 2.70552], [97.827035, 2.705732], [97.82746, 2.706498], [97.83011, 2.706657], [97.83046, 2.707463], [97.833544, 2.707392], [97.833706, 2.706555], [97.834573, 2.706308], [97.834679, 2.704527], [97.835564, 2.704308], [97.835654, 2.701502], [97.836552, 2.701308], [97.836629, 2.697477], [97.837515, 2.697363], [97.837621, 2.69647], [97.838513, 2.696361], [97.838613, 2.694461], [97.839532, 2.694308], [97.839603, 2.692451], [97.840528, 2.692308], [97.840594, 2.690442], [97.841526, 2.690308], [97.841506, 2.689261], [97.8406, 2.689167], [97.840511, 2.686256], [97.839618, 2.686149], [97.839542, 2.683308], [97.838636, 2.683132], [97.838666, 2.676514], [97.84046, 2.676412], [97.84068, 2.675529], [97.84146, 2.675418], [97.842239, 2.675529], [97.84246, 2.676422], [97.845208, 2.676559], [97.84546, 2.67744], [97.85046, 2.677485], [97.850637, 2.677131], [97.850037, 2.67673], [97.84946, 2.675008], [97.850752, 2.675015], [97.85246, 2.676516], [97.852964, 2.674813], [97.854652, 2.674501], [97.85546, 2.673616], [97.857246, 2.673308], [97.85746, 2.671873], [97.859107, 2.67366], [97.860618, 2.674149], [97.86046, 2.675152], [97.85946, 2.674744], [97.85646, 2.67496], [97.855926, 2.675774], [97.854292, 2.67614], [97.853999, 2.677847], [97.852326, 2.678174], [97.85208, 2.678928], [97.84446, 2.67918], [97.843714, 2.679053], [97.84346, 2.678187], [97.840392, 2.67824], [97.840401, 2.681366], [97.842285, 2.681482], [97.842285, 2.683133], [97.841377, 2.683308], [97.842298, 2.68347], [97.842411, 2.686356], [97.842608, 2.685456], [97.8463, 2.685467], [97.846404, 2.687363], [97.84729, 2.687477], [97.847402, 2.688366], [97.848281, 2.688487], [97.848273, 2.692121], [97.846646, 2.692121], [97.84646, 2.690221], [97.84633, 2.691178], [97.845417, 2.691265], [97.845334, 2.692182], [97.842415, 2.692263], [97.842318, 2.694166], [97.841387, 2.694308], [97.84131, 2.696158], [97.840382, 2.696308], [97.840299, 2.698147], [97.839405, 2.698253], [97.839293, 2.699141], [97.838373, 2.699308], [97.838267, 2.703115], [97.837359, 2.703308], [97.837242, 2.706091], [97.836386, 2.706234], [97.836221, 2.708069], [97.835378, 2.708226], [97.835187, 2.710035], [97.83446, 2.710171]]], "type": "Polygon"}, "type": "Feature"}], "type": "FeatureCollection"}