{"features": [{"properties": {"fill-opacity": 0.33, "fillColor": "#bf4040", "opacity": 0.33, "fill": "#bf4040", "fillOpacity": 0.33, "color": "#bf4040", "contour": 15.0, "metric": "time"}, "geometry": {"coordinates": [[[95.303062, 5.242128], [95.302503, 5.241127], [95.301618, 5.241012], [95.30054, 5.240089], [95.300228, 5.238402], [95.299358, 5.238271], [95.299201, 5.237429], [95.296272, 5.237357], [95.296062, 5.236476], [95.295009, 5.236513], [95.294906, 5.237411], [95.287207, 5.237423], [95.287115, 5.235515], [95.285243, 5.235386], [95.285131, 5.233499], [95.283305, 5.233325], [95.283149, 5.232481], [95.282355, 5.232274], [95.282169, 5.231461], [95.281432, 5.231198], [95.281062, 5.23037], [95.274062, 5.230012], [95.273062, 5.230821], [95.272008, 5.230622], [95.272861, 5.229366], [95.275062, 5.229017], [95.2754, 5.228567], [95.273752, 5.227877], [95.273062, 5.226901], [95.271736, 5.226567], [95.272062, 5.226113], [95.274431, 5.225936], [95.275062, 5.223971], [95.275576, 5.226567], [95.27633, 5.226835], [95.277062, 5.223231], [95.277873, 5.228757], [95.279314, 5.227567], [95.2784, 5.226567], [95.27866, 5.225165], [95.280479, 5.22515], [95.280886, 5.226743], [95.282649, 5.227981], [95.282932, 5.228698], [95.283672, 5.228957], [95.283969, 5.230661], [95.284813, 5.230817], [95.284984, 5.231646], [95.28685, 5.23178], [95.287003, 5.233626], [95.288902, 5.233728], [95.289015, 5.235614], [95.293062, 5.235639], [95.293222, 5.234727], [95.297862, 5.234767], [95.298062, 5.23568], [95.299802, 5.235828], [95.299924, 5.236706], [95.300767, 5.236863], [95.300897, 5.237732], [95.301689, 5.237941], [95.302062, 5.238854], [95.303302, 5.238328], [95.303651, 5.239567], [95.302622, 5.241008], [95.303415, 5.241567], [95.303062, 5.242128]]], "type": "Polygon"}, "type": "Feature"}], "type": "FeatureCollection"}