{"features": [{"properties": {"fill-opacity": 0.33, "fillColor": "#bf4040", "opacity": 0.33, "fill": "#bf4040", "fillOpacity": 0.33, "color": "#bf4040", "contour": 15.0, "metric": "time"}, "geometry": {"coordinates": [[[98.042463, 2.649215], [98.041463, 2.649755], [98.039463, 2.647715], [98.038933, 2.648132], [98.039014, 2.648582], [98.039463, 2.648912], [98.039888, 2.648708], [98.039788, 2.649457], [98.038463, 2.649726], [98.037869, 2.648726], [98.035031, 2.646565], [98.034659, 2.644936], [98.033079, 2.644516], [98.032463, 2.643648], [98.031193, 2.643402], [98.030914, 2.642681], [98.029747, 2.642132], [98.031463, 2.641806], [98.032463, 2.642617], [98.033692, 2.642361], [98.034728, 2.641132], [98.033781, 2.640132], [98.034009, 2.639678], [98.03661, 2.63928], [98.035699, 2.638132], [98.036463, 2.637368], [98.03802, 2.637575], [98.03863, 2.638299], [98.038596, 2.636132], [98.036774, 2.635821], [98.036631, 2.633965], [98.035815, 2.63378], [98.035648, 2.632947], [98.033884, 2.632712], [98.033463, 2.631899], [98.030463, 2.634689], [98.029463, 2.634689], [98.028463, 2.633578], [98.027463, 2.633845], [98.026369, 2.633132], [98.029463, 2.632614], [98.030043, 2.631713], [98.031726, 2.631132], [98.031673, 2.628922], [98.031121, 2.628474], [98.028988, 2.628132], [98.029878, 2.627132], [98.028482, 2.625132], [98.030463, 2.624653], [98.031218, 2.626132], [98.031208, 2.627387], [98.032215, 2.627132], [98.032463, 2.62624], [98.03271, 2.627132], [98.033463, 2.627617], [98.035875, 2.62772], [98.036147, 2.630132], [98.035325, 2.63127], [98.036073, 2.631523], [98.036278, 2.632318], [98.037111, 2.632485], [98.037295, 2.6333], [98.038142, 2.633453], [98.03836, 2.634235], [98.040176, 2.634419], [98.040463, 2.635258], [98.040702, 2.634372], [98.041463, 2.634252], [98.048275, 2.63432], [98.048463, 2.635219], [98.048626, 2.634296], [98.049543, 2.634212], [98.051306, 2.634289], [98.051463, 2.635208], [98.059463, 2.635196], [98.05961, 2.63028], [98.061514, 2.630184], [98.061622, 2.629292], [98.062517, 2.629187], [98.062631, 2.6283], [98.06352, 2.628189], [98.063637, 2.627307], [98.065288, 2.627307], [98.065294, 2.629963], [98.064407, 2.630077], [98.0643, 2.63097], [98.06341, 2.63108], [98.063309, 2.631979], [98.061391, 2.632132], [98.061394, 2.634132], [98.062328, 2.634267], [98.062395, 2.635132], [98.062328, 2.635997], [98.061419, 2.636088], [98.061333, 2.637002], [98.055463, 2.637065], [98.055324, 2.637994], [98.054463, 2.638063], [98.053602, 2.637994], [98.053463, 2.637061], [98.052413, 2.637082], [98.052308, 2.637978], [98.04962, 2.637975], [98.049377, 2.637046], [98.047463, 2.637043], [98.047269, 2.637939], [98.045656, 2.637939], [98.045463, 2.636032], [98.042463, 2.636018], [98.042218, 2.636888], [98.040375, 2.637045], [98.041174, 2.637421], [98.041463, 2.638301], [98.043102, 2.638493], [98.043331, 2.639264], [98.044026, 2.639569], [98.044296, 2.6413], [98.045189, 2.642132], [98.045138, 2.644132], [98.044079, 2.645132], [98.04492, 2.646132], [98.044985, 2.64761], [98.045803, 2.648132], [98.043463, 2.648516], [98.04331, 2.648132], [98.044036, 2.647132], [98.042463, 2.645805], [98.040991, 2.647132], [98.042463, 2.649215]]], "type": "Polygon"}, "type": "Feature"}], "type": "FeatureCollection"}