{"features": [{"properties": {"fill-opacity": 0.33, "fillColor": "#bf4040", "opacity": 0.33, "fill": "#bf4040", "fillOpacity": 0.33, "color": "#bf4040", "contour": 15.0, "metric": "time"}, "geometry": {"coordinates": [[[96.353574, 4.473117], [96.351746, 4.473032], [96.35163, 4.472148], [96.350738, 4.47204], [96.350628, 4.471151], [96.349732, 4.471046], [96.349574, 4.470129], [96.345714, 4.470064], [96.34562, 4.469158], [96.343708, 4.469071], [96.343618, 4.468161], [96.342701, 4.468077], [96.342616, 4.467162], [96.341701, 4.467078], [96.341617, 4.466161], [96.340707, 4.466072], [96.340641, 4.464204], [96.339714, 4.464064], [96.339647, 4.461204], [96.338726, 4.461052], [96.338627, 4.459151], [96.336741, 4.459037], [96.336631, 4.458147], [96.335749, 4.458029], [96.335633, 4.457145], [96.334756, 4.457022], [96.334637, 4.456141], [96.333768, 4.456011], [96.333641, 4.455137], [96.332782, 4.454996], [96.332689, 4.451204], [96.331817, 4.450962], [96.331663, 4.449115], [96.33085, 4.448928], [96.330679, 4.446099], [96.328931, 4.445847], [96.32844, 4.44507], [96.328318, 4.447204], [96.327574, 4.447947], [96.320038, 4.447204], [96.326574, 4.446487], [96.326785, 4.445204], [96.325068, 4.44471], [96.324574, 4.443933], [96.318044, 4.443204], [96.319929, 4.442559], [96.319983, 4.441795], [96.319504, 4.441274], [96.319574, 4.439838], [96.320081, 4.440698], [96.320861, 4.440917], [96.32231, 4.442468], [96.325574, 4.442469], [96.326574, 4.443426], [96.329574, 4.443385], [96.330212, 4.443567], [96.330458, 4.44432], [96.332259, 4.44452], [96.332433, 4.447204], [96.333305, 4.447473], [96.333493, 4.449286], [96.334334, 4.449444], [96.334469, 4.453204], [96.335372, 4.453406], [96.335509, 4.454269], [96.336383, 4.454396], [96.336513, 4.455265], [96.337398, 4.45538], [96.337517, 4.456262], [96.338406, 4.456372], [96.338519, 4.457259], [96.340415, 4.457364], [96.340497, 4.459204], [96.341425, 4.459354], [96.341504, 4.462204], [96.342438, 4.462341], [96.34253, 4.464248], [96.343446, 4.464333], [96.343532, 4.465246], [96.344449, 4.46533], [96.344532, 4.466247], [96.345445, 4.466333], [96.34553, 4.467248], [96.347437, 4.467342], [96.347574, 4.468275], [96.351421, 4.468358], [96.351522, 4.469256], [96.352415, 4.469363], [96.35252, 4.470258], [96.353408, 4.470371], [96.353517, 4.471261], [96.3544, 4.471378], [96.3544, 4.47303], [96.353574, 4.473117]]], "type": "Polygon"}, "type": "Feature"}], "type": "FeatureCollection"}