{"features": [{"properties": {"fill-opacity": 0.33, "fillColor": "#bf4040", "opacity": 0.33, "fill": "#bf4040", "fillOpacity": 0.33, "color": "#bf4040", "contour": 15.0, "metric": "time"}, "geometry": {"coordinates": [[[97.364263, 3.938752], [97.363023, 3.938666], [97.363686, 3.937849], [97.363711, 3.936426], [97.36157, 3.934426], [97.361641, 3.932426], [97.36112, 3.931426], [97.361493, 3.930197], [97.36051, 3.929426], [97.360746, 3.927909], [97.361465, 3.927426], [97.36049, 3.926426], [97.360538, 3.924426], [97.361263, 3.923701], [97.362263, 3.923694], [97.362379, 3.922426], [97.361185, 3.922349], [97.361013, 3.923177], [97.360172, 3.923336], [97.359968, 3.924132], [97.356104, 3.924267], [97.356038, 3.924652], [97.357478, 3.926426], [97.357263, 3.927582], [97.354263, 3.925071], [97.352263, 3.92492], [97.351889, 3.924426], [97.352263, 3.923117], [97.352882, 3.923807], [97.354263, 3.923782], [97.355694, 3.921857], [97.356263, 3.921642], [97.356832, 3.921857], [97.357133, 3.922557], [97.358263, 3.922584], [97.358539, 3.921702], [97.359386, 3.921426], [97.358443, 3.921246], [97.358263, 3.920345], [97.358091, 3.921254], [97.35545, 3.92124], [97.355339, 3.919426], [97.354404, 3.919285], [97.354309, 3.918381], [97.352392, 3.918298], [97.352389, 3.915553], [97.354137, 3.915553], [97.354263, 3.916492], [97.356126, 3.916563], [97.356216, 3.917474], [97.357116, 3.917574], [97.357213, 3.918477], [97.36009, 3.918599], [97.360204, 3.919486], [97.362069, 3.91962], [97.362263, 3.920531], [97.362504, 3.919667], [97.363347, 3.91951], [97.363528, 3.918691], [97.364998, 3.918691], [97.365354, 3.919517], [97.365546, 3.918709], [97.366362, 3.918525], [97.366574, 3.917737], [97.36737, 3.917533], [97.367593, 3.916756], [97.368381, 3.916544], [97.368632, 3.915795], [97.369396, 3.915559], [97.369689, 3.914852], [97.370488, 3.914651], [97.370263, 3.913843], [97.369319, 3.913426], [97.36969, 3.912853], [97.371263, 3.912858], [97.372263, 3.912055], [97.373263, 3.912257], [97.372882, 3.913426], [97.373263, 3.914718], [97.374512, 3.914675], [97.375263, 3.913835], [97.376263, 3.91493], [97.378689, 3.915426], [97.372263, 3.91615], [97.371038, 3.915202], [97.370861, 3.917024], [97.370138, 3.917301], [97.369901, 3.918064], [97.36915, 3.918314], [97.368939, 3.919102], [97.368116, 3.919426], [97.369731, 3.919959], [97.369964, 3.920426], [97.369824, 3.921987], [97.369263, 3.923143], [97.368453, 3.921236], [97.367263, 3.921236], [97.366953, 3.922116], [97.366113, 3.922277], [97.364552, 3.922137], [97.364183, 3.921347], [97.364178, 3.923512], [97.365965, 3.923724], [97.366113, 3.925426], [97.366929, 3.925761], [97.367096, 3.926426], [97.366919, 3.929082], [97.365607, 3.929082], [97.365263, 3.928267], [97.364932, 3.929095], [97.364081, 3.929426], [97.363917, 3.934426], [97.364833, 3.935426], [97.364589, 3.938426], [97.364263, 3.938752]]], "type": "Polygon"}, "type": "Feature"}], "type": "FeatureCollection"}