{"features": [{"properties": {"fill-opacity": 0.33, "fillColor": "#bf4040", "opacity": 0.33, "fill": "#bf4040", "fillOpacity": 0.33, "color": "#bf4040", "contour": 15.0, "metric": "time"}, "geometry": {"coordinates": [[[95.40332, 5.601966], [95.40232, 5.601907], [95.40132, 5.601128], [95.399133, 5.60102], [95.397793, 5.601306], [95.397245, 5.601908], [95.396683, 5.60047], [95.39532, 5.600296], [95.393921, 5.600433], [95.39332, 5.601595], [95.392703, 5.600833], [95.392643, 5.599833], [95.394573, 5.598085], [95.394542, 5.597611], [95.392956, 5.597468], [95.39232, 5.598719], [95.391463, 5.59869], [95.39129, 5.597863], [95.392017, 5.59753], [95.392093, 5.596606], [95.393748, 5.594833], [95.39332, 5.594343], [95.392077, 5.594076], [95.391458, 5.592833], [95.39232, 5.592507], [95.392928, 5.593225], [95.393606, 5.593118], [95.393655, 5.590498], [95.391487, 5.589833], [95.391445, 5.588833], [95.39232, 5.588247], [95.393513, 5.58864], [95.39432, 5.589445], [95.396544, 5.588833], [95.393026, 5.585127], [95.392809, 5.583344], [95.392002, 5.582833], [95.39332, 5.582625], [95.393663, 5.582175], [95.39373, 5.581423], [95.392981, 5.580833], [95.39332, 5.580101], [95.394525, 5.580038], [95.39532, 5.578659], [95.397532, 5.579621], [95.39795, 5.580203], [95.400554, 5.580066], [95.401062, 5.577833], [95.40232, 5.576033], [95.402723, 5.57643], [95.40432, 5.576617], [95.405312, 5.577841], [95.405074, 5.581833], [95.403896, 5.583408], [95.403131, 5.583833], [95.40399, 5.584163], [95.404218, 5.584935], [95.405411, 5.584923], [95.405606, 5.584118], [95.40732, 5.583977], [95.407613, 5.583126], [95.40832, 5.582979], [95.41232, 5.583017], [95.412952, 5.583202], [95.41332, 5.584031], [95.414893, 5.584261], [95.414893, 5.585405], [95.41432, 5.585619], [95.41171, 5.585444], [95.41132, 5.58466], [95.409225, 5.584737], [95.409049, 5.586561], [95.408198, 5.586833], [95.409101, 5.587053], [95.409257, 5.590896], [95.41516, 5.590993], [95.41532, 5.591909], [95.422191, 5.591962], [95.422256, 5.592833], [95.422195, 5.595707], [95.419445, 5.595708], [95.419445, 5.593958], [95.42032, 5.593767], [95.41832, 5.593763], [95.418177, 5.594689], [95.416464, 5.594689], [95.416369, 5.593784], [95.413477, 5.593676], [95.41332, 5.592752], [95.407513, 5.592641], [95.407387, 5.590766], [95.40523, 5.590742], [95.404976, 5.592488], [95.402159, 5.592833], [95.402187, 5.593966], [95.403833, 5.59432], [95.404066, 5.596833], [95.405024, 5.597833], [95.404975, 5.598833], [95.403937, 5.599833], [95.403648, 5.601833], [95.40332, 5.601966]]], "type": "Polygon"}, "type": "Feature"}], "type": "FeatureCollection"}