{"features": [{"properties": {"fill-opacity": 0.33, "fillColor": "#bf4040", "opacity": 0.33, "fill": "#bf4040", "fillOpacity": 0.33, "color": "#bf4040", "contour": 15.0, "metric": "time"}, "geometry": {"coordinates": [[[96.939292, 4.056302], [96.935568, 4.056189], [96.935381, 4.055375], [96.934549, 4.055208], [96.934292, 4.054344], [96.933292, 4.054349], [96.93307, 4.055242], [96.932292, 4.055353], [96.931515, 4.055242], [96.931292, 4.054359], [96.930227, 4.054399], [96.930101, 4.055273], [96.92546, 4.055296], [96.925459, 4.052631], [96.926371, 4.052464], [96.926364, 4.049464], [96.92443, 4.049327], [96.924337, 4.04842], [96.923422, 4.048334], [96.923335, 4.047421], [96.922418, 4.047338], [96.922336, 4.045421], [96.920429, 4.045328], [96.920341, 4.042415], [96.918446, 4.04231], [96.918446, 4.040618], [96.919346, 4.040411], [96.918456, 4.0403], [96.918348, 4.039408], [96.917464, 4.039292], [96.917353, 4.038403], [96.916483, 4.038273], [96.916358, 4.037399], [96.915492, 4.037264], [96.915361, 4.036395], [96.914503, 4.036253], [96.914373, 4.033383], [96.904292, 4.033182], [96.903574, 4.032464], [96.903292, 4.031109], [96.902292, 4.032004], [96.900872, 4.031464], [96.901123, 4.030295], [96.904292, 4.029798], [96.904737, 4.03002], [96.905292, 4.031714], [96.908292, 4.031657], [96.908646, 4.030818], [96.909464, 4.030636], [96.91096, 4.030797], [96.911292, 4.031619], [96.911608, 4.03078], [96.912292, 4.030622], [96.912976, 4.03078], [96.913292, 4.031598], [96.917045, 4.031712], [96.917045, 4.033217], [96.916212, 4.033384], [96.916221, 4.034535], [96.917083, 4.034673], [96.917225, 4.035532], [96.918094, 4.035662], [96.918229, 4.036528], [96.920112, 4.036644], [96.920209, 4.038464], [96.921131, 4.038626], [96.921242, 4.040515], [96.922145, 4.040612], [96.922244, 4.041513], [96.923149, 4.041607], [96.923225, 4.043464], [96.924162, 4.043594], [96.92425, 4.045507], [96.925163, 4.045594], [96.925292, 4.04653], [96.927156, 4.046601], [96.927246, 4.047511], [96.928149, 4.047607], [96.928292, 4.052557], [96.936039, 4.052718], [96.936205, 4.053551], [96.93702, 4.053736], [96.9372, 4.054557], [96.938292, 4.054615], [96.938648, 4.05282], [96.939416, 4.052588], [96.93968, 4.051852], [96.940292, 4.051658], [96.94687, 4.051887], [96.950061, 4.052464], [96.949292, 4.053536], [96.948292, 4.052913], [96.943292, 4.05321], [96.941292, 4.055198], [96.940175, 4.054347], [96.939968, 4.05614], [96.939292, 4.056302]]], "type": "Polygon"}, "type": "Feature"}], "type": "FeatureCollection"}