{"features": [{"properties": {"fill-opacity": 0.33, "fillColor": "#bf4040", "opacity": 0.33, "fill": "#bf4040", "fillOpacity": 0.33, "color": "#bf4040", "contour": 15.0, "metric": "time"}, "geometry": {"coordinates": [[[95.308758, 5.563709], [95.307758, 5.563739], [95.306758, 5.562318], [95.304758, 5.562193], [95.304131, 5.557822], [95.302262, 5.557318], [95.301758, 5.556602], [95.300605, 5.556669], [95.299758, 5.557573], [95.297554, 5.557618], [95.297758, 5.558376], [95.29905, 5.558822], [95.298091, 5.559822], [95.297758, 5.561148], [95.297108, 5.559472], [95.295758, 5.559434], [95.295299, 5.559822], [95.296121, 5.560822], [95.296041, 5.561822], [95.294758, 5.562334], [95.294665, 5.561915], [95.293122, 5.561822], [95.292758, 5.560633], [95.289758, 5.560758], [95.287883, 5.558822], [95.287448, 5.556822], [95.287055, 5.556525], [95.285562, 5.556626], [95.285308, 5.557822], [95.285524, 5.559056], [95.286758, 5.559344], [95.286791, 5.560822], [95.286695, 5.560759], [95.286474, 5.560106], [95.284483, 5.560097], [95.282252, 5.557822], [95.28311, 5.556822], [95.282351, 5.556229], [95.282083, 5.554822], [95.284272, 5.552336], [95.285889, 5.551953], [95.285863, 5.549717], [95.283129, 5.549451], [95.282758, 5.548622], [95.281758, 5.549538], [95.280758, 5.549552], [95.27992, 5.54866], [95.278198, 5.548382], [95.277758, 5.547599], [95.272758, 5.547386], [95.272194, 5.546822], [95.27212, 5.54546], [95.271113, 5.544467], [95.269758, 5.544495], [95.269008, 5.543822], [95.269664, 5.542728], [95.270758, 5.54341], [95.273758, 5.5432], [95.274027, 5.542822], [95.274214, 5.538822], [95.275191, 5.537822], [95.273758, 5.53722], [95.27236, 5.534822], [95.270486, 5.533822], [95.271758, 5.531461], [95.273195, 5.531259], [95.273469, 5.530822], [95.272806, 5.529774], [95.27139, 5.528822], [95.271603, 5.526822], [95.272515, 5.526579], [95.273758, 5.52499], [95.274758, 5.526253], [95.275176, 5.524822], [95.274837, 5.523822], [95.275554, 5.522618], [95.277046, 5.52311], [95.277226, 5.522354], [95.276758, 5.521704], [95.278957, 5.522022], [95.279758, 5.52078], [95.280919, 5.520822], [95.282758, 5.518723], [95.283444, 5.518509], [95.284758, 5.518754], [95.286758, 5.518098], [95.287358, 5.519222], [95.288364, 5.519429], [95.288894, 5.516822], [95.289758, 5.515327], [95.291758, 5.51529], [95.292758, 5.515813], [95.294758, 5.515607], [95.298641, 5.512705], [95.299758, 5.512663], [95.300758, 5.51319], [95.302758, 5.51051], [95.304201, 5.511379], [95.309407, 5.516173], [95.309854, 5.516822], [95.309622, 5.517959], [95.310369, 5.519211], [95.312005, 5.520575], [95.315899, 5.522681], [95.317209, 5.524371], [95.318253, 5.524822], [95.318501, 5.526079], [95.319617, 5.526822], [95.319255, 5.527822], [95.320042, 5.529822], [95.319574, 5.530822], [95.320081, 5.533499], [95.321212, 5.534822], [95.323948, 5.536822], [95.322944, 5.538822], [95.324908, 5.540822], [95.324453, 5.543822], [95.326583, 5.545822], [95.326386, 5.546822], [95.323923, 5.548822], [95.323961, 5.550822], [95.32351, 5.551574], [95.322751, 5.551815], [95.322759, 5.552823], [95.321852, 5.552917], [95.320758, 5.554046], [95.319758, 5.554233], [95.318112, 5.556176], [95.317552, 5.557616], [95.316642, 5.557707], [95.316455, 5.559519], [95.315758, 5.560815], [95.310758, 5.561533], [95.309382, 5.562447], [95.308758, 5.563709]]], "type": "Polygon"}, "type": "Feature"}], "type": "FeatureCollection"}