{"features": [{"properties": {"fill-opacity": 0.33, "fillColor": "#bf4040", "opacity": 0.33, "fill": "#bf4040", "fillOpacity": 0.33, "color": "#bf4040", "contour": 15.0, "metric": "time"}, "geometry": {"coordinates": [[[95.858882, 2.657229], [95.858008, 2.657166], [95.858021, 2.652431], [95.858955, 2.652292], [95.858041, 2.652133], [95.857882, 2.649197], [95.856078, 2.649095], [95.855882, 2.648189], [95.855663, 2.649073], [95.8541, 2.649073], [95.853954, 2.648219], [95.852882, 2.648176], [95.852587, 2.649997], [95.85178, 2.650191], [95.851558, 2.650969], [95.848882, 2.651091], [95.848283, 2.65089], [95.848283, 2.649693], [95.849989, 2.649399], [95.850176, 2.648586], [95.850976, 2.648386], [95.851003, 2.647292], [95.849151, 2.647022], [95.848974, 2.6462], [95.847185, 2.645988], [95.846882, 2.645131], [95.844253, 2.644921], [95.843882, 2.644093], [95.840882, 2.644031], [95.839882, 2.644969], [95.837757, 2.645167], [95.836025, 2.646435], [95.835046, 2.646456], [95.834882, 2.646777], [95.834816, 2.646227], [95.835465, 2.645292], [95.834779, 2.644292], [95.835432, 2.643842], [95.838882, 2.643624], [95.839413, 2.642823], [95.84105, 2.64246], [95.841078, 2.642096], [95.839017, 2.640292], [95.838666, 2.639507], [95.838882, 2.638747], [95.839882, 2.638372], [95.840576, 2.639598], [95.843418, 2.641755], [95.843738, 2.642436], [95.845497, 2.642676], [95.845882, 2.643463], [95.847991, 2.643401], [95.848258, 2.638292], [95.848882, 2.637669], [95.849505, 2.638292], [95.849714, 2.644292], [95.850605, 2.644568], [95.850793, 2.645381], [95.85263, 2.645543], [95.852882, 2.646408], [95.858685, 2.646488], [95.858882, 2.647381], [95.859079, 2.64649], [95.861882, 2.646396], [95.862103, 2.645513], [95.864882, 2.645411], [95.865136, 2.644547], [95.867979, 2.644389], [95.868216, 2.642627], [95.869547, 2.642627], [95.869882, 2.643449], [95.872006, 2.643416], [95.872057, 2.642116], [95.871408, 2.641765], [95.869555, 2.639292], [95.869738, 2.638148], [95.873363, 2.64081], [95.873882, 2.642493], [95.876071, 2.640481], [95.876221, 2.639292], [95.877284, 2.638292], [95.877544, 2.636954], [95.878882, 2.635929], [95.880252, 2.635922], [95.880749, 2.636292], [95.87948, 2.63689], [95.879204, 2.637614], [95.878572, 2.637982], [95.878494, 2.639292], [95.877655, 2.640065], [95.877358, 2.641768], [95.874742, 2.644152], [95.874635, 2.645292], [95.875592, 2.646292], [95.875355, 2.646765], [95.872574, 2.646984], [95.872639, 2.648534], [95.873882, 2.648788], [95.874134, 2.649292], [95.871661, 2.650072], [95.870989, 2.6524], [95.869882, 2.65265], [95.867922, 2.651292], [95.869882, 2.650739], [95.870213, 2.650292], [95.870075, 2.647292], [95.869218, 2.646955], [95.868985, 2.646189], [95.866882, 2.646161], [95.866633, 2.647043], [95.863882, 2.647179], [95.863665, 2.648075], [95.860816, 2.648226], [95.860691, 2.649101], [95.859797, 2.649292], [95.859829, 2.650344], [95.860728, 2.650445], [95.860741, 2.654151], [95.859836, 2.654246], [95.859755, 2.657166], [95.858882, 2.657229]]], "type": "Polygon"}, "type": "Feature"}], "type": "FeatureCollection"}