{"features": [{"properties": {"fill-opacity": 0.33, "fillColor": "#bf4040", "opacity": 0.33, "fill": "#bf4040", "fillOpacity": 0.33, "color": "#bf4040", "contour": 15.0, "metric": "time"}, "geometry": {"coordinates": [[[97.258787, 4.957751], [97.258419, 4.956704], [97.260135, 4.954704], [97.260096, 4.953704], [97.259301, 4.953191], [97.25894, 4.951551], [97.257212, 4.951279], [97.256787, 4.950527], [97.255115, 4.950376], [97.254892, 4.949599], [97.254092, 4.949399], [97.253884, 4.948607], [97.253068, 4.948423], [97.252869, 4.945622], [97.252022, 4.945469], [97.251787, 4.944594], [97.250003, 4.944488], [97.249988, 4.940905], [97.251849, 4.940766], [97.25187, 4.938704], [97.250947, 4.938544], [97.250837, 4.936654], [97.249936, 4.936555], [97.249835, 4.935656], [97.248928, 4.935563], [97.248853, 4.932704], [97.247916, 4.932575], [97.247829, 4.931662], [97.246913, 4.931579], [97.246913, 4.92983], [97.249661, 4.92983], [97.249744, 4.930747], [97.250657, 4.930835], [97.250718, 4.933704], [97.251641, 4.933851], [97.251737, 4.934754], [97.252637, 4.934855], [97.25271, 4.936704], [97.253625, 4.936866], [97.253706, 4.937704], [97.253602, 4.942519], [97.251685, 4.942704], [97.253554, 4.942937], [97.253707, 4.943784], [97.254538, 4.943953], [97.254694, 4.946797], [97.255498, 4.946993], [97.255686, 4.947805], [97.256473, 4.948018], [97.256676, 4.948815], [97.259024, 4.948941], [97.259129, 4.947704], [97.259787, 4.947046], [97.263787, 4.947156], [97.264787, 4.946346], [97.266976, 4.946704], [97.265787, 4.947021], [97.264787, 4.948187], [97.263787, 4.948253], [97.262787, 4.949332], [97.261787, 4.948378], [97.260787, 4.949429], [97.25955, 4.949467], [97.260551, 4.950704], [97.260612, 4.951879], [97.261509, 4.952704], [97.261555, 4.953937], [97.265604, 4.954704], [97.262787, 4.955235], [97.262095, 4.956013], [97.260465, 4.956382], [97.258787, 4.957751]]], "type": "Polygon"}, "type": "Feature"}], "type": "FeatureCollection"}