{"features": [{"properties": {"fill-opacity": 0.33, "fillColor": "#bf4040", "opacity": 0.33, "fill": "#bf4040", "fillOpacity": 0.33, "color": "#bf4040", "contour": 15.0, "metric": "time"}, "geometry": {"coordinates": [[[95.329231, 5.499992], [95.328231, 5.497924], [95.32727, 5.498895], [95.325231, 5.499191], [95.324875, 5.498856], [95.325715, 5.49834], [95.325573, 5.497514], [95.324797, 5.497422], [95.324231, 5.498391], [95.323301, 5.497856], [95.3233, 5.495856], [95.322533, 5.495555], [95.319973, 5.495598], [95.319599, 5.496224], [95.317231, 5.497731], [95.316056, 5.496856], [95.317231, 5.496547], [95.317748, 5.495856], [95.317231, 5.495316], [95.315846, 5.495242], [95.315231, 5.494675], [95.317558, 5.494184], [95.318231, 5.491641], [95.31978, 5.493308], [95.320231, 5.493192], [95.3214, 5.492025], [95.321445, 5.490856], [95.319231, 5.488574], [95.314953, 5.488134], [95.314787, 5.486856], [95.315231, 5.48624], [95.316576, 5.486511], [95.317231, 5.487252], [95.318436, 5.487061], [95.318701, 5.484856], [95.318568, 5.482856], [95.318231, 5.482566], [95.31735, 5.483975], [95.31578, 5.484405], [95.315231, 5.485153], [95.313994, 5.485093], [95.313859, 5.483856], [95.314602, 5.483228], [95.314684, 5.481856], [95.315231, 5.481309], [95.317428, 5.481054], [95.317526, 5.479856], [95.318416, 5.479041], [95.318526, 5.477856], [95.319231, 5.477151], [95.319937, 5.477856], [95.320059, 5.479028], [95.321819, 5.480268], [95.322099, 5.480989], [95.326929, 5.481158], [95.32731, 5.482935], [95.327292, 5.479795], [95.325409, 5.479679], [95.325315, 5.477856], [95.324396, 5.477691], [95.324357, 5.467982], [95.326105, 5.467982], [95.326301, 5.468926], [95.32638, 5.468005], [95.327326, 5.467856], [95.326432, 5.467656], [95.326432, 5.466057], [95.329038, 5.46605], [95.329168, 5.466919], [95.33032, 5.466945], [95.330323, 5.465856], [95.328434, 5.465653], [95.328301, 5.464786], [95.327447, 5.464641], [95.327305, 5.463783], [95.326458, 5.46363], [95.326458, 5.462083], [95.329009, 5.462078], [95.329159, 5.462928], [95.33002, 5.463068], [95.330164, 5.463924], [95.33204, 5.464047], [95.33214, 5.465856], [95.333056, 5.466032], [95.333231, 5.466944], [95.333463, 5.463088], [95.334316, 5.462941], [95.334501, 5.462126], [95.335962, 5.462126], [95.33597, 5.464595], [95.335166, 5.464922], [95.337231, 5.464963], [95.337462, 5.464087], [95.339231, 5.463974], [95.33949, 5.463115], [95.341231, 5.462987], [95.341523, 5.462148], [95.343335, 5.46196], [95.343579, 5.460204], [95.344352, 5.459977], [95.344617, 5.459243], [95.348231, 5.459092], [95.349231, 5.458128], [95.34996, 5.458856], [95.349973, 5.459856], [95.349726, 5.460351], [95.34801, 5.460856], [95.347823, 5.465856], [95.348231, 5.466475], [95.349624, 5.466856], [95.349423, 5.467856], [95.349231, 5.468315], [95.348231, 5.468043], [95.347762, 5.468387], [95.347125, 5.46975], [95.346563, 5.469524], [95.346001, 5.469856], [95.348422, 5.470047], [95.349231, 5.469102], [95.351434, 5.469653], [95.353006, 5.470856], [95.351766, 5.471392], [95.351231, 5.47213], [95.350633, 5.471454], [95.349919, 5.471545], [95.349848, 5.472239], [95.350574, 5.472513], [95.350231, 5.474409], [95.349722, 5.473366], [95.348982, 5.473106], [95.348505, 5.471582], [95.348012, 5.471637], [95.347231, 5.472551], [95.346084, 5.472709], [95.345803, 5.473428], [95.345106, 5.473731], [95.34489, 5.474515], [95.344077, 5.474856], [95.344881, 5.475206], [95.345059, 5.476856], [95.344887, 5.477512], [95.344123, 5.477748], [95.344065, 5.478856], [95.344868, 5.479219], [95.345231, 5.482083], [95.346855, 5.48048], [95.348528, 5.480153], [95.349231, 5.477498], [95.349906, 5.480181], [95.351925, 5.480162], [95.352515, 5.480573], [95.352231, 5.482036], [95.351771, 5.481317], [95.351231, 5.481239], [95.350729, 5.481856], [95.349765, 5.484856], [95.350541, 5.485856], [95.350231, 5.486655], [95.349871, 5.486217], [95.346015, 5.48664], [95.345969, 5.487119], [95.346801, 5.487856], [95.346231, 5.490451], [95.345633, 5.489455], [95.344836, 5.489461], [95.344231, 5.491368], [95.343231, 5.491759], [95.342231, 5.491331], [95.341231, 5.490264], [95.340761, 5.490386], [95.340773, 5.491856], [95.339874, 5.492213], [95.339573, 5.490515], [95.338762, 5.490387], [95.338373, 5.490715], [95.3387, 5.490326], [95.338413, 5.489674], [95.338036, 5.489661], [95.338412, 5.491856], [95.337537, 5.493856], [95.336231, 5.493761], [95.335581, 5.492507], [95.334936, 5.492561], [95.334695, 5.493856], [95.333807, 5.494432], [95.333231, 5.496573], [95.332611, 5.495476], [95.330965, 5.49559], [95.330488, 5.497856], [95.329792, 5.498417], [95.329231, 5.499992]]], "type": "Polygon"}, "type": "Feature"}], "type": "FeatureCollection"}