{"features": [{"properties": {"fill-opacity": 0.33, "fillColor": "#bf4040", "opacity": 0.33, "fill": "#bf4040", "fillOpacity": 0.33, "color": "#bf4040", "contour": 15.0, "metric": "time"}, "geometry": {"coordinates": [[[95.237044, 5.56581], [95.236044, 5.565828], [95.235202, 5.564923], [95.233497, 5.564628], [95.23325, 5.563081], [95.232454, 5.562671], [95.232249, 5.562081], [95.232454, 5.561491], [95.233226, 5.561081], [95.233364, 5.558402], [95.234187, 5.558081], [95.234133, 5.556992], [95.233323, 5.556803], [95.233323, 5.55536], [95.23615, 5.554975], [95.235251, 5.554874], [95.235044, 5.553982], [95.233252, 5.553873], [95.233044, 5.552974], [95.231276, 5.552849], [95.231113, 5.551012], [95.230257, 5.550868], [95.230149, 5.548081], [95.229253, 5.547872], [95.229255, 5.545293], [95.234044, 5.54517], [95.234102, 5.544023], [95.231241, 5.543884], [95.231044, 5.542976], [95.227291, 5.542835], [95.227128, 5.541997], [95.225328, 5.541797], [95.225144, 5.540982], [95.223385, 5.54074], [95.223044, 5.539896], [95.221044, 5.53985], [95.220044, 5.538813], [95.218044, 5.538706], [95.217044, 5.537624], [95.215795, 5.53733], [95.216044, 5.535075], [95.216664, 5.536462], [95.218044, 5.536475], [95.219044, 5.537389], [95.221044, 5.537334], [95.222044, 5.53829], [95.22468, 5.538445], [95.224931, 5.539194], [95.226745, 5.53938], [95.22695, 5.540175], [95.228793, 5.540332], [95.229044, 5.541198], [95.232844, 5.541281], [95.233044, 5.542176], [95.233239, 5.540276], [95.235846, 5.54028], [95.236044, 5.544161], [95.240044, 5.544152], [95.239172, 5.543953], [95.239173, 5.541211], [95.242917, 5.541208], [95.242979, 5.544081], [95.243907, 5.544218], [95.244044, 5.545152], [95.244192, 5.544229], [95.245096, 5.544134], [95.245207, 5.543245], [95.248877, 5.543248], [95.249044, 5.544163], [95.254111, 5.544148], [95.254123, 5.543002], [95.253279, 5.542846], [95.253288, 5.540326], [95.25513, 5.540168], [95.254354, 5.539771], [95.254354, 5.538391], [95.256144, 5.538181], [95.25636, 5.537397], [95.257728, 5.537397], [95.257746, 5.539783], [95.256908, 5.540081], [95.257778, 5.540347], [95.257969, 5.543157], [95.258297, 5.542334], [95.259131, 5.542168], [95.259315, 5.541353], [95.260196, 5.541081], [95.259373, 5.540752], [95.259162, 5.539963], [95.258434, 5.539691], [95.258434, 5.538472], [95.259167, 5.538204], [95.259412, 5.53745], [95.260855, 5.53727], [95.261655, 5.53747], [95.261849, 5.538081], [95.261655, 5.538692], [95.260869, 5.539081], [95.26172, 5.539405], [95.261945, 5.54118], [95.262744, 5.541381], [95.262947, 5.542178], [95.263752, 5.542373], [95.264044, 5.543238], [95.266044, 5.543258], [95.266445, 5.542483], [95.267267, 5.542081], [95.267325, 5.540081], [95.266044, 5.538485], [95.264825, 5.538081], [95.265686, 5.537081], [95.265355, 5.536081], [95.265963, 5.535001], [95.267661, 5.536464], [95.269449, 5.536677], [95.270044, 5.537466], [95.270673, 5.537081], [95.270832, 5.536081], [95.272044, 5.534796], [95.27292, 5.536206], [95.274332, 5.536793], [95.274866, 5.538081], [95.272044, 5.538641], [95.271466, 5.539504], [95.270044, 5.539762], [95.269777, 5.541081], [95.272044, 5.543381], [95.274415, 5.543452], [95.275044, 5.54267], [95.27536, 5.542765], [95.277772, 5.546081], [95.276279, 5.547081], [95.273289, 5.547081], [95.271245, 5.54488], [95.270044, 5.544839], [95.269537, 5.545574], [95.267895, 5.545932], [95.268763, 5.547081], [95.268713, 5.548081], [95.267044, 5.54979], [95.265585, 5.549541], [95.265044, 5.545898], [95.261942, 5.54598], [95.261851, 5.548081], [95.261658, 5.548696], [95.261044, 5.548889], [95.260429, 5.548696], [95.260044, 5.546949], [95.259769, 5.547807], [95.257044, 5.547964], [95.256809, 5.548847], [95.256044, 5.548964], [95.255278, 5.548847], [95.255119, 5.548006], [95.254263, 5.547862], [95.254044, 5.545985], [95.249127, 5.545998], [95.248884, 5.546922], [95.244044, 5.54701], [95.243901, 5.547938], [95.241044, 5.548009], [95.240894, 5.548931], [95.23899, 5.549028], [95.238875, 5.549912], [95.237987, 5.550024], [95.237868, 5.550905], [95.236951, 5.551081], [95.236937, 5.554188], [95.237825, 5.5543], [95.237811, 5.556848], [95.235909, 5.557081], [95.235839, 5.563081], [95.237772, 5.565081], [95.237044, 5.56581]]], "type": "Polygon"}, "type": "Feature"}], "type": "FeatureCollection"}