{"features": [{"properties": {"fill-opacity": 0.33, "fillColor": "#bf4040", "opacity": 0.33, "fill": "#bf4040", "fillOpacity": 0.33, "color": "#bf4040", "contour": 15.0, "metric": "time"}, "geometry": {"coordinates": [[[96.947525, 5.049629], [96.946913, 5.047185], [96.945819, 5.046867], [96.945525, 5.047338], [96.945274, 5.046573], [96.947525, 5.046107], [96.947892, 5.045573], [96.947067, 5.045031], [96.946697, 5.043401], [96.946011, 5.043088], [96.945668, 5.041431], [96.944929, 5.04117], [96.944683, 5.037573], [96.942806, 5.037292], [96.942525, 5.036439], [96.942228, 5.037276], [96.940822, 5.037276], [96.940807, 5.034854], [96.942651, 5.034573], [96.942645, 5.033573], [96.941774, 5.033324], [96.941611, 5.032487], [96.938525, 5.032416], [96.938169, 5.033217], [96.936291, 5.033338], [96.935204, 5.034573], [96.934871, 5.039573], [96.933376, 5.040722], [96.933222, 5.039573], [96.934051, 5.038573], [96.933847, 5.035573], [96.93305, 5.035048], [96.932686, 5.033412], [96.931987, 5.033111], [96.931658, 5.03144], [96.930377, 5.031425], [96.928525, 5.033288], [96.925525, 5.033173], [96.924925, 5.032573], [96.924898, 5.031573], [96.925525, 5.030946], [96.926525, 5.030922], [96.927525, 5.031865], [96.928976, 5.030024], [96.930525, 5.029781], [96.930905, 5.028953], [96.932525, 5.02875], [96.932852, 5.0279], [96.936525, 5.027709], [96.936784, 5.026832], [96.937525, 5.026703], [96.941525, 5.02668], [96.941731, 5.025778], [96.943589, 5.025637], [96.943713, 5.024761], [96.945584, 5.024631], [96.945736, 5.018784], [96.946635, 5.018573], [96.946756, 5.016804], [96.947646, 5.016573], [96.947778, 5.014826], [96.948614, 5.014661], [96.948801, 5.013848], [96.949676, 5.013573], [96.948871, 5.013227], [96.948645, 5.012453], [96.947901, 5.012197], [96.947773, 5.008573], [96.948799, 5.007573], [96.949061, 5.006109], [96.949879, 5.005573], [96.950525, 5.000886], [96.951183, 5.006573], [96.950322, 5.00737], [96.950018, 5.009066], [96.949363, 5.009411], [96.949319, 5.010573], [96.950168, 5.01093], [96.950412, 5.011686], [96.951205, 5.011893], [96.951384, 5.014573], [96.951243, 5.01529], [96.950433, 5.015481], [96.950257, 5.016305], [96.949441, 5.016488], [96.949289, 5.018337], [96.948415, 5.018573], [96.94831, 5.020358], [96.947424, 5.020573], [96.947434, 5.023573], [96.949368, 5.023731], [96.949525, 5.024648], [96.949672, 5.02372], [96.953525, 5.023641], [96.953659, 5.022707], [96.954571, 5.022619], [96.954664, 5.021712], [96.955572, 5.02162], [96.955699, 5.014747], [96.956584, 5.014632], [96.956711, 5.012759], [96.957625, 5.012573], [96.957739, 5.009787], [96.959312, 5.009787], [96.959327, 5.014375], [96.958463, 5.014511], [96.95835, 5.016398], [96.957441, 5.016573], [96.957382, 5.02343], [96.956456, 5.023573], [96.958399, 5.023699], [96.958399, 5.025447], [96.951525, 5.025502], [96.951377, 5.026425], [96.94847, 5.026518], [96.948347, 5.028395], [96.946464, 5.028512], [96.94633, 5.030378], [96.945459, 5.030507], [96.945319, 5.031367], [96.944455, 5.031503], [96.94441, 5.032573], [96.945274, 5.032825], [96.945525, 5.033707], [96.945822, 5.03287], [96.947631, 5.032678], [96.947854, 5.031902], [96.951525, 5.031771], [96.952129, 5.03197], [96.95238, 5.033718], [96.953525, 5.033829], [96.955525, 5.031939], [96.956159, 5.032573], [96.955972, 5.034019], [96.955002, 5.03505], [96.953525, 5.035317], [96.953333, 5.035765], [96.95493, 5.036168], [96.955101, 5.036997], [96.956525, 5.037158], [96.957525, 5.036376], [96.958405, 5.036573], [96.957868, 5.036916], [96.957694, 5.037741], [96.9569, 5.037947], [96.955525, 5.038113], [96.954949, 5.037149], [96.953316, 5.037364], [96.953263, 5.038835], [96.953901, 5.039197], [96.954119, 5.04098], [96.95479, 5.041573], [96.954525, 5.043037], [96.954015, 5.042083], [96.95329, 5.041809], [96.95282, 5.040278], [96.952127, 5.039971], [96.951729, 5.038369], [96.949525, 5.038349], [96.949119, 5.039167], [96.946408, 5.039455], [96.947089, 5.040009], [96.947365, 5.041734], [96.948265, 5.042573], [96.948324, 5.043774], [96.949202, 5.044573], [96.948991, 5.047573], [96.947812, 5.048573], [96.947525, 5.049629]]], "type": "Polygon"}, "type": "Feature"}], "type": "FeatureCollection"}