{"features": [{"properties": {"fill-opacity": 0.33, "fillColor": "#bf4040", "opacity": 0.33, "fill": "#bf4040", "fillOpacity": 0.33, "color": "#bf4040", "contour": 15.0, "metric": "time"}, "geometry": {"coordinates": [[[97.688739, 4.842055], [97.688425, 4.840818], [97.687286, 4.839818], [97.686961, 4.832818], [97.686141, 4.832416], [97.68586, 4.830698], [97.685084, 4.830474], [97.684849, 4.829708], [97.684061, 4.829496], [97.683881, 4.826818], [97.683009, 4.826548], [97.683006, 4.824085], [97.683861, 4.823818], [97.682969, 4.823588], [97.682814, 4.822743], [97.68196, 4.822598], [97.681826, 4.815818], [97.680905, 4.815652], [97.680739, 4.814738], [97.678896, 4.814662], [97.67879, 4.813767], [97.67789, 4.813667], [97.677788, 4.812769], [97.676884, 4.812674], [97.676786, 4.811771], [97.675877, 4.81168], [97.675784, 4.810773], [97.672865, 4.810693], [97.672865, 4.808944], [97.673782, 4.808861], [97.673869, 4.807948], [97.675807, 4.807886], [97.67588, 4.805959], [97.676788, 4.805867], [97.676898, 4.803977], [97.677831, 4.803818], [97.677865, 4.796818], [97.677012, 4.796546], [97.677037, 4.793116], [97.678846, 4.792925], [97.679078, 4.792157], [97.679739, 4.791988], [97.682973, 4.791818], [97.681739, 4.790458], [97.681339, 4.790418], [97.680739, 4.791368], [97.678354, 4.791204], [97.677721, 4.790818], [97.681139, 4.790218], [97.681312, 4.789391], [97.682076, 4.788818], [97.682277, 4.785818], [97.68316, 4.785239], [97.683739, 4.783952], [97.684068, 4.785818], [97.68329, 4.786818], [97.683439, 4.789818], [97.68423, 4.790327], [97.684589, 4.791968], [97.688739, 4.792201], [97.690117, 4.791441], [97.690934, 4.791623], [97.691037, 4.792818], [97.689739, 4.794353], [97.688739, 4.794372], [97.687739, 4.793493], [97.686739, 4.793528], [97.685739, 4.794556], [97.684739, 4.793589], [97.680739, 4.793646], [97.680415, 4.794494], [97.678642, 4.794721], [97.679473, 4.795084], [97.67963, 4.799818], [97.680533, 4.800025], [97.680533, 4.801612], [97.679672, 4.801751], [97.679643, 4.802723], [97.680559, 4.802998], [97.680565, 4.805644], [97.679685, 4.805764], [97.679592, 4.807671], [97.677739, 4.807746], [97.677602, 4.808681], [97.676673, 4.808818], [97.677604, 4.808954], [97.677693, 4.809864], [97.678597, 4.809961], [97.678691, 4.810866], [97.679592, 4.810965], [97.679689, 4.811868], [97.680587, 4.811971], [97.680687, 4.81287], [97.682575, 4.812983], [97.682683, 4.813874], [97.683567, 4.81399], [97.683649, 4.816818], [97.684548, 4.81701], [97.684674, 4.817884], [97.685535, 4.818022], [97.68567, 4.818888], [97.687513, 4.819044], [97.687661, 4.819897], [97.688495, 4.820062], [97.688495, 4.821574], [97.687739, 4.821696], [97.684958, 4.821599], [97.68481, 4.820747], [97.683945, 4.820612], [97.683739, 4.819722], [97.683634, 4.820818], [97.684514, 4.821043], [97.684662, 4.821895], [97.685499, 4.822058], [97.685589, 4.827818], [97.686412, 4.828145], [97.686624, 4.828933], [97.687371, 4.829186], [97.687607, 4.830951], [97.688322, 4.831236], [97.68853, 4.831818], [97.688284, 4.838818], [97.68913, 4.839818], [97.688739, 4.842055]]], "type": "Polygon"}, "type": "Feature"}], "type": "FeatureCollection"}