{"features": [{"properties": {"fill-opacity": 0.33, "fillColor": "#bf4040", "opacity": 0.33, "fill": "#bf4040", "fillOpacity": 0.33, "color": "#bf4040", "contour": 15.0, "metric": "time"}, "geometry": {"coordinates": [[[97.25402, 4.11297], [97.25302, 4.113246], [97.252825, 4.112592], [97.256255, 4.108592], [97.255446, 4.108166], [97.255155, 4.107457], [97.25302, 4.107364], [97.25202, 4.106382], [97.25002, 4.106342], [97.24902, 4.10531], [97.247786, 4.105358], [97.24702, 4.106199], [97.242387, 4.105592], [97.24602, 4.104999], [97.24702, 4.103946], [97.25102, 4.103835], [97.251493, 4.103065], [97.25302, 4.102805], [97.253414, 4.101986], [97.254246, 4.101592], [97.254307, 4.099592], [97.25502, 4.098879], [97.256464, 4.099147], [97.25702, 4.100505], [97.257709, 4.100902], [97.25792, 4.102691], [97.26102, 4.102713], [97.262127, 4.101592], [97.262232, 4.099804], [97.264086, 4.099658], [97.264213, 4.098785], [97.265083, 4.098655], [97.265209, 4.097781], [97.266083, 4.097655], [97.266215, 4.096787], [97.267825, 4.096787], [97.26802, 4.097678], [97.268186, 4.096758], [97.269074, 4.096646], [97.269179, 4.095751], [97.27202, 4.095666], [97.272165, 4.094737], [97.27502, 4.09466], [97.275154, 4.093726], [97.27802, 4.093655], [97.278155, 4.092727], [97.280067, 4.092639], [97.280164, 4.091736], [97.281068, 4.09164], [97.28117, 4.090742], [97.283097, 4.090669], [97.283177, 4.089749], [97.284074, 4.089646], [97.284185, 4.088757], [97.285076, 4.088648], [97.285083, 4.087528], [97.283245, 4.087366], [97.28302, 4.086473], [97.28002, 4.086453], [97.279677, 4.088249], [97.27802, 4.088417], [97.277368, 4.088243], [97.277139, 4.087472], [97.276398, 4.087213], [97.276209, 4.086592], [97.276405, 4.084977], [97.277152, 4.084724], [97.277488, 4.08306], [97.278282, 4.082592], [97.27857, 4.080142], [97.28084, 4.078592], [97.28102, 4.078], [97.281532, 4.080592], [97.28102, 4.081104], [97.279793, 4.081365], [97.279843, 4.083769], [97.280739, 4.083872], [97.28102, 4.084723], [97.281277, 4.083849], [97.28202, 4.08372], [97.282762, 4.083849], [97.28302, 4.08471], [97.285819, 4.084792], [97.28602, 4.085687], [97.28623, 4.084802], [97.287089, 4.084661], [97.287241, 4.083813], [97.28909, 4.083662], [97.289237, 4.082809], [97.290096, 4.082668], [97.290268, 4.08184], [97.293106, 4.081678], [97.293303, 4.079875], [97.294117, 4.079689], [97.294323, 4.078895], [97.29702, 4.078757], [97.297384, 4.077956], [97.300171, 4.077743], [97.30102, 4.076835], [97.302206, 4.076778], [97.30402, 4.074973], [97.30602, 4.075055], [97.30702, 4.074215], [97.308902, 4.074592], [97.307587, 4.075159], [97.30702, 4.076002], [97.304774, 4.076346], [97.303493, 4.078065], [97.30202, 4.078336], [97.301563, 4.079135], [97.29902, 4.079396], [97.298667, 4.080239], [97.29802, 4.080415], [97.295919, 4.080491], [97.295733, 4.081305], [97.294885, 4.081592], [97.294758, 4.083329], [97.29302, 4.083467], [97.292783, 4.084355], [97.290947, 4.084519], [97.290806, 4.085378], [97.289951, 4.085523], [97.289818, 4.08639], [97.288954, 4.086526], [97.288832, 4.088404], [97.28696, 4.088532], [97.286849, 4.090421], [97.285964, 4.090536], [97.285856, 4.091428], [97.283942, 4.091514], [97.283868, 4.09244], [97.28297, 4.092542], [97.282875, 4.093447], [97.281972, 4.093544], [97.281878, 4.09445], [97.279974, 4.094546], [97.279894, 4.096466], [97.27402, 4.096521], [97.27387, 4.097442], [97.270967, 4.097539], [97.272846, 4.097765], [97.27296, 4.098652], [97.273833, 4.098778], [97.273833, 4.100405], [97.271201, 4.10041], [97.27102, 4.099508], [97.26902, 4.099507], [97.268841, 4.100413], [97.26602, 4.100498], [97.265821, 4.101393], [97.26395, 4.101522], [97.263795, 4.103367], [97.262943, 4.103515], [97.26278, 4.104352], [97.258926, 4.104498], [97.258721, 4.105293], [97.257917, 4.105489], [97.257698, 4.10627], [97.256825, 4.106592], [97.259477, 4.109134], [97.259477, 4.110049], [97.256826, 4.110398], [97.25402, 4.11297]]], "type": "Polygon"}, "type": "Feature"}], "type": "FeatureCollection"}