{"features": [{"properties": {"fill-opacity": 0.33, "fillColor": "#bf4040", "opacity": 0.33, "fill": "#bf4040", "fillOpacity": 0.33, "color": "#bf4040", "contour": 15.0, "metric": "time"}, "geometry": {"coordinates": [[[95.713813, 4.681903], [95.712954, 4.681832], [95.712813, 4.6809], [95.710971, 4.680816], [95.710892, 4.677973], [95.709979, 4.677808], [95.70987, 4.675917], [95.708989, 4.675798], [95.708813, 4.670865], [95.707735, 4.670895], [95.707573, 4.671732], [95.70673, 4.67189], [95.706555, 4.672715], [95.705724, 4.672884], [95.705538, 4.673698], [95.704717, 4.673877], [95.704511, 4.674671], [95.703709, 4.674868], [95.703483, 4.675643], [95.701693, 4.675853], [95.701443, 4.676603], [95.699664, 4.677824], [95.698813, 4.681284], [95.697813, 4.678723], [95.697263, 4.680423], [95.696813, 4.680647], [95.693813, 4.680507], [95.691813, 4.681805], [95.691526, 4.681261], [95.692813, 4.679537], [95.696024, 4.679184], [95.696335, 4.677495], [95.697972, 4.677131], [95.699211, 4.675371], [95.69994, 4.6751], [95.700184, 4.674343], [95.701922, 4.674082], [95.702124, 4.673284], [95.702914, 4.673073], [95.703103, 4.672263], [95.703906, 4.672066], [95.704085, 4.671245], [95.7049, 4.67106], [95.705066, 4.670225], [95.705895, 4.670054], [95.706052, 4.669211], [95.712813, 4.669084], [95.713026, 4.668186], [95.716613, 4.668174], [95.716753, 4.671034], [95.718642, 4.671145], [95.718759, 4.673027], [95.719656, 4.673131], [95.719813, 4.674049], [95.721666, 4.67412], [95.721813, 4.675045], [95.721968, 4.674128], [95.723813, 4.674051], [95.723977, 4.673137], [95.725871, 4.673031], [95.725997, 4.671157], [95.726876, 4.671035], [95.727005, 4.670165], [95.727879, 4.670039], [95.728016, 4.669175], [95.73159, 4.669196], [95.731588, 4.671748], [95.730737, 4.671896], [95.730575, 4.672735], [95.729052, 4.672735], [95.728813, 4.671876], [95.728629, 4.672788], [95.727753, 4.672913], [95.728623, 4.673163], [95.728623, 4.674783], [95.725813, 4.674889], [95.725652, 4.675812], [95.723762, 4.675922], [95.723662, 4.676822], [95.721766, 4.676926], [95.721674, 4.677834], [95.720768, 4.677928], [95.72068, 4.67884], [95.71977, 4.678929], [95.719685, 4.679845], [95.718771, 4.679931], [95.718688, 4.680848], [95.714813, 4.680905], [95.714673, 4.681832], [95.713813, 4.681903]]], "type": "Polygon"}, "type": "Feature"}], "type": "FeatureCollection"}