{"features": [{"properties": {"fill-opacity": 0.33, "fillColor": "#bf4040", "opacity": 0.33, "fill": "#bf4040", "fillOpacity": 0.33, "color": "#bf4040", "contour": 15.0, "metric": "time"}, "geometry": {"coordinates": [[[96.7395, 5.077558], [96.738878, 5.073293], [96.739804, 5.072293], [96.737937, 5.070856], [96.73764, 5.070153], [96.736897, 5.069896], [96.736673, 5.06812], [96.735831, 5.067962], [96.735605, 5.067188], [96.734806, 5.066986], [96.734647, 5.065293], [96.733835, 5.064958], [96.733623, 5.06317], [96.7295, 5.063006], [96.7285, 5.061971], [96.723407, 5.061386], [96.725807, 5.0606], [96.72586, 5.059293], [96.727039, 5.057831], [96.729658, 5.057451], [96.730897, 5.055689], [96.731627, 5.055419], [96.731882, 5.054675], [96.73465, 5.054443], [96.735012, 5.052805], [96.735816, 5.052293], [96.736016, 5.050808], [96.7375, 5.049441], [96.7395, 5.049295], [96.741546, 5.050293], [96.7385, 5.050823], [96.737266, 5.052059], [96.737319, 5.056293], [96.738992, 5.0568], [96.739284, 5.058293], [96.740269, 5.058524], [96.740426, 5.059367], [96.741285, 5.059508], [96.741431, 5.060362], [96.741691, 5.059484], [96.748339, 5.059454], [96.748421, 5.060372], [96.750347, 5.060446], [96.75045, 5.061342], [96.751354, 5.061439], [96.751452, 5.06234], [96.752361, 5.062432], [96.752455, 5.064337], [96.7535, 5.064357], [96.753626, 5.063418], [96.7545, 5.063356], [96.755374, 5.063418], [96.755437, 5.064293], [96.755374, 5.066167], [96.750635, 5.066158], [96.750547, 5.064246], [96.749644, 5.064149], [96.749549, 5.063244], [96.748648, 5.063145], [96.748551, 5.062242], [96.747654, 5.062138], [96.747579, 5.061214], [96.7435, 5.061201], [96.743306, 5.062098], [96.739424, 5.062216], [96.739264, 5.063056], [96.738418, 5.063211], [96.738244, 5.064037], [96.737364, 5.064293], [96.737395, 5.065398], [96.738146, 5.065646], [96.738323, 5.066293], [96.738146, 5.066939], [96.737327, 5.067466], [96.738136, 5.067656], [96.739353, 5.06944], [96.7405, 5.069553], [96.74124, 5.070293], [96.741147, 5.073293], [96.740094, 5.074293], [96.739922, 5.076293], [96.740484, 5.077293], [96.7395, 5.077558]]], "type": "Polygon"}, "type": "Feature"}], "type": "FeatureCollection"}