{"features": [{"properties": {"fill-opacity": 0.33, "fillColor": "#bf4040", "opacity": 0.33, "fill": "#bf4040", "fillOpacity": 0.33, "color": "#bf4040", "contour": 15.0, "metric": "time"}, "geometry": {"coordinates": [[[97.929236, 3.158514], [97.928391, 3.158094], [97.925528, 3.157957], [97.925528, 3.156542], [97.926327, 3.15634], [97.92635, 3.155364], [97.925416, 3.15507], [97.92539, 3.151403], [97.928236, 3.151313], [97.928363, 3.150376], [97.931092, 3.150393], [97.931188, 3.151298], [97.93406, 3.151425], [97.934236, 3.152349], [97.934565, 3.151579], [97.935907, 3.151579], [97.936122, 3.152363], [97.936787, 3.152698], [97.937236, 3.153575], [97.938236, 3.152936], [97.93873, 3.153249], [97.938592, 3.154606], [97.936236, 3.154966], [97.935991, 3.156004], [97.934236, 3.156127], [97.933481, 3.156004], [97.933346, 3.154249], [97.932432, 3.154054], [97.932295, 3.15319], [97.929193, 3.153206], [97.929097, 3.15411], [97.928138, 3.154249], [97.928115, 3.156249], [97.928431, 3.156444], [97.929236, 3.155608], [97.929878, 3.156249], [97.929804, 3.157817], [97.929236, 3.158514]]], "type": "Polygon"}, "type": "Feature"}], "type": "FeatureCollection"}