{"features": [{"properties": {"fill-opacity": 0.33, "fillColor": "#bf4040", "opacity": 0.33, "fill": "#bf4040", "fillOpacity": 0.33, "color": "#bf4040", "contour": 15.0, "metric": "time"}, "geometry": {"coordinates": [[[96.91721, 3.669642], [96.915561, 3.668022], [96.914856, 3.66802], [96.91421, 3.668717], [96.913574, 3.668009], [96.911765, 3.667818], [96.91144, 3.664143], [96.909623, 3.66396], [96.90921, 3.663464], [96.90821, 3.663261], [96.9079, 3.664063], [96.907026, 3.66419], [96.90621, 3.666032], [96.905583, 3.665], [96.90392, 3.664663], [96.903824, 3.663988], [96.90521, 3.663719], [96.90638, 3.662544], [96.906394, 3.661189], [96.90421, 3.6609], [96.90321, 3.661645], [96.901427, 3.661373], [96.902666, 3.660829], [96.90286, 3.660024], [96.903672, 3.659373], [96.90321, 3.658816], [96.902198, 3.659373], [96.901142, 3.658373], [96.90421, 3.657856], [96.904918, 3.658665], [96.90621, 3.658743], [96.90721, 3.658643], [96.90735, 3.658233], [96.904702, 3.655881], [96.90439, 3.654193], [96.901457, 3.651126], [96.89921, 3.650761], [96.89821, 3.651207], [96.897969, 3.650614], [96.89921, 3.648756], [96.899404, 3.649373], [96.90021, 3.649867], [96.90121, 3.648868], [96.901931, 3.649652], [96.903428, 3.649592], [96.903482, 3.649101], [96.902564, 3.648019], [96.900643, 3.647373], [96.901705, 3.646869], [96.90221, 3.646086], [96.90621, 3.6498], [96.912311, 3.649474], [96.912324, 3.648259], [96.91157, 3.648013], [96.91139, 3.647373], [96.91141, 3.645373], [96.910444, 3.644373], [96.910809, 3.642373], [96.910452, 3.640131], [96.907311, 3.639373], [96.90952, 3.638683], [96.91021, 3.635671], [96.911017, 3.635181], [96.911599, 3.636373], [96.911945, 3.638638], [96.912551, 3.638715], [96.91321, 3.638137], [96.91493, 3.638373], [96.914453, 3.638616], [96.914936, 3.640647], [96.916563, 3.64102], [96.91721, 3.641943], [96.919145, 3.642373], [96.912039, 3.643203], [96.912994, 3.644373], [96.913026, 3.646373], [96.913866, 3.646717], [96.914112, 3.649471], [96.915322, 3.649485], [96.915564, 3.648728], [96.91621, 3.648551], [96.918023, 3.64856], [96.918822, 3.648761], [96.91921, 3.649583], [96.920384, 3.649547], [96.920837, 3.647], [96.922671, 3.646373], [96.92321, 3.643534], [96.924181, 3.644402], [96.924328, 3.645373], [96.923811, 3.645975], [96.923745, 3.648373], [96.922021, 3.650184], [96.921945, 3.651373], [96.923641, 3.651942], [96.925061, 3.653522], [96.925151, 3.654432], [96.928022, 3.654561], [96.928022, 3.656186], [96.926152, 3.656316], [96.926133, 3.658373], [96.927062, 3.658521], [96.927161, 3.659422], [96.928068, 3.659515], [96.928165, 3.662418], [96.930083, 3.6625], [96.930168, 3.663415], [96.931084, 3.663499], [96.931084, 3.665248], [96.928335, 3.665248], [96.92821, 3.664308], [96.926343, 3.66424], [96.926279, 3.661373], [96.925355, 3.661228], [96.925259, 3.660324], [96.924361, 3.660222], [96.924262, 3.658321], [96.921383, 3.6582], [96.921268, 3.657315], [96.920389, 3.657194], [96.92021, 3.65628], [96.919991, 3.657155], [96.91921, 3.657264], [96.918428, 3.657155], [96.91821, 3.65627], [96.91621, 3.656261], [96.91611, 3.657473], [96.916904, 3.657679], [96.917094, 3.659489], [96.917843, 3.65974], [96.918077, 3.661507], [96.918782, 3.661801], [96.918996, 3.662373], [96.918782, 3.662945], [96.917071, 3.663235], [96.916719, 3.664883], [96.915907, 3.665373], [96.915899, 3.666684], [96.917483, 3.668373], [96.91721, 3.669642]]], "type": "Polygon"}, "type": "Feature"}], "type": "FeatureCollection"}