{"features": [{"properties": {"fill-opacity": 0.33, "fillColor": "#bf4040", "opacity": 0.33, "fill": "#bf4040", "fillOpacity": 0.33, "color": "#bf4040", "contour": 15.0, "metric": "time"}, "geometry": {"coordinates": [[[96.121682, 2.628453], [96.11782, 2.627867], [96.120682, 2.627355], [96.121281, 2.626466], [96.122894, 2.626078], [96.124187, 2.624372], [96.125682, 2.624102], [96.126107, 2.623291], [96.126682, 2.623079], [96.129682, 2.623039], [96.130338, 2.623211], [96.130682, 2.624026], [96.134682, 2.623995], [96.134918, 2.623103], [96.13576, 2.622944], [96.135906, 2.622091], [96.136755, 2.62194], [96.136893, 2.621078], [96.141741, 2.620926], [96.141964, 2.614149], [96.142787, 2.613971], [96.143035, 2.61322], [96.143819, 2.613004], [96.144183, 2.612367], [96.145927, 2.612112], [96.146682, 2.61079], [96.14712, 2.611429], [96.147252, 2.612867], [96.146682, 2.613436], [96.145525, 2.613709], [96.145278, 2.614463], [96.144565, 2.614749], [96.144369, 2.615554], [96.14359, 2.615774], [96.144454, 2.616096], [96.144568, 2.616867], [96.144454, 2.617638], [96.143609, 2.617794], [96.143586, 2.618867], [96.147531, 2.619018], [96.147633, 2.619917], [96.148536, 2.620013], [96.148634, 2.620915], [96.150544, 2.621005], [96.150615, 2.622867], [96.151552, 2.622997], [96.15164, 2.62391], [96.153556, 2.623993], [96.153682, 2.624932], [96.157682, 2.62494], [96.157835, 2.62402], [96.159682, 2.623945], [96.159846, 2.623031], [96.16174, 2.622925], [96.161861, 2.622046], [96.162743, 2.621928], [96.162869, 2.621053], [96.166483, 2.621067], [96.166682, 2.621972], [96.168682, 2.621981], [96.168947, 2.620131], [96.169821, 2.619867], [96.169996, 2.617181], [96.171795, 2.616979], [96.171824, 2.615726], [96.170201, 2.615348], [96.168682, 2.61349], [96.16503, 2.612867], [96.167199, 2.611384], [96.168682, 2.611325], [96.171682, 2.614119], [96.172124, 2.613308], [96.17396, 2.611867], [96.174316, 2.608501], [96.176791, 2.606758], [96.176851, 2.607867], [96.17531, 2.609867], [96.175412, 2.612867], [96.173478, 2.614867], [96.173339, 2.618523], [96.171579, 2.618764], [96.171427, 2.622612], [96.1706, 2.622784], [96.170444, 2.623628], [96.164886, 2.623664], [96.164682, 2.622771], [96.164499, 2.623684], [96.163623, 2.623808], [96.163511, 2.624695], [96.162626, 2.624811], [96.162516, 2.6257], [96.159682, 2.625789], [96.159532, 2.626716], [96.158633, 2.626818], [96.158537, 2.627721], [96.155825, 2.627724], [96.155682, 2.626798], [96.151812, 2.626738], [96.151725, 2.625825], [96.149812, 2.625738], [96.149726, 2.624823], [96.148816, 2.624734], [96.148728, 2.622821], [96.146827, 2.622722], [96.146731, 2.621818], [96.145832, 2.621717], [96.145733, 2.620816], [96.144682, 2.620787], [96.144513, 2.621697], [96.143625, 2.621809], [96.143506, 2.62269], [96.138612, 2.622797], [96.138463, 2.623648], [96.137607, 2.623792], [96.137446, 2.624631], [96.136602, 2.624787], [96.136433, 2.625618], [96.129682, 2.625698], [96.129021, 2.625528], [96.128682, 2.624686], [96.127682, 2.62467], [96.127222, 2.625407], [96.125512, 2.625697], [96.124131, 2.627316], [96.122429, 2.627614], [96.121682, 2.628453]]], "type": "Polygon"}, "type": "Feature"}], "type": "FeatureCollection"}