{"features": [{"properties": {"fill-opacity": 0.33, "fillColor": "#bf4040", "opacity": 0.33, "fill": "#bf4040", "fillOpacity": 0.33, "color": "#bf4040", "contour": 15.0, "metric": "time"}, "geometry": {"coordinates": [[[97.695758, 2.36672], [97.694755, 2.366526], [97.695366, 2.365133], [97.696915, 2.363682], [97.69712, 2.361887], [97.697865, 2.361632], [97.698056, 2.360823], [97.700758, 2.360638], [97.700973, 2.35974], [97.701828, 2.359595], [97.701829, 2.358454], [97.700993, 2.358291], [97.700993, 2.35676], [97.70382, 2.356587], [97.703935, 2.353702], [97.704815, 2.353583], [97.704927, 2.352694], [97.705813, 2.35258], [97.705919, 2.351686], [97.70681, 2.351577], [97.706911, 2.350678], [97.707808, 2.350575], [97.706911, 2.350373], [97.706911, 2.348678], [97.70781, 2.348577], [97.707916, 2.347683], [97.708811, 2.347578], [97.708922, 2.346689], [97.709809, 2.346577], [97.709912, 2.344679], [97.71081, 2.344578], [97.710919, 2.343686], [97.711813, 2.34358], [97.711925, 2.342692], [97.712815, 2.342582], [97.712939, 2.340706], [97.713819, 2.340587], [97.713946, 2.339714], [97.714822, 2.33959], [97.714953, 2.33872], [97.71683, 2.338597], [97.71698, 2.337747], [97.717834, 2.337601], [97.717992, 2.336759], [97.718839, 2.336606], [97.71902, 2.334787], [97.719848, 2.334615], [97.720037, 2.333804], [97.720854, 2.333621], [97.721073, 2.331841], [97.721868, 2.331635], [97.722098, 2.330865], [97.722877, 2.330644], [97.723127, 2.329894], [97.723889, 2.329657], [97.724169, 2.328936], [97.724906, 2.328673], [97.725232, 2.327999], [97.72695, 2.326717], [97.727327, 2.325094], [97.728384, 2.324151], [97.730119, 2.323886], [97.731971, 2.322526], [97.731967, 2.323526], [97.731058, 2.324826], [97.729481, 2.325248], [97.728533, 2.3263], [97.728228, 2.327995], [97.725619, 2.330386], [97.725355, 2.331122], [97.724632, 2.3314], [97.724396, 2.332163], [97.723644, 2.332411], [97.723429, 2.333196], [97.722654, 2.333421], [97.722468, 2.335236], [97.721666, 2.335433], [97.721493, 2.336261], [97.720672, 2.33644], [97.720514, 2.338281], [97.71968, 2.338447], [97.71953, 2.339297], [97.718684, 2.339452], [97.718543, 2.340311], [97.716758, 2.340423], [97.716565, 2.341332], [97.715696, 2.341463], [97.715576, 2.342344], [97.714699, 2.342466], [97.714586, 2.344354], [97.713677, 2.344526], [97.713617, 2.348384], [97.712712, 2.348479], [97.712693, 2.349526], [97.712885, 2.348652], [97.713801, 2.348568], [97.713889, 2.347656], [97.715628, 2.347656], [97.71563, 2.350397], [97.714716, 2.350483], [97.714633, 2.3514], [97.713716, 2.351483], [97.713628, 2.352396], [97.711714, 2.352481], [97.711622, 2.353389], [97.709895, 2.353389], [97.70971, 2.352477], [97.709608, 2.353375], [97.708707, 2.353474], [97.708602, 2.354369], [97.707705, 2.354472], [97.70759, 2.356357], [97.706701, 2.356468], [97.706582, 2.357349], [97.705698, 2.357466], [97.705574, 2.358342], [97.704695, 2.358463], [97.704565, 2.359332], [97.703692, 2.359459], [97.703546, 2.361313], [97.702686, 2.361453], [97.702535, 2.362302], [97.699664, 2.362431], [97.69945, 2.363217], [97.69856, 2.363526], [97.698271, 2.365038], [97.695758, 2.36672]]], "type": "Polygon"}, "type": "Feature"}], "type": "FeatureCollection"}