{"features": [{"properties": {"fill-opacity": 0.33, "fillColor": "#bf4040", "opacity": 0.33, "fill": "#bf4040", "fillOpacity": 0.33, "color": "#bf4040", "contour": 15.0, "metric": "time"}, "geometry": {"coordinates": [[[95.084873, 5.675473], [95.083142, 5.675335], [95.082873, 5.674462], [95.081184, 5.674293], [95.080986, 5.673491], [95.080235, 5.673242], [95.080005, 5.672472], [95.079292, 5.672185], [95.078873, 5.670465], [95.075873, 5.670436], [95.075488, 5.671218], [95.074873, 5.671411], [95.070873, 5.67135], [95.069873, 5.672299], [95.067873, 5.672236], [95.066873, 5.67414], [95.066233, 5.673244], [95.063365, 5.672604], [95.065873, 5.67211], [95.066873, 5.67103], [95.068873, 5.670917], [95.069394, 5.670124], [95.071035, 5.669765], [95.070139, 5.668604], [95.070277, 5.664604], [95.071873, 5.663099], [95.073158, 5.663319], [95.073419, 5.664058], [95.074648, 5.664604], [95.071608, 5.665338], [95.071601, 5.667604], [95.072873, 5.668814], [95.075873, 5.668772], [95.07619, 5.66792], [95.078873, 5.667744], [95.079188, 5.666919], [95.079873, 5.666761], [95.080558, 5.666919], [95.080784, 5.668693], [95.081873, 5.668722], [95.082096, 5.666827], [95.082949, 5.66668], [95.083109, 5.665839], [95.083873, 5.665722], [95.084638, 5.665839], [95.084802, 5.667675], [95.088688, 5.667789], [95.088873, 5.668692], [95.089873, 5.668689], [95.090039, 5.667769], [95.090873, 5.667686], [95.110675, 5.667802], [95.11081, 5.669667], [95.115647, 5.66983], [95.115796, 5.670681], [95.116634, 5.670843], [95.116873, 5.671737], [95.117971, 5.671701], [95.118177, 5.670907], [95.121873, 5.670783], [95.122273, 5.670003], [95.122873, 5.669804], [95.124873, 5.669834], [95.125873, 5.668863], [95.128873, 5.668956], [95.129873, 5.670007], [95.130873, 5.669097], [95.133863, 5.669604], [95.132873, 5.671024], [95.132349, 5.670128], [95.131534, 5.670265], [95.13037, 5.671604], [95.13029, 5.673187], [95.130666, 5.673604], [95.129873, 5.673789], [95.12948, 5.672604], [95.128873, 5.672185], [95.127873, 5.673985], [95.127177, 5.6733], [95.125494, 5.672983], [95.125494, 5.672224], [95.126206, 5.671604], [95.125873, 5.671351], [95.124724, 5.671455], [95.124622, 5.672604], [95.123873, 5.673353], [95.122873, 5.672411], [95.120037, 5.67244], [95.119578, 5.673308], [95.117737, 5.673467], [95.109873, 5.673487], [95.109107, 5.67337], [95.108947, 5.67253], [95.108081, 5.672396], [95.107873, 5.671519], [95.100873, 5.671535], [95.100741, 5.672471], [95.099809, 5.672604], [95.099746, 5.674477], [95.097873, 5.674541], [95.096998, 5.674479], [95.096873, 5.673536], [95.094012, 5.673465], [95.093873, 5.672532], [95.090028, 5.672449], [95.089926, 5.671551], [95.088873, 5.67152], [95.088671, 5.673401], [95.087805, 5.673536], [95.087661, 5.674392], [95.085792, 5.674523], [95.085611, 5.675342], [95.084873, 5.675473]]], "type": "Polygon"}, "type": "Feature"}], "type": "FeatureCollection"}