{"features": [{"properties": {"fill-opacity": 0.33, "fillColor": "#bf4040", "opacity": 0.33, "fill": "#bf4040", "fillOpacity": 0.33, "color": "#bf4040", "contour": 15.0, "metric": "time"}, "geometry": {"coordinates": [[[97.404223, 3.162191], [97.40214, 3.161828], [97.403624, 3.161228], [97.405559, 3.158828], [97.405395, 3.156656], [97.403279, 3.155828], [97.40443, 3.155035], [97.404646, 3.152251], [97.406408, 3.150828], [97.406432, 3.148828], [97.405494, 3.147828], [97.405737, 3.147342], [97.407475, 3.146828], [97.407602, 3.143828], [97.406707, 3.142828], [97.407223, 3.142312], [97.408566, 3.142171], [97.409223, 3.141442], [97.410612, 3.141439], [97.411176, 3.141828], [97.409836, 3.142441], [97.409724, 3.142828], [97.409879, 3.144828], [97.410869, 3.145828], [97.410223, 3.146474], [97.409038, 3.146642], [97.408977, 3.147828], [97.408013, 3.148828], [97.408032, 3.149828], [97.408875, 3.150175], [97.409116, 3.150935], [97.409933, 3.151118], [97.410135, 3.151916], [97.410975, 3.152076], [97.411223, 3.153934], [97.412309, 3.153914], [97.412498, 3.153103], [97.413223, 3.152965], [97.415848, 3.153203], [97.415848, 3.154453], [97.414223, 3.154675], [97.413957, 3.155562], [97.411133, 3.155828], [97.413071, 3.155979], [97.413223, 3.156895], [97.415092, 3.156959], [97.415096, 3.159701], [97.41335, 3.159701], [97.413223, 3.15876], [97.411369, 3.158681], [97.411223, 3.157748], [97.409399, 3.157651], [97.409334, 3.153828], [97.408478, 3.153572], [97.408223, 3.152664], [97.407945, 3.156828], [97.406924, 3.157828], [97.406839, 3.159828], [97.404223, 3.162191]]], "type": "Polygon"}, "type": "Feature"}], "type": "FeatureCollection"}