{"features": [{"properties": {"fill-opacity": 0.33, "fillColor": "#bf4040", "opacity": 0.33, "fill": "#bf4040", "fillOpacity": 0.33, "color": "#bf4040", "contour": 15.0, "metric": "time"}, "geometry": {"coordinates": [[[97.427915, 3.083234], [97.426996, 3.082878], [97.427608, 3.081571], [97.430065, 3.079028], [97.430302, 3.078265], [97.431036, 3.077999], [97.431262, 3.077225], [97.432012, 3.076975], [97.432139, 3.075102], [97.433018, 3.074878], [97.432075, 3.074719], [97.431967, 3.073827], [97.431069, 3.073724], [97.430962, 3.072831], [97.429048, 3.072746], [97.428958, 3.071835], [97.428041, 3.071752], [97.428041, 3.070004], [97.430789, 3.070004], [97.430915, 3.070945], [97.433768, 3.071025], [97.433915, 3.072962], [97.436729, 3.073065], [97.436726, 3.075689], [97.434846, 3.075809], [97.43464, 3.078603], [97.432803, 3.078766], [97.432559, 3.079522], [97.431784, 3.079747], [97.431462, 3.080425], [97.427915, 3.083234]]], "type": "Polygon"}, "type": "Feature"}], "type": "FeatureCollection"}