{"features": [{"properties": {"fill-opacity": 0.33, "fillColor": "#bf4040", "opacity": 0.33, "fill": "#bf4040", "fillOpacity": 0.33, "color": "#bf4040", "contour": 15.0, "metric": "time"}, "geometry": {"coordinates": [[[97.162811, 3.33577], [97.161226, 3.335573], [97.160913, 3.333887], [97.16009, 3.33371], [97.159896, 3.332904], [97.159044, 3.332756], [97.158883, 3.331917], [97.158011, 3.331789], [97.157873, 3.330926], [97.15699, 3.33081], [97.156894, 3.328988], [97.155973, 3.328826], [97.155811, 3.327904], [97.155616, 3.329793], [97.154745, 3.329922], [97.154606, 3.330783], [97.153016, 3.330783], [97.152905, 3.327988], [97.15205, 3.32775], [97.151918, 3.326882], [97.151914, 3.320988], [97.151033, 3.320766], [97.150887, 3.319913], [97.150046, 3.319754], [97.149891, 3.318908], [97.147093, 3.318707], [97.146906, 3.317894], [97.145811, 3.317828], [97.145457, 3.318634], [97.144664, 3.318841], [97.1443, 3.319477], [97.141574, 3.319751], [97.140811, 3.320515], [97.139811, 3.320587], [97.138811, 3.319629], [97.137811, 3.320499], [97.135509, 3.319988], [97.135356, 3.318988], [97.136255, 3.318432], [97.136539, 3.317716], [97.137811, 3.317471], [97.138533, 3.318266], [97.13903, 3.318207], [97.139482, 3.316659], [97.140281, 3.316458], [97.139738, 3.314915], [97.140811, 3.314618], [97.141529, 3.315271], [97.142958, 3.315135], [97.14297, 3.31383], [97.141102, 3.311988], [97.142315, 3.310492], [97.143811, 3.310222], [97.145389, 3.31141], [97.145678, 3.312122], [97.146118, 3.311988], [97.146077, 3.310988], [97.147078, 3.309988], [97.146223, 3.308988], [97.146331, 3.304988], [97.147106, 3.304283], [97.147356, 3.302988], [97.147811, 3.302533], [97.148811, 3.302128], [97.150399, 3.302988], [97.151067, 3.303988], [97.153202, 3.304598], [97.154163, 3.305636], [97.154037, 3.307214], [97.152811, 3.307468], [97.152086, 3.306714], [97.151611, 3.306788], [97.151811, 3.310178], [97.157811, 3.310003], [97.158638, 3.308815], [97.159454, 3.308631], [97.162916, 3.308884], [97.161951, 3.310128], [97.159811, 3.310552], [97.158811, 3.311613], [97.15664, 3.311817], [97.156386, 3.313563], [97.155618, 3.313988], [97.157197, 3.314603], [97.158127, 3.315672], [97.158214, 3.316391], [97.157811, 3.316949], [97.155811, 3.316686], [97.154967, 3.315832], [97.153177, 3.315622], [97.152926, 3.314873], [97.152667, 3.314988], [97.152674, 3.315988], [97.153551, 3.316249], [97.153729, 3.317071], [97.155584, 3.317216], [97.155738, 3.318061], [97.1566, 3.3182], [97.156742, 3.319057], [97.15761, 3.31919], [97.157746, 3.320054], [97.15862, 3.320179], [97.158726, 3.323988], [97.159645, 3.324154], [97.159762, 3.327038], [97.160665, 3.327135], [97.160764, 3.328036], [97.161671, 3.328128], [97.161765, 3.329034], [97.162676, 3.329123], [97.162767, 3.330033], [97.164683, 3.330117], [97.164769, 3.331031], [97.165686, 3.331114], [97.165686, 3.332863], [97.162938, 3.332862], [97.162854, 3.331945], [97.161724, 3.331901], [97.162513, 3.332286], [97.162679, 3.33412], [97.163375, 3.334425], [97.163593, 3.334988], [97.162811, 3.33577]]], "type": "Polygon"}, "type": "Feature"}], "type": "FeatureCollection"}