{"features": [{"properties": {"fill-opacity": 0.33, "fillColor": "#bf4040", "opacity": 0.33, "fill": "#bf4040", "fillOpacity": 0.33, "color": "#bf4040", "contour": 15.0, "metric": "time"}, "geometry": {"coordinates": [[[96.219969, 5.176441], [96.219304, 5.174837], [96.217969, 5.174791], [96.216512, 5.173629], [96.215969, 5.171928], [96.214969, 5.17289], [96.209746, 5.172394], [96.209662, 5.171478], [96.208864, 5.171171], [96.209969, 5.171056], [96.210969, 5.171705], [96.213969, 5.171496], [96.214208, 5.170411], [96.213331, 5.16981], [96.213085, 5.169056], [96.212298, 5.168842], [96.212075, 5.168066], [96.211267, 5.167874], [96.211114, 5.167026], [96.209239, 5.166902], [96.209229, 5.164431], [96.210052, 5.164255], [96.210086, 5.163288], [96.209187, 5.162953], [96.209032, 5.159109], [96.207148, 5.158993], [96.206969, 5.158087], [96.205135, 5.158005], [96.205023, 5.157117], [96.204129, 5.157012], [96.204021, 5.15612], [96.203121, 5.15602], [96.202969, 5.155098], [96.20282, 5.156023], [96.201919, 5.156121], [96.201814, 5.157016], [96.199125, 5.157015], [96.199125, 5.155328], [96.20002, 5.155223], [96.200119, 5.154321], [96.201018, 5.15422], [96.201015, 5.153126], [96.200104, 5.153037], [96.199969, 5.152107], [96.198096, 5.152044], [96.198011, 5.151129], [96.197095, 5.151046], [96.197033, 5.150107], [96.196099, 5.150041], [96.196013, 5.149127], [96.195105, 5.149036], [96.195038, 5.148102], [96.193113, 5.148028], [96.192969, 5.147097], [96.191122, 5.147018], [96.191122, 5.145324], [96.194822, 5.145318], [96.194921, 5.146219], [96.195829, 5.146312], [96.1959, 5.14724], [96.197836, 5.147305], [96.197905, 5.149235], [96.199843, 5.149297], [96.199969, 5.150236], [96.201837, 5.150303], [96.201924, 5.151216], [96.202833, 5.151308], [96.203018, 5.152221], [96.203125, 5.150328], [96.204051, 5.150171], [96.204139, 5.148341], [96.206063, 5.148171], [96.206071, 5.146171], [96.205186, 5.145954], [96.205089, 5.143051], [96.202244, 5.142896], [96.202065, 5.142076], [96.201267, 5.141873], [96.201072, 5.141069], [96.20029, 5.140851], [96.200383, 5.137585], [96.202598, 5.137542], [96.20287, 5.14027], [96.203683, 5.140458], [96.203969, 5.141302], [96.205719, 5.141421], [96.205849, 5.142291], [96.206738, 5.142402], [96.206897, 5.144244], [96.207756, 5.144384], [96.207785, 5.149987], [96.205913, 5.150115], [96.205807, 5.152009], [96.204893, 5.152171], [96.204895, 5.154171], [96.205814, 5.154327], [96.205916, 5.155224], [96.206808, 5.155332], [96.206914, 5.156227], [96.208793, 5.156347], [96.208969, 5.157263], [96.21078, 5.157361], [96.210873, 5.159171], [96.211769, 5.159371], [96.211869, 5.160171], [96.211769, 5.160971], [96.210864, 5.161171], [96.211749, 5.161392], [96.211824, 5.166316], [96.213821, 5.166171], [96.213969, 5.165142], [96.215291, 5.16585], [96.215536, 5.166604], [96.216388, 5.166753], [96.216749, 5.170171], [96.217714, 5.171171], [96.217764, 5.172377], [96.219326, 5.172815], [96.220458, 5.174171], [96.219969, 5.176441]]], "type": "Polygon"}, "type": "Feature"}], "type": "FeatureCollection"}