{"features": [{"properties": {"fill-opacity": 0.33, "fillColor": "#bf4040", "opacity": 0.33, "fill": "#bf4040", "fillOpacity": 0.33, "color": "#bf4040", "contour": 15.0, "metric": "time"}, "geometry": {"coordinates": [[[96.675506, 4.570756], [96.675185, 4.569437], [96.674022, 4.568437], [96.673732, 4.566212], [96.672694, 4.56525], [96.671015, 4.564928], [96.670506, 4.564139], [96.66907, 4.563874], [96.66907, 4.563], [96.670679, 4.56261], [96.6707, 4.561437], [96.669863, 4.561081], [96.669617, 4.560327], [96.667813, 4.56013], [96.66765, 4.558437], [96.666781, 4.558163], [96.666607, 4.556337], [96.664847, 4.556096], [96.664624, 4.555319], [96.663883, 4.555061], [96.663636, 4.554308], [96.661952, 4.553992], [96.661661, 4.553282], [96.660026, 4.552917], [96.659506, 4.552106], [96.65821, 4.552141], [96.657506, 4.552913], [96.654753, 4.552437], [96.655932, 4.551863], [96.656966, 4.550437], [96.656506, 4.549738], [96.655403, 4.549437], [96.657506, 4.54894], [96.658209, 4.549735], [96.65993, 4.550014], [96.661326, 4.551618], [96.663052, 4.551892], [96.663506, 4.552639], [96.665124, 4.55282], [96.665384, 4.55356], [96.66616, 4.553783], [96.666395, 4.554549], [96.668205, 4.554739], [96.668506, 4.556567], [96.668752, 4.555682], [96.671506, 4.555548], [96.671718, 4.554649], [96.672606, 4.554437], [96.672704, 4.552635], [96.67357, 4.552501], [96.673692, 4.551623], [96.674566, 4.551497], [96.674678, 4.549609], [96.676591, 4.549437], [96.676709, 4.54364], [96.677613, 4.543437], [96.676732, 4.543211], [96.676584, 4.542359], [96.675747, 4.542196], [96.67564, 4.539437], [96.675773, 4.538704], [96.677652, 4.538437], [96.676828, 4.538116], [96.676618, 4.537326], [96.675859, 4.537084], [96.67563, 4.536314], [96.67489, 4.536053], [96.674506, 4.535177], [96.6711, 4.534843], [96.671506, 4.531438], [96.671775, 4.532437], [96.673261, 4.533683], [96.674506, 4.532686], [96.67606, 4.532884], [96.676376, 4.534567], [96.677129, 4.534814], [96.677389, 4.535554], [96.67818, 4.535764], [96.678401, 4.536543], [96.679203, 4.536741], [96.679506, 4.538587], [96.679839, 4.53777], [96.680623, 4.537553], [96.680867, 4.536798], [96.681635, 4.536565], [96.681915, 4.535846], [96.683098, 4.535846], [96.683506, 4.536654], [96.685047, 4.534978], [96.686754, 4.534685], [96.687506, 4.533892], [96.688841, 4.534102], [96.689506, 4.534955], [96.690506, 4.534213], [96.691796, 4.534437], [96.69099, 4.534921], [96.690506, 4.535798], [96.687272, 4.536203], [96.686506, 4.53791], [96.685506, 4.537151], [96.684506, 4.538196], [96.682384, 4.538315], [96.682152, 4.539083], [96.681299, 4.539644], [96.682066, 4.541437], [96.680344, 4.542274], [96.681181, 4.542763], [96.681181, 4.544112], [96.680403, 4.544334], [96.680242, 4.545173], [96.679384, 4.545314], [96.6803, 4.545644], [96.680409, 4.546535], [96.680326, 4.549257], [96.67945, 4.549381], [96.679456, 4.550487], [96.681506, 4.550507], [96.681641, 4.549572], [96.68638, 4.549564], [96.686381, 4.552311], [96.684632, 4.552311], [96.684442, 4.551372], [96.683462, 4.551392], [96.683369, 4.5523], [96.677658, 4.552286], [96.677558, 4.551386], [96.676506, 4.551355], [96.676443, 4.5525], [96.677307, 4.552637], [96.677307, 4.554238], [96.675443, 4.554374], [96.67531, 4.555241], [96.67444, 4.55537], [96.674301, 4.556232], [96.673436, 4.556367], [96.673291, 4.557222], [96.67038, 4.557437], [96.6704, 4.558543], [96.671177, 4.558767], [96.67139, 4.559553], [96.672145, 4.559799], [96.672368, 4.561575], [96.674506, 4.561713], [96.675231, 4.562437], [96.674989, 4.56292], [96.673271, 4.563437], [96.675158, 4.565437], [96.675162, 4.566782], [96.675904, 4.568437], [96.675506, 4.570756]]], "type": "Polygon"}, "type": "Feature"}], "type": "FeatureCollection"}