{"features": [{"properties": {"fill-opacity": 0.33, "fillColor": "#bf4040", "opacity": 0.33, "fill": "#bf4040", "fillOpacity": 0.33, "color": "#bf4040", "contour": 15.0, "metric": "time"}, "geometry": {"coordinates": [[[95.330117, 5.573412], [95.329117, 5.574091], [95.32653, 5.571353], [95.326117, 5.570215], [95.325117, 5.569801], [95.323054, 5.567353], [95.322117, 5.565492], [95.320886, 5.565353], [95.319794, 5.564675], [95.318944, 5.563526], [95.318447, 5.561023], [95.317697, 5.560933], [95.317117, 5.561978], [95.315903, 5.560353], [95.316117, 5.55992], [95.31622, 5.56025], [95.317687, 5.559924], [95.31805, 5.559353], [95.317617, 5.558353], [95.318398, 5.557353], [95.318322, 5.555147], [95.314864, 5.553353], [95.316022, 5.551353], [95.315387, 5.549083], [95.314772, 5.549009], [95.314117, 5.550136], [95.313756, 5.549713], [95.312066, 5.549353], [95.31254, 5.547777], [95.314117, 5.546913], [95.314387, 5.546353], [95.309981, 5.541489], [95.309504, 5.540353], [95.309992, 5.538353], [95.309297, 5.536353], [95.310471, 5.535708], [95.310431, 5.535038], [95.308117, 5.534209], [95.306751, 5.532353], [95.307874, 5.530353], [95.308726, 5.529963], [95.309699, 5.527771], [95.309236, 5.526353], [95.306717, 5.522353], [95.307797, 5.521033], [95.309117, 5.520229], [95.310117, 5.520309], [95.31152, 5.519756], [95.3126, 5.518353], [95.314698, 5.517935], [95.316117, 5.516416], [95.317117, 5.516896], [95.318117, 5.516827], [95.319117, 5.515797], [95.321117, 5.515412], [95.322386, 5.515623], [95.323026, 5.512353], [95.325117, 5.510889], [95.327117, 5.511744], [95.328117, 5.510864], [95.329117, 5.510648], [95.329802, 5.513667], [95.330886, 5.513353], [95.331117, 5.512494], [95.332117, 5.511887], [95.333107, 5.512353], [95.332626, 5.513353], [95.333329, 5.513565], [95.333494, 5.512975], [95.333122, 5.512359], [95.335049, 5.510353], [95.335014, 5.50925], [95.336117, 5.508614], [95.336732, 5.509737], [95.337648, 5.509353], [95.337538, 5.508931], [95.336376, 5.508353], [95.337117, 5.507069], [95.338117, 5.507538], [95.338586, 5.509353], [95.339117, 5.509962], [95.339182, 5.510418], [95.338447, 5.510683], [95.338613, 5.511856], [95.341117, 5.512138], [95.341771, 5.512007], [95.342117, 5.511207], [95.344826, 5.511353], [95.343645, 5.511882], [95.343365, 5.513104], [95.343638, 5.512874], [95.345864, 5.513353], [95.345537, 5.514353], [95.346117, 5.514887], [95.347288, 5.514182], [95.349771, 5.514699], [95.350017, 5.515353], [95.348751, 5.515988], [95.348822, 5.516648], [95.351876, 5.517353], [95.351843, 5.518627], [95.353433, 5.519353], [95.351718, 5.519955], [95.351151, 5.521387], [95.350093, 5.521329], [95.349783, 5.522019], [95.349825, 5.524644], [95.350495, 5.524731], [95.351117, 5.523988], [95.352996, 5.524353], [95.352436, 5.524672], [95.351828, 5.526064], [95.351117, 5.526275], [95.350546, 5.525924], [95.348117, 5.525818], [95.346977, 5.527493], [95.347705, 5.527765], [95.347983, 5.528487], [95.349117, 5.528803], [95.351117, 5.528755], [95.352522, 5.527948], [95.35468, 5.528353], [95.355171, 5.529299], [95.356084, 5.529386], [95.358117, 5.529049], [95.359117, 5.528133], [95.359863, 5.528353], [95.360117, 5.529596], [95.361117, 5.530433], [95.362117, 5.530267], [95.362199, 5.532353], [95.358117, 5.532798], [95.357117, 5.533947], [95.354464, 5.534006], [95.354035, 5.533271], [95.353933, 5.53417], [95.353027, 5.534353], [95.353296, 5.535353], [95.352641, 5.536353], [95.354896, 5.538353], [95.355464, 5.539353], [95.354691, 5.539927], [95.353717, 5.542353], [95.351729, 5.544353], [95.348117, 5.546386], [95.347117, 5.545666], [95.346448, 5.548353], [95.345514, 5.54875], [95.345117, 5.549512], [95.344689, 5.548353], [95.345425, 5.547661], [95.345351, 5.547119], [95.342117, 5.54574], [95.342399, 5.549353], [95.342061, 5.550353], [95.340651, 5.551353], [95.341117, 5.551887], [95.341537, 5.551773], [95.341627, 5.550864], [95.342117, 5.550434], [95.343146, 5.551353], [95.343393, 5.552353], [95.344346, 5.553353], [95.343957, 5.554353], [95.344606, 5.555353], [95.34365, 5.557887], [95.343919, 5.559353], [95.342185, 5.561421], [95.339737, 5.561973], [95.339295, 5.562531], [95.337808, 5.563045], [95.336968, 5.564204], [95.338658, 5.567353], [95.338117, 5.568464], [95.334117, 5.570029], [95.333852, 5.571353], [95.331117, 5.572549], [95.330117, 5.573412]]], "type": "Polygon"}, "type": "Feature"}], "type": "FeatureCollection"}