{"features": [{"properties": {"fill-opacity": 0.33, "fillColor": "#bf4040", "opacity": 0.33, "fill": "#bf4040", "fillOpacity": 0.33, "color": "#bf4040", "contour": 15.0, "metric": "time"}, "geometry": {"coordinates": [[[95.590846, 4.845608], [95.588983, 4.845534], [95.588893, 4.844624], [95.587997, 4.84452], [95.587899, 4.843618], [95.587012, 4.843505], [95.586905, 4.842612], [95.586034, 4.842483], [95.585919, 4.840598], [95.584846, 4.840535], [95.584506, 4.841332], [95.582846, 4.84147], [95.582249, 4.841268], [95.580846, 4.839146], [95.579883, 4.838671], [95.581846, 4.837973], [95.582676, 4.838841], [95.583846, 4.838841], [95.584128, 4.837954], [95.584846, 4.837813], [95.585563, 4.837954], [95.585758, 4.838759], [95.587616, 4.838901], [95.587744, 4.840671], [95.588665, 4.840852], [95.588789, 4.841728], [95.589682, 4.841835], [95.589795, 4.842722], [95.591719, 4.842798], [95.591719, 4.845545], [95.590846, 4.845608]]], "type": "Polygon"}, "type": "Feature"}], "type": "FeatureCollection"}