{"features": [{"properties": {"fill-opacity": 0.33, "fillColor": "#bf4040", "opacity": 0.33, "fill": "#bf4040", "fillOpacity": 0.33, "color": "#bf4040", "contour": 15.0, "metric": "time"}, "geometry": {"coordinates": [[[97.627501, 4.120119], [97.627076, 4.119439], [97.626308, 4.119207], [97.625933, 4.117014], [97.624862, 4.116014], [97.62478, 4.114014], [97.623744, 4.113014], [97.623711, 4.111014], [97.623921, 4.110433], [97.624684, 4.110014], [97.624593, 4.106921], [97.622756, 4.106759], [97.62258, 4.104935], [97.619717, 4.104798], [97.61957, 4.103945], [97.617699, 4.103816], [97.617565, 4.10295], [97.615681, 4.102833], [97.61556, 4.101955], [97.61367, 4.101844], [97.613555, 4.09996], [97.612656, 4.099859], [97.612552, 4.098963], [97.611651, 4.098864], [97.61155, 4.097965], [97.610646, 4.097869], [97.610501, 4.096945], [97.610361, 4.097873], [97.596501, 4.097902], [97.596262, 4.098774], [97.594417, 4.098929], [97.594239, 4.099751], [97.593362, 4.100014], [97.593208, 4.10172], [97.592342, 4.102014], [97.592158, 4.10367], [97.590364, 4.103877], [97.589247, 4.105014], [97.590189, 4.106014], [97.589182, 4.107014], [97.590108, 4.108014], [97.589922, 4.110014], [97.590645, 4.111014], [97.590501, 4.111467], [97.589363, 4.111152], [97.588052, 4.110014], [97.587756, 4.105014], [97.586734, 4.104014], [97.586785, 4.100014], [97.585839, 4.099014], [97.586011, 4.096014], [97.58527, 4.095014], [97.585501, 4.093714], [97.587123, 4.095392], [97.588674, 4.095841], [97.58803, 4.097014], [97.588267, 4.102014], [97.59032, 4.102195], [97.590661, 4.102014], [97.590816, 4.100328], [97.591641, 4.100014], [97.591773, 4.098286], [97.592589, 4.098101], [97.592758, 4.09727], [97.594581, 4.097093], [97.594734, 4.096246], [97.603501, 4.096099], [97.603666, 4.095178], [97.604501, 4.095096], [97.606338, 4.095177], [97.606501, 4.096091], [97.606651, 4.095163], [97.608545, 4.095058], [97.608629, 4.093141], [97.611376, 4.093139], [97.611456, 4.095059], [97.612361, 4.095154], [97.612454, 4.096061], [97.613356, 4.096159], [97.613452, 4.097063], [97.614349, 4.097166], [97.614449, 4.098065], [97.615341, 4.098174], [97.615446, 4.100069], [97.617327, 4.100188], [97.617442, 4.101073], [97.619312, 4.101203], [97.619436, 4.102079], [97.621294, 4.102221], [97.621501, 4.103121], [97.624263, 4.103252], [97.624417, 4.105098], [97.62622, 4.105294], [97.626303, 4.111014], [97.626104, 4.111616], [97.625283, 4.112014], [97.626236, 4.113014], [97.626266, 4.115249], [97.62799, 4.117014], [97.627501, 4.120119]]], "type": "Polygon"}, "type": "Feature"}], "type": "FeatureCollection"}