{"features": [{"properties": {"fill-opacity": 0.33, "fillColor": "#bf4040", "opacity": 0.33, "fill": "#bf4040", "fillOpacity": 0.33, "color": "#bf4040", "contour": 15.0, "metric": "time"}, "geometry": {"coordinates": [[[96.379643, 5.132235], [96.378643, 5.132381], [96.378143, 5.131881], [96.377856, 5.127881], [96.37702, 5.127504], [96.37674, 5.124785], [96.375919, 5.124606], [96.375733, 5.117881], [96.374811, 5.117713], [96.374697, 5.116827], [96.373799, 5.116725], [96.373717, 5.114881], [96.372786, 5.114738], [96.372786, 5.113023], [96.37371, 5.112881], [96.37277, 5.112755], [96.37277, 5.110007], [96.374517, 5.110007], [96.374601, 5.110923], [96.375515, 5.11101], [96.37557, 5.114881], [96.376482, 5.115042], [96.376587, 5.115937], [96.377467, 5.116057], [96.377581, 5.117944], [96.378446, 5.118078], [96.37844, 5.120677], [96.377535, 5.120881], [96.377516, 5.122881], [96.37835, 5.123174], [96.378479, 5.125881], [96.379244, 5.12628], [96.379456, 5.129068], [96.380331, 5.129881], [96.37928, 5.130881], [96.379643, 5.131527], [96.380554, 5.131881], [96.379643, 5.132235]]], "type": "Polygon"}, "type": "Feature"}], "type": "FeatureCollection"}