{"features": [{"properties": {"fill-opacity": 0.33, "fillColor": "#bf4040", "opacity": 0.33, "fill": "#bf4040", "fillOpacity": 0.33, "color": "#bf4040", "contour": 15.0, "metric": "time"}, "geometry": {"coordinates": [[[97.009172, 3.579642], [97.00773, 3.579459], [97.007357, 3.577831], [97.006688, 3.577501], [97.0054, 3.575789], [97.004172, 3.575584], [97.003172, 3.574477], [97.001955, 3.574234], [97.0018, 3.573389], [97.00112, 3.573017], [97.002172, 3.572845], [97.002732, 3.573457], [97.004172, 3.573487], [97.004891, 3.574298], [97.006606, 3.574583], [97.007172, 3.575318], [97.007559, 3.574403], [97.00927, 3.574115], [97.009446, 3.573291], [97.011906, 3.573283], [97.012172, 3.574126], [97.012349, 3.572194], [97.013227, 3.572072], [97.013329, 3.571174], [97.015219, 3.571064], [97.015301, 3.569146], [97.018045, 3.569144], [97.018045, 3.57089], [97.017105, 3.571017], [97.017025, 3.57287], [97.01512, 3.572965], [97.015008, 3.573853], [97.014075, 3.574017], [97.013959, 3.575804], [97.009049, 3.575894], [97.008874, 3.578017], [97.009797, 3.579017], [97.009172, 3.579642]]], "type": "Polygon"}, "type": "Feature"}], "type": "FeatureCollection"}