{"features": [{"properties": {"fill-opacity": 0.33, "fillColor": "#bf4040", "opacity": 0.33, "fill": "#bf4040", "fillOpacity": 0.33, "color": "#bf4040", "contour": 15.0, "metric": "time"}, "geometry": {"coordinates": [[[96.017006, 2.590868], [96.015006, 2.590695], [96.014006, 2.591011], [96.013752, 2.590557], [96.014006, 2.590088], [96.016006, 2.589798], [96.017239, 2.588536], [96.017263, 2.586303], [96.018455, 2.584752], [96.024006, 2.584461], [96.024305, 2.583602], [96.025006, 2.583452], [96.031006, 2.583415], [96.031219, 2.582515], [96.036006, 2.58239], [96.036196, 2.581493], [96.039006, 2.581405], [96.039225, 2.580522], [96.044006, 2.580429], [96.044277, 2.579573], [96.046104, 2.579401], [96.046315, 2.578612], [96.049125, 2.578422], [96.049379, 2.577676], [96.050214, 2.577303], [96.050457, 2.575754], [96.052006, 2.574561], [96.053197, 2.574494], [96.053457, 2.572852], [96.052724, 2.572585], [96.052724, 2.57202], [96.053288, 2.57202], [96.053555, 2.572754], [96.055006, 2.572664], [96.057006, 2.570904], [96.059044, 2.571303], [96.057598, 2.571895], [96.054472, 2.575769], [96.052839, 2.576136], [96.052545, 2.576842], [96.051859, 2.577155], [96.051612, 2.578909], [96.050881, 2.579178], [96.050645, 2.579942], [96.048006, 2.580144], [96.047709, 2.581006], [96.045915, 2.581212], [96.045739, 2.582035], [96.041006, 2.582192], [96.040794, 2.58309], [96.037942, 2.583239], [96.037934, 2.585303], [96.038871, 2.585438], [96.038963, 2.586346], [96.039879, 2.58643], [96.039879, 2.588176], [96.037133, 2.588176], [96.037051, 2.587258], [96.036148, 2.587161], [96.036058, 2.585251], [96.035173, 2.585136], [96.035065, 2.584244], [96.033006, 2.584201], [96.032784, 2.585081], [96.026006, 2.585163], [96.025694, 2.585991], [96.025006, 2.586147], [96.019855, 2.586152], [96.018729, 2.587303], [96.01844, 2.589736], [96.017006, 2.590868]]], "type": "Polygon"}, "type": "Feature"}], "type": "FeatureCollection"}