{"features": [{"properties": {"fill-opacity": 0.33, "fillColor": "#bf4040", "opacity": 0.33, "fill": "#bf4040", "fillOpacity": 0.33, "color": "#bf4040", "contour": 15.0, "metric": "time"}, "geometry": {"coordinates": [[[96.41069, 5.117739], [96.410065, 5.116741], [96.409336, 5.116469], [96.408997, 5.114809], [96.408207, 5.114599], [96.406826, 5.112979], [96.406068, 5.112738], [96.405806, 5.111999], [96.405021, 5.111785], [96.404782, 5.110024], [96.403944, 5.109861], [96.40369, 5.109003], [96.401911, 5.108895], [96.401836, 5.100261], [96.402737, 5.100162], [96.402825, 5.099251], [96.403734, 5.09916], [96.40382, 5.098245], [96.406564, 5.098242], [96.406627, 5.099115], [96.406564, 5.099989], [96.405647, 5.100072], [96.405556, 5.100982], [96.404644, 5.10107], [96.404548, 5.101973], [96.403615, 5.102115], [96.404528, 5.102277], [96.404597, 5.106022], [96.404495, 5.106921], [96.403588, 5.107115], [96.405445, 5.107361], [96.405604, 5.108201], [96.406414, 5.108391], [96.406582, 5.110223], [96.407351, 5.110454], [96.407566, 5.111239], [96.40829, 5.111516], [96.408538, 5.112267], [96.409181, 5.112625], [96.409383, 5.114422], [96.410126, 5.11468], [96.411143, 5.116115], [96.41069, 5.117739]]], "type": "Polygon"}, "type": "Feature"}], "type": "FeatureCollection"}