{"features": [{"properties": {"fill-opacity": 0.33, "fillColor": "#bf4040", "opacity": 0.33, "fill": "#bf4040", "fillOpacity": 0.33, "color": "#bf4040", "contour": 15.0, "metric": "time"}, "geometry": {"coordinates": [[[97.856389, 3.464649], [97.855847, 3.463425], [97.85498, 3.462884], [97.854662, 3.461611], [97.853389, 3.46053], [97.851724, 3.461884], [97.85141, 3.462906], [97.850389, 3.46256], [97.849851, 3.461422], [97.848706, 3.460884], [97.849658, 3.460153], [97.850389, 3.458283], [97.850947, 3.459326], [97.852648, 3.459143], [97.852723, 3.457549], [97.851132, 3.457141], [97.851185, 3.455884], [97.851906, 3.456367], [97.853389, 3.45641], [97.854916, 3.454884], [97.855389, 3.452579], [97.856193, 3.457079], [97.856594, 3.456884], [97.856781, 3.455276], [97.857562, 3.454884], [97.857565, 3.453884], [97.856735, 3.453537], [97.856562, 3.452884], [97.856389, 3.445251], [97.855389, 3.445103], [97.853804, 3.443884], [97.858389, 3.443092], [97.858775, 3.44227], [97.859389, 3.442077], [97.862389, 3.442041], [97.862712, 3.441208], [97.86349, 3.440986], [97.863555, 3.439884], [97.861816, 3.438457], [97.861549, 3.436724], [97.859926, 3.436347], [97.859389, 3.435529], [97.858898, 3.435884], [97.858389, 3.438537], [97.857754, 3.436518], [97.855701, 3.434884], [97.855883, 3.43339], [97.855107, 3.432884], [97.856389, 3.432609], [97.856986, 3.433287], [97.85774, 3.433235], [97.858389, 3.431503], [97.859118, 3.434155], [97.859634, 3.434129], [97.859838, 3.432884], [97.860389, 3.432333], [97.861122, 3.43315], [97.861602, 3.433097], [97.862389, 3.427551], [97.863504, 3.428884], [97.862879, 3.429884], [97.863097, 3.433884], [97.864097, 3.434884], [97.864199, 3.437884], [97.865034, 3.438238], [97.865389, 3.441032], [97.865715, 3.440211], [97.868389, 3.440063], [97.868787, 3.439282], [97.87054, 3.439035], [97.871664, 3.437884], [97.87078, 3.436884], [97.870983, 3.436478], [97.872389, 3.436223], [97.873389, 3.437175], [97.874649, 3.436144], [97.875207, 3.434703], [97.877995, 3.43449], [97.878389, 3.434118], [97.878494, 3.436884], [97.877389, 3.436961], [97.876389, 3.436397], [97.875057, 3.437884], [97.875389, 3.438276], [97.876766, 3.438506], [97.877777, 3.439884], [97.877485, 3.440981], [97.875389, 3.439492], [97.873389, 3.439594], [97.872144, 3.440884], [97.872161, 3.443111], [97.873727, 3.444545], [97.873954, 3.446318], [97.874664, 3.446884], [97.874389, 3.447563], [97.873205, 3.447067], [97.872931, 3.445884], [97.871643, 3.444629], [97.870939, 3.444884], [97.870839, 3.445884], [97.870389, 3.446335], [97.869389, 3.445378], [97.868093, 3.44518], [97.868093, 3.444588], [97.869031, 3.443526], [97.870613, 3.443109], [97.870554, 3.441718], [97.867389, 3.441715], [97.867076, 3.442571], [97.865255, 3.442884], [97.865266, 3.444884], [97.866155, 3.445118], [97.866282, 3.447884], [97.867185, 3.448088], [97.867323, 3.44895], [97.867611, 3.447107], [97.869166, 3.447107], [97.869317, 3.447956], [97.871163, 3.44811], [97.871163, 3.449658], [97.870291, 3.449884], [97.87118, 3.450093], [97.871318, 3.450955], [97.875139, 3.451133], [97.875304, 3.451969], [97.876124, 3.452149], [97.876124, 3.453619], [97.873641, 3.453631], [97.873389, 3.452765], [97.870389, 3.452777], [97.870308, 3.453884], [97.871233, 3.454039], [97.871389, 3.454959], [97.874248, 3.455025], [97.874343, 3.45593], [97.876258, 3.456015], [97.876389, 3.456947], [97.878263, 3.45701], [97.878263, 3.459758], [97.876514, 3.459758], [97.876431, 3.458842], [97.874519, 3.458754], [97.874433, 3.45784], [97.873389, 3.457815], [97.873239, 3.458734], [97.87118, 3.458884], [97.870936, 3.460432], [97.870389, 3.460658], [97.865964, 3.460308], [97.865697, 3.458576], [97.864937, 3.457884], [97.865389, 3.456531], [97.866023, 3.457249], [97.866633, 3.457128], [97.866486, 3.455786], [97.865674, 3.455599], [97.865517, 3.452884], [97.864632, 3.452641], [97.864463, 3.450809], [97.862389, 3.450762], [97.862099, 3.453594], [97.861233, 3.453884], [97.862041, 3.454231], [97.862193, 3.456884], [97.862966, 3.457306], [97.863154, 3.458884], [97.862389, 3.459649], [97.860389, 3.459599], [97.858593, 3.457679], [97.858251, 3.457746], [97.857955, 3.45845], [97.856084, 3.459884], [97.856795, 3.460884], [97.856064, 3.46156], [97.856007, 3.462266], [97.857298, 3.462884], [97.856785, 3.46328], [97.856389, 3.464649]]], "type": "Polygon"}, "type": "Feature"}], "type": "FeatureCollection"}