{"features": [{"properties": {"fill-opacity": 0.33, "fillColor": "#bf4040", "opacity": 0.33, "fill": "#bf4040", "fillOpacity": 0.33, "color": "#bf4040", "contour": 15.0, "metric": "time"}, "geometry": {"coordinates": [[[97.597332, 4.902809], [97.597111, 4.901292], [97.597827, 4.900292], [97.597694, 4.898292], [97.594768, 4.895292], [97.595332, 4.894728], [97.596332, 4.894664], [97.597332, 4.89559], [97.598484, 4.894443], [97.598525, 4.893292], [97.596661, 4.892963], [97.596332, 4.892147], [97.594618, 4.892006], [97.59446, 4.889292], [97.593569, 4.889056], [97.59344, 4.886292], [97.592539, 4.886085], [97.592398, 4.885226], [97.590521, 4.885103], [97.590332, 4.884209], [97.587492, 4.884132], [97.587483, 4.880442], [97.588405, 4.880292], [97.588399, 4.877359], [97.587461, 4.877163], [97.58746, 4.874419], [97.590207, 4.874417], [97.590398, 4.875358], [97.592402, 4.875361], [97.592473, 4.874432], [97.595189, 4.874435], [97.595284, 4.87534], [97.596332, 4.875372], [97.5965, 4.874459], [97.59739, 4.874349], [97.597514, 4.872473], [97.598425, 4.872385], [97.59853, 4.87049], [97.599437, 4.870292], [97.599663, 4.860622], [97.603332, 4.86049], [97.604332, 4.859524], [97.606332, 4.859552], [97.607332, 4.860595], [97.608768, 4.860857], [97.609332, 4.861739], [97.610062, 4.861021], [97.611332, 4.860602], [97.611573, 4.861292], [97.610332, 4.862729], [97.606332, 4.862978], [97.605875, 4.862749], [97.605332, 4.861054], [97.604332, 4.862073], [97.601223, 4.862182], [97.601133, 4.872092], [97.600267, 4.872226], [97.600142, 4.873101], [97.599239, 4.873199], [97.599161, 4.87612], [97.598277, 4.876236], [97.598169, 4.877128], [97.597279, 4.877239], [97.597177, 4.878136], [97.594483, 4.878141], [97.594382, 4.877242], [97.593479, 4.877145], [97.593332, 4.876222], [97.593196, 4.877155], [97.590267, 4.877292], [97.590286, 4.878338], [97.591192, 4.878432], [97.591252, 4.880372], [97.593102, 4.880522], [97.593223, 4.882292], [97.594125, 4.882499], [97.594265, 4.88436], [97.595123, 4.884501], [97.595219, 4.887292], [97.596088, 4.887536], [97.596248, 4.888376], [97.597074, 4.88855], [97.597236, 4.890388], [97.598999, 4.890625], [97.599219, 4.891405], [97.599979, 4.891645], [97.600206, 4.892419], [97.600924, 4.8927], [97.602332, 4.894573], [97.602718, 4.894292], [97.602831, 4.893292], [97.602143, 4.892292], [97.602332, 4.891158], [97.602782, 4.891842], [97.604682, 4.892942], [97.605332, 4.894934], [97.606332, 4.894545], [97.606584, 4.89504], [97.605571, 4.89653], [97.604332, 4.896685], [97.602942, 4.898292], [97.602754, 4.900292], [97.603543, 4.901292], [97.603332, 4.902251], [97.602965, 4.901659], [97.602156, 4.901468], [97.601911, 4.900292], [97.601332, 4.899791], [97.600674, 4.900633], [97.598992, 4.900951], [97.597837, 4.901796], [97.597332, 4.902809]]], "type": "Polygon"}, "type": "Feature"}], "type": "FeatureCollection"}