{"features": [{"properties": {"fill-opacity": 0.33, "fillColor": "#bf4040", "opacity": 0.33, "fill": "#bf4040", "fillOpacity": 0.33, "color": "#bf4040", "contour": 15.0, "metric": "time"}, "geometry": {"coordinates": [[[95.610164, 4.772323], [95.609291, 4.772259], [95.609208, 4.771343], [95.608302, 4.771249], [95.608213, 4.770338], [95.607316, 4.770235], [95.607322, 4.767543], [95.608164, 4.767253], [95.604477, 4.767073], [95.604164, 4.76622], [95.603798, 4.76702], [95.602164, 4.768178], [95.60059, 4.767961], [95.599923, 4.767145], [95.599164, 4.768133], [95.597164, 4.768074], [95.596477, 4.767386], [95.596164, 4.765994], [95.594164, 4.767593], [95.593015, 4.767536], [95.593097, 4.764386], [95.596164, 4.76383], [95.597587, 4.764963], [95.598164, 4.766666], [95.599406, 4.766628], [95.599626, 4.765848], [95.600164, 4.765617], [95.602164, 4.765579], [95.602519, 4.764741], [95.603164, 4.764563], [95.605842, 4.764708], [95.606164, 4.765534], [95.606444, 4.764666], [95.607302, 4.764523], [95.608895, 4.764656], [95.609164, 4.765513], [95.612164, 4.765502], [95.612414, 4.764636], [95.61325, 4.764472], [95.613433, 4.763655], [95.61526, 4.763482], [95.615462, 4.762684], [95.616268, 4.76249], [95.616494, 4.761716], [95.617278, 4.761499], [95.617521, 4.760743], [95.619297, 4.760519], [95.619599, 4.759821], [95.620406, 4.759386], [95.620675, 4.757896], [95.621699, 4.756921], [95.623415, 4.756636], [95.624164, 4.755775], [95.628438, 4.756386], [95.626164, 4.756868], [95.625164, 4.757933], [95.622967, 4.758188], [95.621992, 4.759214], [95.621721, 4.760942], [95.621023, 4.761245], [95.620769, 4.761991], [95.619047, 4.762269], [95.61883, 4.763052], [95.618057, 4.763279], [95.617858, 4.76408], [95.617065, 4.764287], [95.616875, 4.765096], [95.615076, 4.765298], [95.614909, 4.76613], [95.614082, 4.766303], [95.613923, 4.767145], [95.612164, 4.767271], [95.611958, 4.76818], [95.610106, 4.768327], [95.610091, 4.769386], [95.611036, 4.769515], [95.6111, 4.770386], [95.611038, 4.772259], [95.610164, 4.772323]]], "type": "Polygon"}, "type": "Feature"}], "type": "FeatureCollection"}