{"features": [{"properties": {"fill-opacity": 0.33, "fillColor": "#bf4040", "opacity": 0.33, "fill": "#bf4040", "fillOpacity": 0.33, "color": "#bf4040", "contour": 15.0, "metric": "time"}, "geometry": {"coordinates": [[[95.350526, 5.578404], [95.349526, 5.576774], [95.343711, 5.574155], [95.343526, 5.573629], [95.341526, 5.574045], [95.341274, 5.57334], [95.339827, 5.57204], [95.339138, 5.571952], [95.338994, 5.57334], [95.337909, 5.57434], [95.337526, 5.576359], [95.336526, 5.575498], [95.335526, 5.576186], [95.335299, 5.57534], [95.334526, 5.574614], [95.332155, 5.574711], [95.330993, 5.57334], [95.329, 5.56834], [95.327714, 5.56734], [95.327703, 5.566164], [95.325649, 5.565217], [95.325078, 5.563789], [95.323276, 5.56234], [95.322893, 5.560974], [95.321866, 5.56168], [95.320526, 5.56182], [95.320309, 5.56134], [95.320944, 5.560758], [95.320799, 5.560067], [95.318526, 5.560031], [95.318319, 5.557547], [95.319233, 5.555047], [95.319983, 5.55434], [95.319526, 5.552758], [95.318952, 5.55234], [95.319022, 5.55134], [95.321169, 5.547983], [95.322401, 5.54734], [95.322033, 5.54634], [95.322376, 5.54534], [95.326519, 5.54134], [95.327175, 5.541691], [95.327526, 5.542564], [95.328526, 5.541908], [95.329526, 5.543487], [95.330526, 5.540186], [95.330845, 5.54134], [95.331526, 5.541789], [95.333526, 5.541818], [95.334526, 5.541188], [95.335526, 5.542561], [95.336526, 5.541841], [95.337503, 5.544363], [95.339032, 5.545835], [95.340545, 5.546359], [95.340138, 5.545728], [95.340526, 5.544903], [95.341526, 5.544528], [95.341717, 5.53934], [95.342757, 5.53834], [95.342795, 5.53734], [95.342526, 5.536601], [95.341414, 5.537452], [95.341061, 5.535806], [95.340318, 5.53534], [95.340526, 5.53177], [95.342526, 5.529574], [95.343526, 5.529846], [95.346526, 5.52555], [95.346907, 5.52734], [95.347959, 5.52834], [95.348526, 5.530604], [95.349759, 5.53034], [95.34881, 5.52934], [95.349049, 5.528863], [95.351526, 5.528577], [95.351977, 5.527791], [95.353669, 5.527483], [95.353526, 5.524958], [95.352164, 5.524978], [95.351526, 5.526304], [95.351089, 5.525778], [95.349491, 5.52534], [95.350238, 5.524052], [95.353526, 5.523722], [95.354765, 5.522579], [95.355093, 5.52034], [95.354334, 5.51934], [95.355526, 5.518167], [95.356535, 5.51934], [95.356359, 5.520508], [95.357526, 5.520182], [95.359458, 5.52234], [95.358741, 5.52434], [95.359526, 5.52688], [95.360251, 5.526065], [95.360899, 5.525967], [95.362526, 5.527047], [95.363765, 5.527102], [95.365526, 5.528113], [95.368841, 5.529025], [95.368971, 5.53034], [95.369912, 5.53134], [95.370068, 5.53334], [95.371253, 5.534614], [95.372948, 5.534762], [95.373526, 5.533973], [95.374526, 5.534622], [95.374653, 5.53534], [95.373526, 5.537265], [95.372939, 5.535928], [95.371526, 5.535915], [95.371185, 5.53634], [95.371297, 5.556111], [95.371047, 5.556861], [95.370297, 5.55734], [95.370302, 5.558116], [95.370526, 5.558591], [95.371741, 5.558555], [95.372038, 5.55634], [95.373162, 5.55534], [95.373017, 5.55434], [95.373526, 5.55381], [95.374431, 5.55634], [95.373201, 5.557015], [95.373256, 5.55761], [95.374092, 5.55834], [95.373191, 5.55934], [95.374886, 5.56034], [95.37407, 5.56134], [95.374864, 5.56234], [95.374897, 5.563711], [95.374526, 5.564448], [95.371526, 5.564767], [95.369339, 5.564153], [95.36892, 5.564734], [95.36752, 5.565346], [95.367368, 5.56434], [95.368097, 5.56334], [95.368098, 5.56234], [95.367526, 5.562137], [95.367158, 5.562972], [95.366404, 5.563218], [95.366136, 5.56395], [95.365397, 5.564211], [95.364121, 5.565935], [95.363385, 5.566199], [95.363024, 5.567838], [95.359265, 5.571079], [95.359117, 5.57175], [95.359924, 5.57234], [95.357895, 5.572709], [95.357188, 5.574002], [95.35637, 5.574183], [95.355664, 5.576478], [95.354796, 5.57661], [95.354526, 5.577534], [95.352526, 5.577643], [95.351526, 5.578308], [95.350526, 5.578404]]], "type": "Polygon"}, "type": "Feature"}], "type": "FeatureCollection"}