{"features": [{"properties": {"fill-opacity": 0.33, "fillColor": "#bf4040", "opacity": 0.33, "fill": "#bf4040", "fillOpacity": 0.33, "color": "#bf4040", "contour": 15.0, "metric": "time"}, "geometry": {"coordinates": [[[95.489226, 4.928619], [95.488355, 4.928555], [95.488269, 4.92764], [95.487359, 4.927551], [95.487359, 4.925816], [95.488298, 4.925684], [95.48739, 4.92552], [95.487335, 4.920684], [95.486511, 4.920398], [95.486421, 4.916684], [95.485515, 4.915684], [95.485624, 4.914082], [95.486226, 4.91259], [95.48689, 4.914684], [95.487971, 4.915684], [95.488083, 4.918684], [95.488974, 4.918935], [95.489142, 4.923684], [95.490071, 4.923838], [95.490097, 4.928555], [95.489226, 4.928619]]], "type": "Polygon"}, "type": "Feature"}], "type": "FeatureCollection"}