{"features": [{"properties": {"fill-opacity": 0.33, "fillColor": "#bf4040", "opacity": 0.33, "fill": "#bf4040", "fillOpacity": 0.33, "color": "#bf4040", "contour": 15.0, "metric": "time"}, "geometry": {"coordinates": [[[97.092321, 4.565692], [97.091472, 4.565617], [97.091392, 4.562768], [97.090458, 4.562631], [97.090366, 4.560723], [97.08946, 4.560629], [97.089393, 4.557768], [97.08847, 4.557619], [97.088374, 4.555715], [97.087485, 4.555604], [97.087377, 4.554712], [97.086493, 4.554596], [97.086383, 4.552706], [97.085516, 4.552573], [97.085387, 4.551702], [97.084527, 4.551562], [97.084391, 4.550698], [97.080578, 4.550511], [97.080409, 4.54968], [97.079597, 4.549492], [97.079428, 4.547661], [97.078685, 4.547404], [97.078456, 4.545633], [97.077759, 4.54533], [97.076321, 4.543487], [97.07496, 4.543407], [97.074715, 4.544162], [97.073321, 4.54521], [97.071131, 4.544958], [97.072699, 4.544146], [97.072991, 4.543438], [97.074682, 4.543129], [97.073701, 4.541768], [97.074321, 4.541148], [97.075624, 4.541071], [97.076321, 4.539033], [97.076818, 4.541768], [97.079916, 4.544173], [97.080196, 4.544893], [97.080974, 4.545115], [97.081213, 4.545876], [97.082022, 4.546067], [97.082237, 4.548852], [97.082556, 4.548002], [97.084087, 4.548002], [97.084246, 4.548843], [97.086114, 4.548975], [97.086253, 4.549836], [97.087125, 4.549964], [97.087257, 4.550832], [97.088135, 4.550954], [97.088264, 4.552825], [97.089155, 4.552934], [97.089267, 4.553822], [97.090163, 4.553926], [97.090244, 4.555768], [97.091173, 4.555916], [97.091275, 4.558814], [97.092364, 4.55881], [97.092447, 4.557894], [97.094195, 4.557894], [97.094194, 4.560641], [97.093255, 4.560768], [97.09317, 4.565617], [97.092321, 4.565692]]], "type": "Polygon"}, "type": "Feature"}], "type": "FeatureCollection"}