{"features": [{"properties": {"fill-opacity": 0.33, "fillColor": "#bf4040", "opacity": 0.33, "fill": "#bf4040", "fillOpacity": 0.33, "color": "#bf4040", "contour": 15.0, "metric": "time"}, "geometry": {"coordinates": [[[96.800965, 5.139905], [96.800388, 5.139328], [96.800278, 5.137328], [96.801213, 5.136328], [96.801135, 5.131328], [96.801305, 5.130668], [96.803066, 5.130429], [96.803093, 5.128328], [96.800965, 5.128198], [96.800677, 5.12904], [96.799865, 5.129228], [96.799651, 5.130014], [96.798856, 5.130219], [96.798614, 5.130977], [96.797316, 5.130977], [96.796965, 5.130158], [96.796578, 5.13094], [96.794824, 5.131187], [96.794514, 5.131877], [96.793805, 5.132168], [96.793595, 5.135328], [96.794457, 5.136328], [96.794525, 5.137768], [96.79519, 5.138328], [96.794965, 5.139326], [96.794574, 5.138719], [96.793965, 5.138607], [96.792965, 5.139939], [96.792429, 5.136864], [96.792223, 5.130328], [96.791275, 5.129328], [96.791294, 5.128328], [96.791965, 5.127657], [96.792965, 5.127679], [96.793614, 5.128328], [96.7938, 5.129493], [96.794965, 5.129525], [96.795333, 5.128696], [96.798068, 5.128431], [96.798261, 5.127624], [96.79906, 5.127423], [96.799097, 5.126328], [96.798207, 5.126086], [96.797875, 5.125238], [96.797536, 5.127899], [96.796394, 5.127899], [96.796102, 5.124328], [96.796239, 5.123602], [96.797042, 5.123251], [96.794229, 5.123064], [96.793965, 5.122189], [96.792259, 5.122034], [96.792067, 5.121226], [96.791281, 5.121012], [96.791075, 5.120218], [96.790307, 5.119986], [96.790087, 5.119206], [96.789358, 5.118935], [96.789161, 5.118328], [96.789365, 5.116728], [96.790565, 5.116728], [96.791849, 5.118444], [96.792629, 5.118664], [96.792859, 5.119434], [96.793658, 5.119635], [96.793868, 5.120425], [96.795694, 5.120599], [96.796085, 5.121328], [96.796065, 5.118228], [96.795282, 5.118011], [96.794965, 5.117157], [96.793331, 5.116962], [96.793156, 5.116137], [96.792365, 5.115928], [96.791965, 5.115071], [96.790496, 5.114797], [96.790199, 5.113094], [96.788965, 5.112854], [96.788438, 5.112328], [96.790349, 5.111328], [96.790412, 5.110328], [96.789673, 5.109328], [96.789722, 5.108328], [96.790965, 5.107584], [96.791629, 5.112328], [96.792113, 5.112476], [96.792293, 5.105328], [96.793298, 5.104661], [96.793704, 5.103067], [96.79445, 5.102812], [96.794794, 5.101157], [96.795965, 5.100736], [96.796105, 5.101328], [96.795501, 5.101864], [96.795437, 5.103328], [96.794666, 5.104029], [96.794394, 5.105757], [96.793675, 5.106328], [96.793791, 5.107502], [96.795697, 5.109328], [96.794965, 5.11006], [96.79382, 5.110183], [96.793965, 5.110499], [96.796064, 5.110427], [96.79625, 5.109612], [96.797056, 5.109419], [96.797229, 5.108592], [96.79805, 5.108412], [96.798208, 5.107571], [96.799044, 5.107407], [96.799168, 5.10353], [96.801028, 5.103391], [96.801146, 5.101509], [96.807811, 5.101482], [96.80789, 5.102403], [96.809818, 5.102475], [96.809918, 5.104375], [96.811819, 5.104474], [96.811819, 5.106181], [96.809965, 5.106257], [96.809828, 5.10719], [96.808921, 5.107283], [96.809839, 5.107454], [96.80984, 5.110203], [96.808901, 5.110328], [96.808834, 5.112197], [96.807898, 5.112328], [96.807826, 5.114189], [96.806918, 5.114281], [96.80682, 5.115183], [96.805916, 5.115279], [96.805811, 5.117174], [96.804886, 5.117328], [96.804796, 5.120158], [96.803869, 5.120424], [96.805741, 5.120552], [96.805965, 5.121445], [96.806212, 5.120575], [96.80906, 5.120423], [96.809278, 5.118641], [96.810965, 5.118495], [96.811631, 5.118661], [96.811798, 5.119328], [96.811631, 5.119994], [96.810861, 5.120223], [96.810965, 5.120479], [96.816965, 5.120562], [96.817965, 5.121584], [96.818965, 5.120635], [96.821252, 5.120615], [96.822965, 5.119046], [96.823986, 5.119307], [96.823616, 5.120328], [96.822618, 5.12098], [96.822345, 5.121707], [96.819965, 5.122002], [96.818965, 5.123045], [96.817469, 5.122824], [96.81721, 5.122083], [96.808098, 5.122195], [96.807721, 5.123084], [96.802899, 5.123262], [96.803751, 5.123542], [96.803965, 5.125453], [96.80424, 5.124603], [96.806965, 5.124477], [96.807285, 5.123648], [96.807965, 5.123488], [96.808645, 5.123648], [96.808965, 5.124495], [96.810602, 5.124691], [96.810838, 5.125455], [96.811569, 5.125724], [96.811537, 5.1279], [96.809802, 5.128165], [96.808652, 5.129328], [96.808395, 5.130758], [96.806725, 5.131088], [96.806795, 5.131498], [96.807615, 5.131678], [96.80784, 5.132453], [96.809965, 5.13257], [96.810965, 5.1336], [96.812965, 5.133669], [96.813965, 5.134718], [96.817944, 5.135328], [96.812965, 5.135964], [96.811965, 5.135025], [96.807965, 5.135115], [96.806346, 5.133947], [96.806135, 5.132158], [96.802965, 5.132168], [96.802738, 5.135328], [96.803699, 5.136328], [96.803692, 5.137328], [96.802965, 5.138055], [96.801755, 5.138117], [96.801542, 5.139328], [96.800965, 5.139905]]], "type": "Polygon"}, "type": "Feature"}], "type": "FeatureCollection"}