{"features": [{"properties": {"fill-opacity": 0.33, "fillColor": "#bf4040", "opacity": 0.33, "fill": "#bf4040", "fillOpacity": 0.33, "color": "#bf4040", "contour": 15.0, "metric": "time"}, "geometry": {"coordinates": [[[96.963764, 4.175178], [96.962898, 4.175111], [96.962893, 4.171374], [96.963806, 4.171288], [96.963892, 4.170373], [96.965831, 4.170312], [96.965905, 4.168387], [96.966838, 4.168245], [96.966934, 4.164416], [96.972764, 4.164355], [96.973004, 4.163485], [96.973846, 4.163327], [96.974019, 4.1625], [96.974852, 4.162334], [96.975038, 4.16152], [96.975859, 4.16134], [96.976066, 4.160547], [96.977873, 4.160355], [96.978118, 4.159599], [96.978764, 4.159422], [96.981764, 4.159453], [96.982245, 4.158726], [96.983949, 4.158431], [96.984764, 4.157547], [96.987044, 4.157525], [96.987764, 4.15606], [96.989095, 4.155914], [96.989355, 4.157654], [96.990686, 4.158245], [96.985764, 4.158926], [96.98524, 4.159722], [96.983764, 4.159993], [96.983313, 4.160794], [96.981764, 4.161037], [96.981387, 4.161868], [96.98064, 4.162122], [96.980635, 4.163375], [96.981991, 4.163473], [96.982764, 4.162665], [96.983344, 4.163245], [96.983382, 4.164245], [96.982268, 4.16575], [96.980383, 4.167245], [96.97997, 4.168451], [96.978817, 4.168245], [96.979161, 4.167642], [96.979087, 4.166245], [96.979981, 4.165245], [96.979159, 4.16485], [96.978764, 4.164078], [96.975764, 4.164112], [96.975518, 4.165], [96.974685, 4.165166], [96.974534, 4.166016], [96.97369, 4.166171], [96.973548, 4.16703], [96.970974, 4.167036], [96.970764, 4.166149], [96.968764, 4.166157], [96.96862, 4.170102], [96.967717, 4.170198], [96.967627, 4.171108], [96.966697, 4.171179], [96.966634, 4.172116], [96.965701, 4.172245], [96.965631, 4.174112], [96.96472, 4.174201], [96.96463, 4.175111], [96.963764, 4.175178]]], "type": "Polygon"}, "type": "Feature"}], "type": "FeatureCollection"}