{"features": [{"properties": {"fill-opacity": 0.33, "fillColor": "#bf4040", "opacity": 0.33, "fill": "#bf4040", "fillOpacity": 0.33, "color": "#bf4040", "contour": 15.0, "metric": "time"}, "geometry": {"coordinates": [[[97.658973, 4.629223], [97.658168, 4.629126], [97.658034, 4.627259], [97.657153, 4.62714], [97.65703, 4.625264], [97.65614, 4.625153], [97.656024, 4.62227], [97.653973, 4.62225], [97.653836, 4.623183], [97.649973, 4.623251], [97.649112, 4.623182], [97.649018, 4.622275], [97.648107, 4.622186], [97.648106, 4.619453], [97.649037, 4.619321], [97.648107, 4.619187], [97.648107, 4.617454], [97.649017, 4.617364], [97.649103, 4.616451], [97.651045, 4.616321], [97.651048, 4.614321], [97.650132, 4.614162], [97.649973, 4.613235], [97.646877, 4.613225], [97.646778, 4.614125], [97.645905, 4.614253], [97.64576, 4.615108], [97.643863, 4.615211], [97.643747, 4.616095], [97.642857, 4.616204], [97.642732, 4.61708], [97.63988, 4.617227], [97.639679, 4.618026], [97.638811, 4.618321], [97.638627, 4.619975], [97.637785, 4.620321], [97.637527, 4.622874], [97.635803, 4.623151], [97.63441, 4.624757], [97.632706, 4.625053], [97.631221, 4.626569], [97.630441, 4.626788], [97.629973, 4.627593], [97.629793, 4.626321], [97.631581, 4.623928], [97.633191, 4.623539], [97.634476, 4.621824], [97.63612, 4.621467], [97.636342, 4.61869], [97.637135, 4.618321], [97.635313, 4.617981], [97.634973, 4.617137], [97.634578, 4.617926], [97.633973, 4.618123], [97.629496, 4.617798], [97.628973, 4.616994], [97.627556, 4.616737], [97.627348, 4.616321], [97.628208, 4.615556], [97.628252, 4.615042], [97.626742, 4.613552], [97.626117, 4.612321], [97.626973, 4.611826], [97.627555, 4.612739], [97.629361, 4.613932], [97.629613, 4.615321], [97.630973, 4.616578], [97.634163, 4.616511], [97.634341, 4.615689], [97.634973, 4.615505], [97.636611, 4.615682], [97.63686, 4.616434], [97.637973, 4.616472], [97.638254, 4.615601], [97.642089, 4.615437], [97.642199, 4.614546], [97.643083, 4.614431], [97.643188, 4.613535], [97.644043, 4.613391], [97.644178, 4.612525], [97.646069, 4.612416], [97.646172, 4.610519], [97.647038, 4.610385], [97.647181, 4.608529], [97.64804, 4.608388], [97.648173, 4.60752], [97.649774, 4.60752], [97.649908, 4.608386], [97.650784, 4.60851], [97.650973, 4.609409], [97.657037, 4.609385], [97.65705, 4.608244], [97.656211, 4.608083], [97.656058, 4.606235], [97.653273, 4.606021], [97.653081, 4.604212], [97.652315, 4.603979], [97.652092, 4.603202], [97.651351, 4.602943], [97.651124, 4.600169], [97.649247, 4.598321], [97.649317, 4.596321], [97.650381, 4.595321], [97.650558, 4.593321], [97.650053, 4.592321], [97.65075, 4.592098], [97.651227, 4.592321], [97.651565, 4.595321], [97.652522, 4.596321], [97.650668, 4.597321], [97.652516, 4.598777], [97.652829, 4.599465], [97.653552, 4.599742], [97.653552, 4.600899], [97.652781, 4.601321], [97.65362, 4.601674], [97.65386, 4.602434], [97.654646, 4.602647], [97.654874, 4.604419], [97.657716, 4.604578], [97.657894, 4.6064], [97.660739, 4.606554], [97.6609, 4.608393], [97.66276, 4.608534], [97.662973, 4.609433], [97.664095, 4.609443], [97.664229, 4.608576], [97.665717, 4.608576], [97.665837, 4.609457], [97.666681, 4.609612], [97.666879, 4.610414], [97.668641, 4.610653], [97.668865, 4.611429], [97.669643, 4.611651], [97.669973, 4.613495], [97.671115, 4.613463], [97.67248, 4.611827], [97.67418, 4.611528], [97.674973, 4.610644], [97.676402, 4.610891], [97.676973, 4.611853], [97.679159, 4.612321], [97.677973, 4.612695], [97.676973, 4.613813], [97.674973, 4.613988], [97.674453, 4.6148], [97.672755, 4.615321], [97.675438, 4.615856], [97.675761, 4.617533], [97.676631, 4.618321], [97.676378, 4.619726], [97.675513, 4.620321], [97.675496, 4.621798], [97.67589, 4.622321], [97.674973, 4.623468], [97.674304, 4.618321], [97.673142, 4.617152], [97.670392, 4.616901], [97.66909, 4.615203], [97.668301, 4.614992], [97.668079, 4.614215], [97.665255, 4.614039], [97.665059, 4.612235], [97.663216, 4.612078], [97.662973, 4.611208], [97.660908, 4.611255], [97.660785, 4.613132], [97.659912, 4.61326], [97.659797, 4.614145], [97.658916, 4.614263], [97.658888, 4.615321], [97.660973, 4.61541], [97.66116, 4.614508], [97.662786, 4.614508], [97.662884, 4.617321], [97.662794, 4.618142], [97.660917, 4.618265], [97.660806, 4.620154], [97.659894, 4.620321], [97.659811, 4.622159], [97.657894, 4.622321], [97.657917, 4.623376], [97.658803, 4.623491], [97.658913, 4.62538], [97.659791, 4.625502], [97.659778, 4.629126], [97.658973, 4.629223]]], "type": "Polygon"}, "type": "Feature"}], "type": "FeatureCollection"}