{"features": [{"properties": {"fill-opacity": 0.33, "fillColor": "#bf4040", "opacity": 0.33, "fill": "#bf4040", "fillOpacity": 0.33, "color": "#bf4040", "contour": 15.0, "metric": "time"}, "geometry": {"coordinates": [[[97.652915, 2.676542], [97.65243, 2.673998], [97.651348, 2.672998], [97.652276, 2.671998], [97.652108, 2.664998], [97.652301, 2.664384], [97.65309, 2.663998], [97.653035, 2.656998], [97.653155, 2.656239], [97.654029, 2.655998], [97.654124, 2.653207], [97.655016, 2.652998], [97.655096, 2.649179], [97.655974, 2.649057], [97.656088, 2.648171], [97.656972, 2.648055], [97.657082, 2.647165], [97.657969, 2.647052], [97.658073, 2.646156], [97.658967, 2.64605], [97.659066, 2.644149], [97.663915, 2.644066], [97.664047, 2.64313], [97.664979, 2.642998], [97.664983, 2.638998], [97.664058, 2.638855], [97.663964, 2.636949], [97.663065, 2.636848], [97.662992, 2.635922], [97.661076, 2.635837], [97.66097, 2.634944], [97.660082, 2.634831], [97.659972, 2.633941], [97.659089, 2.633824], [97.659004, 2.632909], [97.656111, 2.632803], [97.655982, 2.631932], [97.65512, 2.631793], [97.655154, 2.626237], [97.656041, 2.625998], [97.65618, 2.624263], [97.657006, 2.624089], [97.657197, 2.62328], [97.658013, 2.623096], [97.658234, 2.621317], [97.659087, 2.620998], [97.659282, 2.619365], [97.660044, 2.619127], [97.660324, 2.618407], [97.662067, 2.618151], [97.662915, 2.617238], [97.664105, 2.617188], [97.664915, 2.616298], [97.666154, 2.617237], [97.667402, 2.615998], [97.667915, 2.613302], [97.668428, 2.615998], [97.668271, 2.617354], [97.666915, 2.618627], [97.663915, 2.618735], [97.663445, 2.619528], [97.66178, 2.619863], [97.661529, 2.620612], [97.660794, 2.620877], [97.660577, 2.62266], [97.659809, 2.622892], [97.659614, 2.624697], [97.658821, 2.624904], [97.658647, 2.62573], [97.657828, 2.625911], [97.657669, 2.627752], [97.656801, 2.627998], [97.656811, 2.629998], [97.657718, 2.630196], [97.657851, 2.631063], [97.659733, 2.631181], [97.659826, 2.632087], [97.661744, 2.632169], [97.661859, 2.633054], [97.662752, 2.633162], [97.662862, 2.634052], [97.663759, 2.634155], [97.663839, 2.635075], [97.665766, 2.635147], [97.665843, 2.636998], [97.666775, 2.637139], [97.66685, 2.640998], [97.667789, 2.641125], [97.66779, 2.643873], [97.666873, 2.643956], [97.666787, 2.64487], [97.665871, 2.644954], [97.66578, 2.645863], [97.660865, 2.645948], [97.660758, 2.647841], [97.659862, 2.647945], [97.659752, 2.648835], [97.65886, 2.648943], [97.658745, 2.649828], [97.657857, 2.64994], [97.657737, 2.65082], [97.656822, 2.650998], [97.656707, 2.65479], [97.655845, 2.654928], [97.655678, 2.657761], [97.654791, 2.657998], [97.654729, 2.664998], [97.654542, 2.665625], [97.653715, 2.665998], [97.653529, 2.672612], [97.652915, 2.676542]]], "type": "Polygon"}, "type": "Feature"}], "type": "FeatureCollection"}