{"features": [{"properties": {"fill-opacity": 0.33, "fillColor": "#bf4040", "opacity": 0.33, "fill": "#bf4040", "fillOpacity": 0.33, "color": "#bf4040", "contour": 15.0, "metric": "time"}, "geometry": {"coordinates": [[[96.565309, 4.007953], [96.564741, 4.004421], [96.564487, 3.995853], [96.563639, 3.995523], [96.563411, 3.993751], [96.552734, 3.993427], [96.549153, 3.992853], [96.556469, 3.992013], [96.556725, 3.99027], [96.558482, 3.989853], [96.558764, 3.988853], [96.558518, 3.985853], [96.558727, 3.985272], [96.559432, 3.984976], [96.559393, 3.983769], [96.554309, 3.983709], [96.553991, 3.984535], [96.551309, 3.984678], [96.550929, 3.985473], [96.550309, 3.985663], [96.54708, 3.985624], [96.544309, 3.986281], [96.543772, 3.986853], [96.543309, 3.988941], [96.542147, 3.988015], [96.541851, 3.985853], [96.542611, 3.985156], [96.542623, 3.984539], [96.541459, 3.983853], [96.540647, 3.981515], [96.539903, 3.981447], [96.539309, 3.982396], [96.538785, 3.981377], [96.537309, 3.980866], [96.536903, 3.978853], [96.539309, 3.978365], [96.540309, 3.977194], [96.541727, 3.977435], [96.542309, 3.97813], [96.554183, 3.977979], [96.554544, 3.977088], [96.557377, 3.976922], [96.557309, 3.974752], [96.540309, 3.974268], [96.539309, 3.974856], [96.538836, 3.973853], [96.539945, 3.973489], [96.550468, 3.972853], [96.550309, 3.971657], [96.544716, 3.971446], [96.541791, 3.970853], [96.544716, 3.97026], [96.550435, 3.969979], [96.550309, 3.968579], [96.544835, 3.967853], [96.550309, 3.967127], [96.550612, 3.966853], [96.550465, 3.965697], [96.542793, 3.965369], [96.539895, 3.964853], [96.544666, 3.96421], [96.559309, 3.963975], [96.559554, 3.963098], [96.560309, 3.962975], [96.563083, 3.963079], [96.563377, 3.963921], [96.563437, 3.958853], [96.563565, 3.958109], [96.564443, 3.957853], [96.564407, 3.956755], [96.553677, 3.956485], [96.54926, 3.955902], [96.551309, 3.954592], [96.558309, 3.954121], [96.5588, 3.953345], [96.560472, 3.953016], [96.560774, 3.952318], [96.562454, 3.951999], [96.561573, 3.950853], [96.562309, 3.950117], [96.564469, 3.950014], [96.564652, 3.945853], [96.565309, 3.945197], [96.570001, 3.945853], [96.566309, 3.946445], [96.566004, 3.946853], [96.566178, 3.958853], [96.566047, 3.959591], [96.565187, 3.959853], [96.565203, 3.963747], [96.566106, 3.964056], [96.566245, 3.964917], [96.568309, 3.964936], [96.568476, 3.96402], [96.569309, 3.963936], [96.570142, 3.96402], [96.570309, 3.964935], [96.579382, 3.964926], [96.579473, 3.957853], [96.579638, 3.957182], [96.581309, 3.95703], [96.581954, 3.957208], [96.582131, 3.957853], [96.582143, 3.960687], [96.581966, 3.96151], [96.581178, 3.961853], [96.581234, 3.964928], [96.585045, 3.965117], [96.585309, 3.965994], [96.587013, 3.966149], [96.587013, 3.967557], [96.583576, 3.967586], [96.583309, 3.966729], [96.576309, 3.966759], [96.576238, 3.968924], [96.583309, 3.969008], [96.583998, 3.969163], [96.584309, 3.970023], [96.593887, 3.970275], [96.597538, 3.970853], [96.593055, 3.971599], [96.592309, 3.975588], [96.591728, 3.971853], [96.591309, 3.97155], [96.583309, 3.971688], [96.582638, 3.971524], [96.582309, 3.970706], [96.574522, 3.97064], [96.574253, 3.966797], [96.574171, 3.973715], [96.573264, 3.973808], [96.573176, 3.97472], [96.572265, 3.97481], [96.572174, 3.977718], [96.570444, 3.977718], [96.570353, 3.976809], [96.569443, 3.976719], [96.569309, 3.97579], [96.56917, 3.977714], [96.568234, 3.977853], [96.56915, 3.978012], [96.56915, 3.979694], [96.565223, 3.979853], [96.567103, 3.980059], [96.567206, 3.980853], [96.56711, 3.983654], [96.565211, 3.983853], [96.565189, 3.988853], [96.566044, 3.989118], [96.566176, 3.989853], [96.566044, 3.990588], [96.565173, 3.990989], [96.565153, 3.993853], [96.565958, 3.994204], [96.566133, 3.994853], [96.566056, 3.999853], [96.567741, 4.000421], [96.568309, 4.00126], [96.571309, 4.001337], [96.572145, 4.001853], [96.571309, 4.002268], [96.567309, 4.002489], [96.566536, 4.001626], [96.56611, 4.001654], [96.565309, 4.007953]]], "type": "Polygon"}, "type": "Feature"}], "type": "FeatureCollection"}