{"features": [{"properties": {"fill-opacity": 0.33, "fillColor": "#bf4040", "opacity": 0.33, "fill": "#bf4040", "fillOpacity": 0.33, "color": "#bf4040", "contour": 15.0, "metric": "time"}, "geometry": {"coordinates": [[[98.025361, 2.539128], [98.024778, 2.538919], [98.02457, 2.538336], [98.024463, 2.536235], [98.023644, 2.536054], [98.023451, 2.535247], [98.022611, 2.535086], [98.022435, 2.533262], [98.021568, 2.533129], [98.021428, 2.532269], [98.020553, 2.532144], [98.020453, 2.529336], [98.019575, 2.529123], [98.019361, 2.526219], [98.018276, 2.526251], [98.018096, 2.527071], [98.017361, 2.527204], [98.011224, 2.527199], [98.011028, 2.531336], [98.011765, 2.531932], [98.011765, 2.53274], [98.009022, 2.532997], [98.007361, 2.534793], [98.006882, 2.533336], [98.007526, 2.532336], [98.009361, 2.53178], [98.009694, 2.531336], [98.009781, 2.525756], [98.011361, 2.525527], [98.011719, 2.524693], [98.012361, 2.524515], [98.014021, 2.524677], [98.014361, 2.525492], [98.014655, 2.52463], [98.019438, 2.524412], [98.019583, 2.523558], [98.020466, 2.523336], [98.020557, 2.520532], [98.021425, 2.520399], [98.021545, 2.51952], [98.022422, 2.519396], [98.022539, 2.518514], [98.027361, 2.518424], [98.027547, 2.517522], [98.028425, 2.517399], [98.028564, 2.515539], [98.029431, 2.515405], [98.029575, 2.514549], [98.030477, 2.514336], [98.030649, 2.509624], [98.03146, 2.509435], [98.031669, 2.508644], [98.034487, 2.508462], [98.034579, 2.507336], [98.034796, 2.506771], [98.035597, 2.506336], [98.035871, 2.504846], [98.038024, 2.502999], [98.040361, 2.503055], [98.04051, 2.504485], [98.038361, 2.504901], [98.037186, 2.506161], [98.036899, 2.507874], [98.03616, 2.508336], [98.035966, 2.509941], [98.035245, 2.51022], [98.03506, 2.512035], [98.034267, 2.512242], [98.034092, 2.513067], [98.033237, 2.513336], [98.034093, 2.513604], [98.034255, 2.516443], [98.036969, 2.516728], [98.038077, 2.518336], [98.038174, 2.520524], [98.040361, 2.522837], [98.041584, 2.523113], [98.04197, 2.524336], [98.041158, 2.52454], [98.040784, 2.523913], [98.040065, 2.52404], [98.039997, 2.5247], [98.040654, 2.525044], [98.040682, 2.526657], [98.040361, 2.527325], [98.039193, 2.526504], [98.038602, 2.523095], [98.037562, 2.522135], [98.036361, 2.522069], [98.035629, 2.521336], [98.03549, 2.518207], [98.032682, 2.518015], [98.032451, 2.516247], [98.03129, 2.516265], [98.031154, 2.517129], [98.030264, 2.517336], [98.030171, 2.519146], [98.029299, 2.519274], [98.029179, 2.520154], [98.028302, 2.520277], [98.028188, 2.521163], [98.027307, 2.521282], [98.027219, 2.523194], [98.026294, 2.523336], [98.026224, 2.528199], [98.025313, 2.528288], [98.025208, 2.529183], [98.024309, 2.529284], [98.024201, 2.530176], [98.023273, 2.530336], [98.02329, 2.531407], [98.024133, 2.531565], [98.024277, 2.53342], [98.025085, 2.533613], [98.025265, 2.534432], [98.026052, 2.534645], [98.026153, 2.538336], [98.025945, 2.538919], [98.025361, 2.539128]]], "type": "Polygon"}, "type": "Feature"}], "type": "FeatureCollection"}