{"features": [{"properties": {"fill-opacity": 0.33, "fillColor": "#bf4040", "opacity": 0.33, "fill": "#bf4040", "fillOpacity": 0.33, "color": "#bf4040", "contour": 15.0, "metric": "time"}, "geometry": {"coordinates": [[[96.835507, 3.952809], [96.834946, 3.951604], [96.833134, 3.951416], [96.831507, 3.949736], [96.830507, 3.95076], [96.828507, 3.950813], [96.827507, 3.949834], [96.823818, 3.949731], [96.823606, 3.948944], [96.821787, 3.948763], [96.821507, 3.946925], [96.820507, 3.946932], [96.820298, 3.947834], [96.819507, 3.947938], [96.816701, 3.947849], [96.816507, 3.946951], [96.816344, 3.94788], [96.813664, 3.947886], [96.813581, 3.945043], [96.81265, 3.9449], [96.812553, 3.943996], [96.811644, 3.943906], [96.811507, 3.94298], [96.811371, 3.944906], [96.809644, 3.944906], [96.809433, 3.943969], [96.808453, 3.943988], [96.808333, 3.944869], [96.805682, 3.944867], [96.805507, 3.943952], [96.805313, 3.944849], [96.801713, 3.944836], [96.801578, 3.943972], [96.800726, 3.943824], [96.800507, 3.941905], [96.797507, 3.941878], [96.796836, 3.941714], [96.796507, 3.940862], [96.79201, 3.94054], [96.791804, 3.936746], [96.789429, 3.936121], [96.789507, 3.935303], [96.789816, 3.935734], [96.79286, 3.93569], [96.793119, 3.937043], [96.793977, 3.937573], [96.794264, 3.938286], [96.797141, 3.938409], [96.797389, 3.93916], [96.798174, 3.939376], [96.798507, 3.940196], [96.799599, 3.940135], [96.799773, 3.939308], [96.802262, 3.939288], [96.802396, 3.942043], [96.803297, 3.942253], [96.803507, 3.943142], [96.803696, 3.942231], [96.807507, 3.942123], [96.807655, 3.941191], [96.813373, 3.941177], [96.813462, 3.942088], [96.814369, 3.942181], [96.81446, 3.94309], [96.815363, 3.943186], [96.815456, 3.944094], [96.816338, 3.944212], [96.81645, 3.9451], [96.818316, 3.945233], [96.818507, 3.946143], [96.818726, 3.945262], [96.822507, 3.94517], [96.823253, 3.945297], [96.823416, 3.947134], [96.825208, 3.947341], [96.825507, 3.948203], [96.825869, 3.947405], [96.82732, 3.94723], [96.82812, 3.94743], [96.828507, 3.948255], [96.832507, 3.948387], [96.833507, 3.949451], [96.83484, 3.949709], [96.835743, 3.950807], [96.835507, 3.952809]]], "type": "Polygon"}, "type": "Feature"}], "type": "FeatureCollection"}