{"features": [{"properties": {"fill-opacity": 0.33, "fillColor": "#bf4040", "opacity": 0.33, "fill": "#bf4040", "fillOpacity": 0.33, "color": "#bf4040", "contour": 15.0, "metric": "time"}, "geometry": {"coordinates": [[[95.924463, 4.589668], [95.923612, 4.589593], [95.923612, 4.587892], [95.924537, 4.587816], [95.923607, 4.587598], [95.923607, 4.585887], [95.924531, 4.585743], [95.923601, 4.585605], [95.923601, 4.583881], [95.924529, 4.583743], [95.924604, 4.579884], [95.925534, 4.579743], [95.925623, 4.574902], [95.926517, 4.574797], [95.926635, 4.572915], [95.927553, 4.572743], [95.927664, 4.568944], [95.928568, 4.568743], [95.927687, 4.568518], [95.927584, 4.565743], [95.926726, 4.56548], [95.926625, 4.560743], [95.925826, 4.56038], [95.925596, 4.558609], [95.923958, 4.557247], [95.923648, 4.555558], [95.922758, 4.554743], [95.92304, 4.550743], [95.924196, 4.549743], [95.924463, 4.548753], [95.924854, 4.550743], [95.923987, 4.551743], [95.924122, 4.553743], [95.924938, 4.554267], [95.925303, 4.555903], [95.92706, 4.557146], [95.927343, 4.558862], [95.928118, 4.559088], [95.928312, 4.561743], [95.92918, 4.562025], [95.929322, 4.562743], [95.929347, 4.566743], [95.930243, 4.566962], [95.930361, 4.569743], [95.93026, 4.570539], [95.929366, 4.570743], [95.929288, 4.574567], [95.928406, 4.574686], [95.928298, 4.576578], [95.927385, 4.576743], [95.927387, 4.577743], [95.928314, 4.577892], [95.928388, 4.578743], [95.928329, 4.587608], [95.926416, 4.587695], [95.926318, 4.588597], [95.925389, 4.588669], [95.925313, 4.589593], [95.924463, 4.589668]]], "type": "Polygon"}, "type": "Feature"}], "type": "FeatureCollection"}