{"features": [{"properties": {"fill-opacity": 0.33, "fillColor": "#bf4040", "opacity": 0.33, "fill": "#bf4040", "fillOpacity": 0.33, "color": "#bf4040", "contour": 15.0, "metric": "time"}, "geometry": {"coordinates": [[[98.095701, 2.343734], [98.095324, 2.3431], [98.095178, 2.340723], [98.096079, 2.339723], [98.095998, 2.336723], [98.094701, 2.335283], [98.093395, 2.335029], [98.093355, 2.333723], [98.094701, 2.332411], [98.095166, 2.333723], [98.095701, 2.33413], [98.096094, 2.333116], [98.096882, 2.332723], [98.097025, 2.330046], [98.098797, 2.329819], [98.098969, 2.32799], [98.099824, 2.327723], [98.098017, 2.327407], [98.097701, 2.326528], [98.095242, 2.326182], [98.09498, 2.325443], [98.093961, 2.324723], [98.095701, 2.324177], [98.097191, 2.324212], [98.097701, 2.323708], [98.097842, 2.324723], [98.099373, 2.325051], [98.099601, 2.325823], [98.100778, 2.325799], [98.100916, 2.323938], [98.101803, 2.323723], [98.101902, 2.321924], [98.102795, 2.321723], [98.102883, 2.319905], [98.103761, 2.319782], [98.103876, 2.318897], [98.104758, 2.318779], [98.104868, 2.317889], [98.106778, 2.317723], [98.106766, 2.313658], [98.104842, 2.313582], [98.104701, 2.311641], [98.103637, 2.311658], [98.103499, 2.31252], [98.102628, 2.312649], [98.102464, 2.313485], [98.099969, 2.313455], [98.099701, 2.312515], [98.098701, 2.313447], [98.097411, 2.313432], [98.096701, 2.314264], [98.096042, 2.313723], [98.096355, 2.312377], [98.097701, 2.312039], [98.098138, 2.31116], [98.098874, 2.310723], [98.099008, 2.309723], [98.098148, 2.309276], [98.097925, 2.308723], [98.09801, 2.306031], [98.101434, 2.30599], [98.101701, 2.306846], [98.101926, 2.305947], [98.106466, 2.305958], [98.106621, 2.306803], [98.107471, 2.306952], [98.107475, 2.309497], [98.105614, 2.309723], [98.106542, 2.309882], [98.106701, 2.310802], [98.108535, 2.310889], [98.108535, 2.312556], [98.107636, 2.312787], [98.109576, 2.312848], [98.109576, 2.314598], [98.108659, 2.31468], [98.108631, 2.315723], [98.109701, 2.315802], [98.109868, 2.314889], [98.110758, 2.314779], [98.110876, 2.313898], [98.112763, 2.313784], [98.11289, 2.312912], [98.113766, 2.312787], [98.113899, 2.311921], [98.11477, 2.311791], [98.114911, 2.310932], [98.115774, 2.310795], [98.115923, 2.309944], [98.120701, 2.309856], [98.121034, 2.308055], [98.12281, 2.307831], [98.123065, 2.306086], [98.1239, 2.305723], [98.124182, 2.297723], [98.125447, 2.296468], [98.126199, 2.29622], [98.126701, 2.295386], [98.1269, 2.296723], [98.125293, 2.298723], [98.125513, 2.306723], [98.125325, 2.307346], [98.124582, 2.307603], [98.124376, 2.309397], [98.123597, 2.309618], [98.123403, 2.310424], [98.122605, 2.310626], [98.12242, 2.311441], [98.117627, 2.311648], [98.117482, 2.312503], [98.11663, 2.312652], [98.116493, 2.313515], [98.115635, 2.313656], [98.115507, 2.314528], [98.114638, 2.314659], [98.114515, 2.315537], [98.112643, 2.315664], [98.11253, 2.316552], [98.111645, 2.316667], [98.111537, 2.317558], [98.110648, 2.317669], [98.110543, 2.318565], [98.10962, 2.318723], [98.109643, 2.319781], [98.110523, 2.319901], [98.110637, 2.321787], [98.112494, 2.32193], [98.112701, 2.322833], [98.11546, 2.322964], [98.115451, 2.325473], [98.113951, 2.325473], [98.113701, 2.324607], [98.11092, 2.324504], [98.110771, 2.323653], [98.109632, 2.323653], [98.109459, 2.32448], [98.108578, 2.324723], [98.108426, 2.327448], [98.107607, 2.327629], [98.107409, 2.328431], [98.106545, 2.328723], [98.106339, 2.331361], [98.105063, 2.331361], [98.104815, 2.330608], [98.103701, 2.330544], [98.103344, 2.331365], [98.102587, 2.331608], [98.102355, 2.333376], [98.100569, 2.33459], [98.10019, 2.336212], [98.097369, 2.338723], [98.097154, 2.341723], [98.096296, 2.342318], [98.095701, 2.343734]]], "type": "Polygon"}, "type": "Feature"}], "type": "FeatureCollection"}