{"features": [{"properties": {"fill-opacity": 0.33, "fillColor": "#bf4040", "opacity": 0.33, "fill": "#bf4040", "fillOpacity": 0.33, "color": "#bf4040", "contour": 15.0, "metric": "time"}, "geometry": {"coordinates": [[[95.320359, 5.576802], [95.319359, 5.576682], [95.318669, 5.574256], [95.317359, 5.574071], [95.316359, 5.573188], [95.313359, 5.573392], [95.312359, 5.572847], [95.312067, 5.571859], [95.311331, 5.571567], [95.311281, 5.569489], [95.312675, 5.568567], [95.312622, 5.566567], [95.31062, 5.564567], [95.310595, 5.563567], [95.311479, 5.562447], [95.309127, 5.562567], [95.308958, 5.565567], [95.309582, 5.566567], [95.309359, 5.566947], [95.308359, 5.567038], [95.307888, 5.566567], [95.307359, 5.562356], [95.306187, 5.562395], [95.305359, 5.563261], [95.304085, 5.563292], [95.303704, 5.563567], [95.303359, 5.565186], [95.302359, 5.565345], [95.301359, 5.564978], [95.300792, 5.564133], [95.299425, 5.563501], [95.298902, 5.562567], [95.300359, 5.56169], [95.301359, 5.562087], [95.301994, 5.561201], [95.303534, 5.560742], [95.303474, 5.557451], [95.301748, 5.557178], [95.301359, 5.556349], [95.300359, 5.556341], [95.299359, 5.557213], [95.297969, 5.557176], [95.297359, 5.558783], [95.295748, 5.558955], [95.295359, 5.559399], [95.294359, 5.559036], [95.29422, 5.557706], [95.29349, 5.556567], [95.294227, 5.554567], [95.292712, 5.553567], [95.29135, 5.551575], [95.291359, 5.55051], [95.29282, 5.550028], [95.293359, 5.549148], [95.294359, 5.549997], [95.295115, 5.548567], [95.294467, 5.547567], [95.29536, 5.546567], [95.295674, 5.544567], [95.295058, 5.544265], [95.294359, 5.545723], [95.293359, 5.544653], [95.29308, 5.543287], [95.293366, 5.542567], [95.292639, 5.540567], [95.293359, 5.540197], [95.294359, 5.541024], [95.295371, 5.539555], [95.29378, 5.538567], [95.2931, 5.536307], [95.295234, 5.534567], [95.295505, 5.531712], [95.296621, 5.530567], [95.29527, 5.529656], [95.29515, 5.528567], [95.295783, 5.527991], [95.296094, 5.526301], [95.297124, 5.525567], [95.29742, 5.524567], [95.298555, 5.523762], [95.298877, 5.522567], [95.30014, 5.521567], [95.30004, 5.520886], [95.299337, 5.520544], [95.301359, 5.51807], [95.302359, 5.51834], [95.303359, 5.517946], [95.305359, 5.519342], [95.307359, 5.516897], [95.308359, 5.51757], [95.308762, 5.518567], [95.309563, 5.51877], [95.310359, 5.517616], [95.312878, 5.516085], [95.313359, 5.515079], [95.31444, 5.516567], [95.316359, 5.516978], [95.317605, 5.516812], [95.318359, 5.515985], [95.32059, 5.516335], [95.321359, 5.517061], [95.322359, 5.517021], [95.324109, 5.515317], [95.325359, 5.514955], [95.325971, 5.515567], [95.326359, 5.517298], [95.328359, 5.516505], [95.329359, 5.516802], [95.330359, 5.51774], [95.330487, 5.518567], [95.330359, 5.51985], [95.329849, 5.519077], [95.329029, 5.519237], [95.329178, 5.520748], [95.330359, 5.520733], [95.331676, 5.52325], [95.332359, 5.523431], [95.334359, 5.522457], [95.336599, 5.523567], [95.335831, 5.524567], [95.337359, 5.524988], [95.338511, 5.524415], [95.339359, 5.52481], [95.342293, 5.527633], [95.342431, 5.528495], [95.343359, 5.529002], [95.343677, 5.529567], [95.343472, 5.531567], [95.34436, 5.532567], [95.344015, 5.534567], [95.343227, 5.535567], [95.343252, 5.536567], [95.342573, 5.536781], [95.34259, 5.539567], [95.341729, 5.540567], [95.342158, 5.547567], [95.342054, 5.548261], [95.341367, 5.548567], [95.341422, 5.550567], [95.343438, 5.553567], [95.341947, 5.554567], [95.341969, 5.555567], [95.342821, 5.556567], [95.341832, 5.557567], [95.3414, 5.559607], [95.338359, 5.561489], [95.337927, 5.562567], [95.336345, 5.563553], [95.337419, 5.565567], [95.337359, 5.566974], [95.332939, 5.568987], [95.332343, 5.568551], [95.332845, 5.56908], [95.332775, 5.569982], [95.331359, 5.571253], [95.330359, 5.571427], [95.329359, 5.572699], [95.328359, 5.572105], [95.326308, 5.573516], [95.323788, 5.573138], [95.323359, 5.57274], [95.322359, 5.576238], [95.321359, 5.575961], [95.320359, 5.576802]]], "type": "Polygon"}, "type": "Feature"}], "type": "FeatureCollection"}