{"features": [{"properties": {"fill-opacity": 0.33, "fillColor": "#bf4040", "opacity": 0.33, "fill": "#bf4040", "fillOpacity": 0.33, "color": "#bf4040", "contour": 15.0, "metric": "time"}, "geometry": {"coordinates": [[[97.194568, 3.265676], [97.193299, 3.265394], [97.193615, 3.264347], [97.192669, 3.264495], [97.191568, 3.264027], [97.190382, 3.262394], [97.189852, 3.259678], [97.190568, 3.259384], [97.192221, 3.260741], [97.193568, 3.260745], [97.196021, 3.257848], [97.196709, 3.257536], [97.196751, 3.256394], [97.195934, 3.256028], [97.195751, 3.255394], [97.195709, 3.252394], [97.195851, 3.251677], [97.196659, 3.251486], [97.196833, 3.25066], [97.198568, 3.250521], [97.198808, 3.249635], [97.20164, 3.249466], [97.201774, 3.247601], [97.204568, 3.247492], [97.205373, 3.247589], [97.205505, 3.248458], [97.206383, 3.248579], [97.206508, 3.249455], [97.207392, 3.249571], [97.20751, 3.250452], [97.209404, 3.250558], [97.209568, 3.251472], [97.212568, 3.251478], [97.212745, 3.250571], [97.213629, 3.250455], [97.213755, 3.249582], [97.214632, 3.249458], [97.214766, 3.248592], [97.215635, 3.248461], [97.215795, 3.245621], [97.216645, 3.245472], [97.216807, 3.244634], [97.219657, 3.244484], [97.219859, 3.242685], [97.223687, 3.242513], [97.223945, 3.241772], [97.224844, 3.241394], [97.223933, 3.240394], [97.224568, 3.23976], [97.229568, 3.239792], [97.2319, 3.242394], [97.231155, 3.243981], [97.231167, 3.246394], [97.230568, 3.246993], [97.22814, 3.246823], [97.227568, 3.24416], [97.221568, 3.244245], [97.221295, 3.246122], [97.218489, 3.246315], [97.218339, 3.247165], [97.21746, 3.247394], [97.217368, 3.250195], [97.216503, 3.250329], [97.216377, 3.251203], [97.215506, 3.251332], [97.215385, 3.252212], [97.214509, 3.252335], [97.214393, 3.253219], [97.213511, 3.253338], [97.213402, 3.254228], [97.210518, 3.254344], [97.210434, 3.25826], [97.209524, 3.25835], [97.209438, 3.259265], [97.208526, 3.259352], [97.208442, 3.260269], [97.206694, 3.260269], [97.206694, 3.257521], [97.207611, 3.257437], [97.207698, 3.256525], [97.208636, 3.256394], [97.207712, 3.25625], [97.207622, 3.25234], [97.204751, 3.252211], [97.20463, 3.251333], [97.203758, 3.251204], [97.2035, 3.249326], [97.203349, 3.251176], [97.20149, 3.251317], [97.201316, 3.252143], [97.200484, 3.25231], [97.200307, 3.253133], [97.198415, 3.253394], [97.199225, 3.253737], [97.199397, 3.254394], [97.199219, 3.256046], [97.198385, 3.256394], [97.198326, 3.259394], [97.198863, 3.260099], [97.198719, 3.261545], [97.198568, 3.262003], [97.197404, 3.26223], [97.196306, 3.263132], [97.196675, 3.264501], [97.195807, 3.264633], [97.194568, 3.265676]]], "type": "Polygon"}, "type": "Feature"}], "type": "FeatureCollection"}