{"features": [{"properties": {"fill-opacity": 0.33, "fillColor": "#bf4040", "opacity": 0.33, "fill": "#bf4040", "fillOpacity": 0.33, "color": "#bf4040", "contour": 15.0, "metric": "time"}, "geometry": {"coordinates": [[[97.821385, 4.880401], [97.821024, 4.87856], [97.822713, 4.87756], [97.820849, 4.876096], [97.820533, 4.875412], [97.819804, 4.87514], [97.819517, 4.874428], [97.818768, 4.874177], [97.818503, 4.873442], [97.817715, 4.87323], [97.817492, 4.872453], [97.816691, 4.872253], [97.816483, 4.871462], [97.813385, 4.871441], [97.813132, 4.872307], [97.812254, 4.872429], [97.812113, 4.873288], [97.811289, 4.873463], [97.811073, 4.874248], [97.809697, 4.874248], [97.809672, 4.871847], [97.811516, 4.871691], [97.811501, 4.87056], [97.810603, 4.870342], [97.810455, 4.869489], [97.809589, 4.869356], [97.809452, 4.868493], [97.806571, 4.868373], [97.806445, 4.8675], [97.805561, 4.867384], [97.805442, 4.866503], [97.803549, 4.866396], [97.803385, 4.864484], [97.795511, 4.864433], [97.795427, 4.863518], [97.794512, 4.863433], [97.794428, 4.862517], [97.793517, 4.862428], [97.79343, 4.861515], [97.792526, 4.861419], [97.792432, 4.860512], [97.790535, 4.86041], [97.790535, 4.85871], [97.792458, 4.85856], [97.792465, 4.85556], [97.791557, 4.855388], [97.791444, 4.854501], [97.790564, 4.854381], [97.790446, 4.853498], [97.789574, 4.853371], [97.78945, 4.852495], [97.788583, 4.852362], [97.788454, 4.851491], [97.787603, 4.851342], [97.787385, 4.84944], [97.787124, 4.850299], [97.784385, 4.850421], [97.78408, 4.851255], [97.781385, 4.851393], [97.781011, 4.852186], [97.780385, 4.852373], [97.778168, 4.852343], [97.777932, 4.853107], [97.777219, 4.853394], [97.77687, 4.854045], [97.774385, 4.854239], [97.773385, 4.855183], [97.771999, 4.854946], [97.771385, 4.854061], [97.768821, 4.85356], [97.775385, 4.852846], [97.776385, 4.851813], [97.777602, 4.851777], [97.777802, 4.850977], [97.779508, 4.850683], [97.77974, 4.849915], [97.782385, 4.849717], [97.782678, 4.848853], [97.785385, 4.848692], [97.785637, 4.847812], [97.788385, 4.847675], [97.788631, 4.846806], [97.790517, 4.846692], [97.790659, 4.845834], [97.791531, 4.84556], [97.791834, 4.839009], [97.792543, 4.838718], [97.792885, 4.83806], [97.794721, 4.83756], [97.79295, 4.83556], [97.793385, 4.832998], [97.794021, 4.834924], [97.795796, 4.836149], [97.796161, 4.837784], [97.797841, 4.838104], [97.798213, 4.839732], [97.801385, 4.839943], [97.802385, 4.841026], [97.804577, 4.841368], [97.8048, 4.842145], [97.80547, 4.84256], [97.804385, 4.842797], [97.803385, 4.841997], [97.801385, 4.842114], [97.800385, 4.841235], [97.798385, 4.841298], [97.797918, 4.842092], [97.796249, 4.842424], [97.795037, 4.844212], [97.794273, 4.844448], [97.794067, 4.845242], [97.793283, 4.845457], [97.793097, 4.847272], [97.791253, 4.847428], [97.791131, 4.848305], [97.790303, 4.848478], [97.790145, 4.84932], [97.789313, 4.849632], [97.790175, 4.849769], [97.790318, 4.850627], [97.791189, 4.850756], [97.791322, 4.851623], [97.792199, 4.851745], [97.792325, 4.85262], [97.793207, 4.852738], [97.793327, 4.853617], [97.794217, 4.853728], [97.794331, 4.854614], [97.79622, 4.854724], [97.796331, 4.855614], [97.797227, 4.855718], [97.797309, 4.85756], [97.798236, 4.857709], [97.798309, 4.85956], [97.799234, 4.859711], [97.799337, 4.861608], [97.801247, 4.861697], [97.801385, 4.86263], [97.802435, 4.862609], [97.802535, 4.86171], [97.804235, 4.86171], [97.804334, 4.862611], [97.805231, 4.862714], [97.805331, 4.864614], [97.807213, 4.864731], [97.807327, 4.865618], [97.808206, 4.865739], [97.808385, 4.866654], [97.809453, 4.866628], [97.809611, 4.864786], [97.811158, 4.864786], [97.811284, 4.86756], [97.812173, 4.867772], [97.812312, 4.868633], [97.81316, 4.868785], [97.813308, 4.869637], [97.818087, 4.869858], [97.818282, 4.870663], [97.81906, 4.870885], [97.819273, 4.871672], [97.821385, 4.87177], [97.821862, 4.871037], [97.823976, 4.87056], [97.823983, 4.868962], [97.823563, 4.86856], [97.824153, 4.868328], [97.824509, 4.868436], [97.825011, 4.869934], [97.825818, 4.869993], [97.826385, 4.869187], [97.826905, 4.87004], [97.827637, 4.870308], [97.828006, 4.872939], [97.828609, 4.873336], [97.829124, 4.87456], [97.828707, 4.874882], [97.828385, 4.875012], [97.827848, 4.874097], [97.826385, 4.873164], [97.82119, 4.87356], [97.822385, 4.874807], [97.82386, 4.875085], [97.824139, 4.877806], [97.828072, 4.87856], [97.821997, 4.879172], [97.821385, 4.880401]]], "type": "Polygon"}, "type": "Feature"}], "type": "FeatureCollection"}