{"features": [{"properties": {"fill-opacity": 0.33, "fillColor": "#bf4040", "opacity": 0.33, "fill": "#bf4040", "fillOpacity": 0.33, "color": "#bf4040", "contour": 15.0, "metric": "time"}, "geometry": {"coordinates": [[[97.730139, 4.372873], [97.728601, 4.372675], [97.727269, 4.371007], [97.725496, 4.370779], [97.725139, 4.369978], [97.72242, 4.369856], [97.722139, 4.369005], [97.721139, 4.369021], [97.72092, 4.369917], [97.720139, 4.370027], [97.71533, 4.369946], [97.715224, 4.366136], [97.714302, 4.365974], [97.714191, 4.364085], [97.713291, 4.363985], [97.713189, 4.363087], [97.712286, 4.36299], [97.712187, 4.362088], [97.71128, 4.361995], [97.711185, 4.360091], [97.710273, 4.360003], [97.710183, 4.359093], [97.709265, 4.359011], [97.709208, 4.354136], [97.708285, 4.353991], [97.708189, 4.352086], [97.707291, 4.351985], [97.707191, 4.351084], [97.706298, 4.350978], [97.706194, 4.350082], [97.705307, 4.349968], [97.705198, 4.348078], [97.70432, 4.347956], [97.704329, 4.344326], [97.705205, 4.344202], [97.70534, 4.343336], [97.706208, 4.343205], [97.706351, 4.342348], [97.707248, 4.342245], [97.707402, 4.338399], [97.708279, 4.338136], [97.707441, 4.337834], [97.707454, 4.335451], [97.708249, 4.335246], [97.708484, 4.334481], [97.710265, 4.334262], [97.710533, 4.33353], [97.712299, 4.332296], [97.712768, 4.327765], [97.714522, 4.327519], [97.715139, 4.326878], [97.716209, 4.327136], [97.714836, 4.328833], [97.714576, 4.330573], [97.713927, 4.330924], [97.71367, 4.333667], [97.712006, 4.335003], [97.711753, 4.335749], [97.710025, 4.336022], [97.710007, 4.339136], [97.709874, 4.339871], [97.709014, 4.340136], [97.708915, 4.342912], [97.70803, 4.343027], [97.707934, 4.344931], [97.707072, 4.345069], [97.706941, 4.345938], [97.706048, 4.346136], [97.706965, 4.346311], [97.707084, 4.348192], [97.707976, 4.348299], [97.708086, 4.349189], [97.708982, 4.349294], [97.709088, 4.350187], [97.709989, 4.350287], [97.710091, 4.352184], [97.710998, 4.352277], [97.711077, 4.357136], [97.712009, 4.357266], [97.712095, 4.358181], [97.713004, 4.358272], [97.713093, 4.360183], [97.713996, 4.36028], [97.714091, 4.361185], [97.71499, 4.361286], [97.715089, 4.362187], [97.715984, 4.362292], [97.716086, 4.36419], [97.716974, 4.364301], [97.717076, 4.3682], [97.719212, 4.368209], [97.71938, 4.366377], [97.722882, 4.366394], [97.723051, 4.367225], [97.723863, 4.367413], [97.724044, 4.368231], [97.726804, 4.368472], [97.727022, 4.369253], [97.728744, 4.369532], [97.729, 4.370276], [97.730423, 4.37142], [97.730678, 4.370675], [97.732413, 4.36941], [97.732842, 4.367839], [97.734139, 4.36704], [97.735149, 4.367127], [97.734722, 4.368136], [97.733787, 4.368784], [97.733522, 4.370519], [97.732139, 4.37179], [97.730855, 4.371852], [97.73063, 4.372627], [97.730139, 4.372873]]], "type": "Polygon"}, "type": "Feature"}], "type": "FeatureCollection"}