{"features": [{"properties": {"fill-opacity": 0.33, "fillColor": "#bf4040", "opacity": 0.33, "fill": "#bf4040", "fillOpacity": 0.33, "color": "#bf4040", "contour": 15.0, "metric": "time"}, "geometry": {"coordinates": [[[96.37731, 4.361322], [96.375622, 4.361169], [96.375404, 4.359386], [96.373576, 4.359214], [96.373576, 4.357747], [96.374437, 4.35748], [96.374533, 4.353704], [96.375415, 4.35348], [96.375405, 4.35148], [96.374493, 4.351298], [96.3744, 4.35039], [96.374487, 4.348657], [96.375368, 4.348538], [96.375392, 4.34748], [96.374467, 4.347323], [96.374386, 4.34548], [96.373455, 4.345335], [96.373357, 4.344433], [96.371447, 4.344343], [96.371441, 4.340611], [96.372353, 4.340524], [96.372436, 4.338606], [96.373353, 4.338523], [96.37344, 4.337611], [96.374376, 4.337547], [96.374445, 4.336615], [96.37831, 4.336553], [96.378462, 4.335633], [96.379362, 4.335532], [96.379469, 4.334639], [96.380364, 4.334535], [96.380475, 4.333645], [96.381397, 4.33348], [96.381372, 4.332418], [96.3805, 4.33229], [96.380505, 4.329676], [96.381377, 4.329547], [96.381515, 4.328685], [96.382381, 4.328551], [96.382529, 4.3277], [96.383385, 4.327556], [96.383432, 4.32648], [96.382571, 4.326219], [96.382404, 4.324386], [96.381603, 4.324187], [96.381432, 4.320358], [96.38069, 4.3201], [96.379527, 4.31848], [96.379629, 4.31448], [96.38031, 4.313799], [96.381584, 4.313755], [96.38231, 4.312931], [96.38331, 4.312996], [96.385002, 4.31448], [96.385323, 4.315494], [96.38431, 4.315582], [96.38331, 4.31488], [96.38131, 4.315119], [96.381025, 4.31548], [96.381079, 4.31748], [96.381893, 4.317898], [96.38218, 4.31861], [96.382936, 4.318854], [96.383157, 4.32248], [96.384024, 4.322766], [96.384176, 4.32448], [96.385054, 4.324736], [96.385182, 4.32548], [96.385086, 4.329256], [96.384237, 4.329408], [96.384097, 4.330267], [96.383208, 4.33048], [96.38314, 4.33531], [96.382254, 4.335425], [96.382146, 4.336317], [96.381257, 4.336427], [96.381154, 4.337325], [96.380259, 4.33743], [96.38016, 4.338331], [96.378262, 4.338433], [96.378168, 4.339339], [96.375448, 4.339342], [96.375244, 4.338414], [96.375181, 4.340352], [96.374267, 4.340438], [96.37418, 4.34235], [96.373243, 4.34248], [96.375167, 4.342623], [96.375262, 4.343529], [96.376163, 4.343627], [96.376258, 4.345532], [96.377151, 4.34564], [96.377218, 4.35048], [96.378116, 4.350675], [96.378206, 4.35348], [96.378103, 4.354274], [96.377239, 4.35441], [96.377093, 4.355263], [96.376196, 4.35548], [96.376183, 4.35748], [96.377022, 4.357768], [96.377208, 4.359582], [96.377994, 4.359797], [96.377994, 4.361164], [96.37731, 4.361322]]], "type": "Polygon"}, "type": "Feature"}], "type": "FeatureCollection"}