{"features": [{"properties": {"fill-opacity": 0.33, "fillColor": "#bf4040", "opacity": 0.33, "fill": "#bf4040", "fillOpacity": 0.33, "color": "#bf4040", "contour": 15.0, "metric": "time"}, "geometry": {"coordinates": [[[96.962952, 5.261364], [96.961952, 5.261563], [96.960952, 5.260739], [96.960335, 5.261515], [96.958952, 5.261785], [96.958516, 5.261567], [96.957952, 5.259882], [96.956952, 5.260888], [96.953952, 5.26092], [96.952952, 5.259953], [96.952593, 5.260773], [96.951952, 5.260952], [96.95131, 5.260773], [96.950952, 5.259972], [96.949238, 5.259845], [96.948952, 5.258991], [96.947249, 5.258834], [96.946952, 5.25799], [96.945841, 5.258021], [96.945595, 5.258775], [96.944952, 5.258953], [96.944308, 5.258775], [96.943952, 5.257954], [96.942952, 5.258915], [96.942385, 5.258698], [96.941952, 5.256926], [96.940788, 5.256968], [96.939952, 5.257863], [96.938952, 5.256783], [96.937952, 5.256778], [96.936952, 5.255792], [96.935528, 5.255555], [96.934342, 5.254131], [96.934655, 5.253131], [96.933484, 5.251131], [96.935428, 5.250608], [96.935952, 5.249894], [96.936952, 5.250626], [96.937952, 5.248821], [96.938718, 5.251365], [96.939952, 5.25137], [96.940271, 5.250812], [96.940028, 5.250208], [96.940952, 5.250317], [96.941306, 5.249485], [96.942064, 5.249244], [96.942096, 5.247987], [96.940708, 5.247888], [96.939952, 5.249964], [96.939317, 5.247131], [96.939528, 5.246708], [96.941225, 5.246131], [96.941496, 5.243131], [96.941201, 5.242131], [96.941738, 5.241918], [96.942343, 5.24274], [96.942679, 5.246131], [96.943522, 5.246561], [96.943737, 5.247131], [96.943856, 5.251227], [96.945691, 5.251392], [96.945952, 5.252253], [96.946192, 5.251371], [96.947712, 5.251371], [96.948022, 5.252202], [96.948024, 5.245131], [96.94709, 5.244993], [96.947014, 5.241131], [96.947077, 5.240256], [96.948827, 5.240256], [96.948906, 5.243177], [96.949328, 5.243131], [96.949525, 5.241131], [96.949952, 5.240705], [96.950527, 5.242131], [96.95163, 5.243131], [96.951771, 5.247131], [96.952626, 5.247457], [96.952875, 5.251208], [96.954103, 5.251131], [96.954176, 5.247131], [96.953247, 5.246131], [96.953277, 5.245131], [96.953952, 5.244457], [96.954952, 5.244474], [96.955952, 5.244565], [96.956518, 5.245131], [96.955691, 5.246131], [96.955793, 5.250131], [96.956662, 5.250421], [96.956856, 5.251227], [96.95806, 5.25124], [96.958289, 5.250468], [96.959164, 5.250131], [96.95918, 5.248903], [96.958417, 5.248131], [96.958952, 5.246398], [96.9606, 5.248131], [96.960823, 5.25026], [96.962327, 5.250131], [96.962476, 5.248131], [96.961644, 5.247131], [96.961952, 5.24568], [96.96247, 5.246613], [96.963185, 5.246898], [96.96526, 5.249131], [96.965669, 5.250414], [96.968517, 5.252131], [96.967525, 5.252705], [96.967447, 5.253131], [96.967485, 5.254598], [96.968154, 5.255334], [96.966739, 5.256919], [96.965944, 5.257124], [96.964952, 5.259073], [96.964419, 5.258664], [96.963628, 5.258807], [96.963541, 5.259542], [96.964512, 5.260131], [96.962952, 5.261364]]], "type": "Polygon"}, "type": "Feature"}], "type": "FeatureCollection"}