{"features": [{"properties": {"fill-opacity": 0.33, "fillColor": "#bf4040", "opacity": 0.33, "fill": "#bf4040", "fillOpacity": 0.33, "color": "#bf4040", "contour": 15.0, "metric": "time"}, "geometry": {"coordinates": [[[97.904759, 3.16606], [97.904458, 3.165345], [97.905231, 3.164045], [97.904121, 3.163045], [97.904976, 3.162262], [97.905031, 3.161045], [97.904154, 3.160649], [97.903884, 3.15992], [97.902094, 3.15971], [97.901759, 3.158889], [97.899041, 3.158762], [97.898759, 3.157914], [97.894993, 3.157811], [97.894834, 3.15697], [97.893974, 3.156829], [97.893829, 3.155975], [97.891957, 3.155847], [97.891759, 3.154952], [97.890694, 3.154979], [97.890552, 3.155837], [97.889648, 3.156045], [97.890511, 3.156293], [97.890631, 3.158045], [97.890502, 3.158787], [97.889672, 3.158957], [97.889485, 3.159771], [97.885759, 3.159885], [97.885079, 3.159725], [97.884919, 3.159045], [97.885079, 3.158364], [97.885862, 3.158148], [97.88606, 3.157345], [97.887846, 3.157131], [97.887973, 3.154258], [97.888828, 3.154114], [97.888963, 3.153248], [97.889821, 3.153106], [97.889929, 3.151215], [97.890839, 3.151045], [97.890917, 3.149203], [97.891834, 3.149045], [97.890903, 3.148901], [97.890806, 3.147998], [97.889898, 3.147905], [97.889827, 3.146045], [97.88889, 3.145914], [97.888886, 3.141172], [97.889802, 3.141087], [97.88989, 3.140176], [97.890804, 3.140089], [97.890895, 3.13918], [97.891805, 3.139091], [97.891903, 3.137188], [97.892808, 3.137093], [97.892909, 3.136194], [97.89381, 3.136095], [97.89392, 3.134205], [97.895815, 3.134101], [97.895933, 3.133218], [97.896849, 3.133045], [97.896946, 3.131231], [97.898824, 3.13111], [97.898969, 3.129255], [97.899871, 3.129045], [97.899067, 3.128736], [97.899067, 3.127353], [97.89985, 3.127135], [97.900045, 3.126331], [97.900901, 3.126045], [97.901083, 3.123369], [97.902759, 3.123197], [97.903081, 3.122366], [97.903936, 3.122045], [97.90315, 3.121654], [97.90291, 3.119893], [97.902003, 3.119045], [97.902085, 3.116045], [97.904433, 3.113719], [97.906759, 3.112281], [97.906935, 3.113045], [97.906049, 3.114335], [97.903542, 3.116828], [97.903503, 3.118045], [97.904302, 3.118502], [97.904548, 3.120045], [97.904966, 3.120252], [97.90595, 3.120236], [97.906759, 3.118247], [97.907333, 3.119471], [97.907444, 3.121045], [97.906759, 3.12173], [97.905629, 3.121914], [97.905412, 3.123697], [97.904609, 3.124045], [97.904463, 3.125749], [97.903624, 3.126045], [97.903508, 3.128793], [97.901682, 3.128967], [97.901538, 3.130824], [97.900658, 3.131045], [97.900564, 3.132849], [97.898698, 3.132983], [97.898581, 3.134867], [97.897701, 3.134987], [97.897591, 3.135876], [97.895706, 3.135991], [97.895606, 3.137892], [97.894709, 3.137995], [97.894612, 3.138898], [97.893689, 3.139045], [97.893619, 3.140904], [97.892714, 3.140999], [97.892626, 3.141911], [97.891716, 3.142001], [97.891631, 3.142917], [97.890696, 3.143045], [97.890716, 3.144088], [97.891627, 3.144177], [97.891713, 3.14609], [97.89262, 3.146184], [97.892711, 3.147092], [97.893613, 3.147191], [97.893604, 3.15089], [97.892707, 3.150992], [97.892594, 3.152879], [97.891699, 3.153104], [97.893567, 3.153237], [97.893759, 3.154145], [97.895548, 3.154256], [97.895687, 3.155117], [97.896535, 3.155269], [97.896759, 3.156163], [97.900484, 3.15632], [97.900759, 3.157191], [97.90343, 3.157374], [97.903759, 3.15822], [97.905378, 3.158426], [97.905759, 3.15925], [97.907316, 3.159488], [97.907473, 3.162045], [97.90643, 3.163045], [97.906024, 3.165309], [97.904759, 3.16606]]], "type": "Polygon"}, "type": "Feature"}], "type": "FeatureCollection"}