{"features": [{"properties": {"fill-opacity": 0.33, "fillColor": "#bf4040", "opacity": 0.33, "fill": "#bf4040", "fillOpacity": 0.33, "color": "#bf4040", "contour": 15.0, "metric": "time"}, "geometry": {"coordinates": [[[97.198348, 4.004644], [97.196348, 4.005385], [97.195485, 4.004501], [97.193647, 4.004338], [97.19344, 4.003546], [97.192597, 4.003389], [97.19259, 4.000879], [97.193423, 4.000712], [97.193556, 3.999845], [97.194412, 3.999701], [97.194526, 3.998815], [97.195404, 3.998694], [97.195475, 3.995764], [97.196391, 3.99568], [97.196479, 3.994768], [97.20118, 3.994806], [97.20118, 3.996469], [97.198348, 3.996574], [97.19822, 3.997509], [97.197304, 3.997593], [97.197177, 4.000466], [97.196288, 4.000578], [97.196159, 4.001448], [97.195237, 4.001637], [97.195246, 4.002739], [97.196938, 4.003048], [97.197348, 4.004059], [97.198348, 4.004644]]], "type": "Polygon"}, "type": "Feature"}], "type": "FeatureCollection"}