{"features": [{"properties": {"fill-opacity": 0.33, "fillColor": "#bf4040", "opacity": 0.33, "fill": "#bf4040", "fillOpacity": 0.33, "color": "#bf4040", "contour": 15.0, "metric": "time"}, "geometry": {"coordinates": [[[97.862717, 2.494607], [97.861553, 2.494584], [97.86108, 2.493057], [97.860376, 2.49242], [97.860579, 2.491558], [97.860226, 2.49142], [97.860717, 2.491376], [97.861026, 2.49073], [97.861017, 2.48942], [97.860001, 2.48842], [97.860891, 2.487594], [97.861157, 2.485861], [97.862847, 2.485551], [97.862871, 2.48242], [97.862004, 2.482133], [97.861808, 2.481329], [97.860717, 2.481297], [97.860481, 2.482184], [97.857717, 2.482312], [97.857489, 2.483193], [97.855944, 2.483193], [97.855774, 2.476363], [97.85388, 2.476257], [97.853717, 2.475342], [97.851665, 2.475369], [97.851546, 2.47825], [97.850658, 2.478362], [97.850537, 2.479241], [97.849717, 2.479331], [97.848896, 2.479241], [97.848612, 2.478316], [97.847631, 2.478335], [97.847439, 2.479143], [97.846717, 2.479282], [97.844078, 2.479059], [97.843846, 2.478291], [97.842234, 2.477903], [97.841717, 2.477008], [97.840225, 2.47642], [97.842717, 2.475739], [97.84354, 2.476597], [97.845339, 2.476798], [97.845717, 2.477575], [97.845977, 2.476681], [97.846795, 2.476499], [97.84693, 2.475634], [97.848804, 2.475508], [97.848877, 2.47458], [97.849769, 2.474473], [97.849869, 2.473572], [97.850767, 2.47347], [97.849857, 2.47328], [97.849717, 2.472353], [97.847849, 2.472288], [97.847717, 2.471357], [97.845844, 2.471293], [97.845842, 2.468546], [97.847591, 2.468546], [97.847717, 2.469484], [97.849585, 2.469552], [97.849717, 2.470488], [97.851578, 2.470559], [97.851645, 2.472492], [97.853567, 2.47257], [97.853717, 2.473499], [97.855554, 2.473583], [97.855717, 2.474505], [97.857542, 2.474595], [97.857614, 2.48042], [97.858717, 2.480533], [97.858955, 2.479659], [97.860802, 2.479506], [97.860997, 2.4777], [97.863826, 2.477529], [97.864065, 2.476768], [97.864906, 2.47642], [97.865124, 2.474828], [97.86586, 2.474563], [97.866166, 2.47387], [97.866878, 2.473582], [97.869281, 2.470985], [97.871054, 2.469758], [97.87155, 2.468254], [97.872379, 2.468083], [97.872717, 2.467547], [97.87291, 2.46842], [97.872258, 2.468962], [97.872185, 2.47042], [97.870526, 2.47223], [97.870016, 2.47342], [97.870074, 2.47442], [97.86936, 2.475063], [97.868717, 2.476562], [97.867987, 2.47615], [97.867717, 2.475412], [97.867604, 2.476307], [97.866582, 2.476285], [97.866519, 2.47742], [97.865601, 2.478304], [97.86539, 2.479094], [97.862585, 2.47942], [97.86344, 2.479697], [97.863622, 2.480515], [97.864425, 2.480712], [97.864726, 2.487429], [97.863418, 2.488122], [97.862416, 2.48942], [97.862161, 2.49342], [97.862257, 2.49388], [97.863318, 2.49442], [97.862717, 2.494607]]], "type": "Polygon"}, "type": "Feature"}], "type": "FeatureCollection"}