{"features": [{"properties": {"fill-opacity": 0.33, "fillColor": "#bf4040", "opacity": 0.33, "fill": "#bf4040", "fillOpacity": 0.33, "color": "#bf4040", "contour": 15.0, "metric": "time"}, "geometry": {"coordinates": [[[95.691708, 5.377117], [95.691095, 5.375716], [95.689708, 5.375632], [95.688708, 5.374765], [95.687708, 5.374811], [95.686708, 5.373852], [95.68106, 5.37375], [95.680867, 5.369103], [95.680069, 5.368741], [95.67984, 5.366971], [95.679135, 5.366675], [95.678708, 5.365952], [95.675708, 5.365921], [95.675293, 5.366688], [95.673554, 5.366949], [95.673209, 5.367604], [95.671511, 5.367907], [95.670708, 5.368762], [95.66838, 5.368775], [95.667708, 5.369541], [95.666518, 5.369292], [95.666452, 5.368847], [95.667215, 5.368103], [95.666708, 5.367559], [95.665805, 5.368201], [95.664722, 5.368103], [95.665482, 5.367877], [95.665708, 5.366786], [95.670887, 5.366283], [95.671007, 5.364103], [95.672046, 5.363103], [95.671147, 5.362103], [95.671708, 5.358283], [95.67226, 5.359103], [95.672228, 5.361103], [95.673318, 5.362103], [95.673449, 5.364362], [95.674836, 5.364231], [95.675105, 5.3635], [95.67686, 5.362255], [95.677115, 5.36051], [95.678827, 5.360223], [95.679053, 5.358449], [95.679861, 5.358103], [95.68001, 5.356405], [95.680804, 5.356199], [95.680986, 5.355382], [95.681797, 5.355192], [95.681969, 5.354365], [95.683708, 5.354226], [95.683943, 5.353339], [95.685785, 5.35318], [95.685947, 5.352343], [95.687792, 5.352187], [95.687984, 5.350379], [95.688853, 5.350103], [95.689039, 5.347434], [95.689822, 5.347217], [95.690066, 5.346462], [95.690907, 5.346103], [95.690984, 5.343103], [95.690055, 5.342103], [95.690273, 5.341668], [95.692169, 5.341642], [95.693195, 5.342616], [95.693553, 5.344258], [95.69489, 5.344285], [95.696042, 5.343103], [95.696265, 5.340103], [95.697122, 5.339517], [95.697708, 5.338175], [95.698086, 5.340103], [95.697245, 5.341103], [95.697485, 5.343326], [95.698137, 5.343674], [95.698326, 5.344485], [95.700708, 5.344692], [95.701708, 5.343977], [95.7021, 5.344103], [95.701899, 5.345103], [95.698708, 5.345692], [95.69809, 5.344721], [95.696708, 5.344788], [95.695708, 5.345821], [95.693563, 5.345959], [95.692337, 5.347732], [95.691589, 5.347985], [95.691371, 5.348767], [95.6906, 5.348995], [95.690421, 5.351816], [95.689616, 5.352012], [95.689451, 5.353847], [95.687592, 5.354103], [95.688499, 5.354312], [95.688641, 5.35517], [95.689511, 5.3553], [95.689647, 5.357163], [95.690708, 5.357186], [95.690867, 5.356262], [95.691787, 5.356182], [95.693551, 5.35626], [95.693656, 5.357154], [95.69476, 5.357155], [95.694867, 5.356262], [95.69576, 5.356155], [95.695861, 5.355256], [95.696758, 5.355153], [95.696856, 5.354251], [95.699755, 5.35415], [95.699851, 5.353247], [95.700757, 5.353152], [95.700856, 5.352252], [95.70276, 5.352156], [95.702883, 5.350278], [95.703708, 5.350191], [95.704533, 5.350278], [95.704653, 5.352157], [95.70652, 5.352291], [95.706708, 5.353198], [95.709493, 5.353317], [95.709708, 5.354219], [95.712408, 5.354403], [95.712609, 5.355201], [95.715325, 5.355485], [95.715708, 5.356342], [95.716934, 5.35633], [95.717708, 5.355549], [95.720197, 5.356103], [95.718708, 5.356626], [95.717708, 5.357769], [95.714708, 5.357894], [95.714126, 5.357685], [95.713708, 5.356932], [95.709708, 5.356976], [95.708963, 5.356848], [95.708708, 5.355994], [95.705904, 5.355907], [95.70577, 5.35504], [95.703877, 5.354934], [95.703763, 5.354048], [95.702658, 5.354053], [95.70256, 5.354956], [95.70166, 5.355055], [95.701566, 5.355961], [95.70064, 5.356103], [95.701575, 5.356236], [95.701576, 5.358971], [95.700665, 5.35906], [95.700581, 5.359976], [95.698665, 5.36006], [95.698578, 5.360974], [95.696663, 5.361058], [95.696571, 5.361966], [95.695661, 5.362057], [95.695566, 5.362962], [95.69466, 5.363055], [95.694556, 5.364951], [95.693656, 5.365052], [95.693546, 5.366941], [95.692624, 5.367103], [95.692529, 5.369924], [95.691647, 5.370042], [95.691521, 5.370916], [95.690643, 5.371039], [95.690509, 5.371904], [95.68791, 5.371901], [95.687708, 5.370998], [95.684708, 5.370977], [95.68444, 5.371835], [95.682543, 5.372103], [95.688185, 5.372626], [95.688708, 5.373441], [95.689708, 5.373504], [95.690411, 5.3744], [95.691973, 5.374838], [95.691708, 5.377117]]], "type": "Polygon"}, "type": "Feature"}], "type": "FeatureCollection"}