{"features": [{"properties": {"fill-opacity": 0.33, "fillColor": "#bf4040", "opacity": 0.33, "fill": "#bf4040", "fillOpacity": 0.33, "color": "#bf4040", "contour": 15.0, "metric": "time"}, "geometry": {"coordinates": [[[97.8673, 2.610602], [97.8663, 2.61123], [97.865694, 2.609967], [97.864764, 2.609823], [97.8643, 2.610156], [97.864073, 2.609133], [97.864661, 2.60836], [97.866564, 2.607623], [97.867817, 2.605877], [97.868473, 2.605533], [97.868507, 2.60336], [97.869417, 2.602244], [97.868646, 2.602014], [97.8683, 2.601175], [97.863775, 2.600885], [97.863487, 2.59536], [97.862711, 2.59495], [97.862449, 2.594212], [97.8603, 2.59407], [97.8593, 2.593016], [97.857979, 2.593039], [97.8573, 2.593741], [97.8563, 2.593741], [97.85517, 2.59223], [97.8563, 2.592163], [97.856941, 2.591001], [97.857734, 2.590794], [97.858694, 2.590966], [97.859047, 2.591614], [97.860763, 2.591897], [97.8613, 2.592623], [97.8633, 2.592584], [97.8643, 2.59159], [97.8663, 2.591555], [97.866548, 2.58836], [97.8673, 2.587608], [97.868053, 2.58836], [97.868194, 2.593466], [97.871022, 2.593639], [97.8713, 2.595479], [97.8733, 2.595469], [97.873505, 2.594565], [97.874401, 2.594461], [97.876101, 2.594559], [97.876204, 2.595457], [97.8783, 2.595446], [97.878452, 2.591512], [97.879372, 2.59136], [97.878443, 2.591218], [97.878444, 2.588504], [97.880345, 2.588405], [97.88043, 2.58649], [97.881343, 2.586403], [97.881426, 2.585486], [97.882343, 2.585403], [97.882431, 2.584491], [97.883345, 2.584404], [97.883435, 2.583495], [97.884346, 2.583406], [97.88444, 2.5825], [97.88735, 2.58241], [97.887457, 2.580517], [97.895379, 2.580438], [97.895437, 2.57936], [97.894596, 2.579065], [97.89441, 2.57725], [97.892683, 2.576977], [97.892683, 2.575743], [97.894415, 2.575475], [97.894675, 2.573735], [97.8985, 2.573559], [97.8993, 2.571699], [97.899969, 2.573691], [97.900082, 2.57636], [97.899752, 2.57736], [97.90097, 2.57836], [97.90105, 2.58036], [97.9003, 2.58111], [97.899183, 2.581243], [97.899125, 2.58336], [97.900919, 2.58536], [97.900655, 2.586714], [97.9003, 2.587071], [97.899898, 2.58636], [97.897743, 2.584918], [97.897476, 2.58336], [97.896601, 2.58306], [97.8963, 2.582242], [97.8893, 2.582279], [97.88915, 2.58421], [97.886254, 2.584314], [97.886164, 2.585224], [97.885256, 2.585315], [97.885168, 2.586228], [97.884257, 2.586317], [97.884257, 2.587404], [97.885167, 2.587494], [97.8853, 2.58843], [97.887158, 2.588503], [97.887228, 2.59036], [97.888151, 2.59051], [97.8883, 2.591439], [97.888464, 2.590523], [97.890137, 2.590523], [97.890246, 2.591415], [97.891132, 2.591528], [97.891214, 2.59336], [97.892115, 2.593546], [97.892734, 2.595794], [97.8923, 2.596263], [97.890488, 2.596173], [97.890362, 2.595299], [97.88948, 2.595181], [97.889356, 2.593304], [97.886455, 2.593205], [97.886351, 2.59231], [97.88545, 2.592211], [97.885348, 2.590313], [97.883438, 2.590222], [97.883345, 2.589315], [97.882256, 2.589316], [97.882166, 2.590226], [97.881231, 2.59036], [97.881152, 2.593212], [97.880224, 2.59336], [97.88013, 2.597189], [97.878208, 2.59736], [97.878098, 2.600158], [97.876503, 2.600158], [97.876393, 2.59736], [97.875489, 2.597172], [97.875397, 2.596263], [97.875094, 2.597154], [97.871171, 2.59736], [97.873976, 2.597685], [97.874138, 2.59836], [97.873976, 2.599035], [97.871205, 2.599265], [97.87117, 2.602491], [97.872854, 2.602807], [97.8733, 2.603609], [97.8753, 2.603665], [97.875878, 2.602938], [97.876722, 2.602938], [97.877892, 2.60436], [97.8773, 2.608096], [97.876569, 2.605091], [97.8723, 2.605122], [97.871448, 2.604212], [97.8703, 2.604162], [97.870003, 2.60736], [97.86873, 2.60879], [97.867013, 2.609073], [97.866876, 2.609784], [97.867543, 2.61036], [97.8673, 2.610602]]], "type": "Polygon"}, "type": "Feature"}], "type": "FeatureCollection"}