{"features": [{"properties": {"fill-opacity": 0.33, "fillColor": "#bf4040", "opacity": 0.33, "fill": "#bf4040", "fillOpacity": 0.33, "color": "#bf4040", "contour": 15.0, "metric": "time"}, "geometry": {"coordinates": [[[97.789322, 2.332064], [97.78745, 2.332], [97.787365, 2.331084], [97.785456, 2.330993], [97.785322, 2.330058], [97.781472, 2.329978], [97.781399, 2.329051], [97.776498, 2.328952], [97.776322, 2.328036], [97.774513, 2.327936], [97.774389, 2.326061], [97.773526, 2.325923], [97.773395, 2.324054], [97.772545, 2.323904], [97.772449, 2.320127], [97.772576, 2.319381], [97.774412, 2.319216], [97.774599, 2.318403], [97.777031, 2.318418], [97.777031, 2.319836], [97.776229, 2.320034], [97.77605, 2.320854], [97.774239, 2.321044], [97.774208, 2.322127], [97.775102, 2.322347], [97.775254, 2.324196], [97.776121, 2.324329], [97.776258, 2.325192], [97.777132, 2.325318], [97.777261, 2.326188], [97.778381, 2.326185], [97.778508, 2.324313], [97.780323, 2.324221], [97.780528, 2.323333], [97.781392, 2.323197], [97.781547, 2.321352], [97.78244, 2.321127], [97.78257, 2.319374], [97.784411, 2.319215], [97.784609, 2.317413], [97.785422, 2.317226], [97.785629, 2.316434], [97.78643, 2.316234], [97.786658, 2.315462], [97.78744, 2.315244], [97.787686, 2.31449], [97.788452, 2.314256], [97.78876, 2.312564], [97.789566, 2.312127], [97.789765, 2.307127], [97.791673, 2.305478], [97.791895, 2.3027], [97.792323, 2.302648], [97.792801, 2.303127], [97.793053, 2.304397], [97.793959, 2.305127], [97.794073, 2.308127], [97.794865, 2.308584], [97.795128, 2.310321], [97.795957, 2.310492], [97.796159, 2.313127], [97.795996, 2.3138], [97.795175, 2.314127], [97.795035, 2.315839], [97.79423, 2.316035], [97.794068, 2.317873], [97.79324, 2.318044], [97.793092, 2.319897], [97.792248, 2.320052], [97.792108, 2.321913], [97.788261, 2.322065], [97.788141, 2.322945], [97.787263, 2.323068], [97.787148, 2.323953], [97.786266, 2.324071], [97.786162, 2.325967], [97.785245, 2.326127], [97.785275, 2.328174], [97.787187, 2.328262], [97.787278, 2.329171], [97.789195, 2.329255], [97.78928, 2.330169], [97.790197, 2.330253], [97.790197, 2.332001], [97.789322, 2.332064]]], "type": "Polygon"}, "type": "Feature"}], "type": "FeatureCollection"}