{"features": [{"properties": {"fill-opacity": 0.33, "fillColor": "#bf4040", "opacity": 0.33, "fill": "#bf4040", "fillOpacity": 0.33, "color": "#bf4040", "contour": 15.0, "metric": "time"}, "geometry": {"coordinates": [[[97.448634, 3.970274], [97.445993, 3.970129], [97.444514, 3.969488], [97.445634, 3.968919], [97.447634, 3.968713], [97.448006, 3.967859], [97.450634, 3.967621], [97.450871, 3.966724], [97.451706, 3.966559], [97.451837, 3.96569], [97.453634, 3.965578], [97.453798, 3.964651], [97.459507, 3.964614], [97.459507, 3.966361], [97.455634, 3.966412], [97.455464, 3.967317], [97.453569, 3.967422], [97.453427, 3.96828], [97.452558, 3.968411], [97.452391, 3.969244], [97.449514, 3.969367], [97.449207, 3.97006], [97.448634, 3.970274]]], "type": "Polygon"}, "type": "Feature"}], "type": "FeatureCollection"}