{"features": [{"properties": {"fill-opacity": 0.33, "fillColor": "#bf4040", "opacity": 0.33, "fill": "#bf4040", "fillOpacity": 0.33, "color": "#bf4040", "contour": 15.0, "metric": "time"}, "geometry": {"coordinates": [[[96.00085, 4.437199], [95.99985, 4.437225], [95.999299, 4.436593], [95.99785, 4.436411], [95.997132, 4.437041], [95.99685, 4.438038], [95.996569, 4.437041], [95.995296, 4.436041], [95.995232, 4.435041], [95.996164, 4.434041], [95.996078, 4.431041], [95.996306, 4.430497], [95.997067, 4.430258], [95.997039, 4.429041], [95.995186, 4.428706], [95.994955, 4.427936], [95.994149, 4.427743], [95.994, 4.427041], [95.994103, 4.423294], [95.994966, 4.423041], [95.995052, 4.418242], [95.995944, 4.418041], [95.995939, 4.416129], [95.995015, 4.415877], [95.994902, 4.413989], [95.994002, 4.41389], [95.993898, 4.411994], [95.991808, 4.411998], [95.991714, 4.416905], [95.989987, 4.416905], [95.989914, 4.413041], [95.988975, 4.412916], [95.988913, 4.412041], [95.988975, 4.411166], [95.989919, 4.410973], [95.98485, 4.410957], [95.984676, 4.411867], [95.982031, 4.411861], [95.981915, 4.408977], [95.979774, 4.408964], [95.979599, 4.41079], [95.978717, 4.411041], [95.978569, 4.41276], [95.977705, 4.412896], [95.978512, 4.41338], [95.978677, 4.414868], [95.978495, 4.415686], [95.977657, 4.416041], [95.977642, 4.417041], [95.97954, 4.419041], [95.978499, 4.420041], [95.978543, 4.421349], [95.97933, 4.422041], [95.978751, 4.42414], [95.978385, 4.424041], [95.978496, 4.423041], [95.977326, 4.422041], [95.977032, 4.41886], [95.974352, 4.418539], [95.974057, 4.416834], [95.973403, 4.416489], [95.972151, 4.414741], [95.970834, 4.414058], [95.970619, 4.413041], [95.972094, 4.412797], [95.975988, 4.416178], [95.976151, 4.412342], [95.976996, 4.412186], [95.977105, 4.409296], [95.977933, 4.409124], [95.978083, 4.407274], [95.97985, 4.407151], [95.980062, 4.406253], [95.98085, 4.406147], [95.982648, 4.406243], [95.982784, 4.407107], [95.983657, 4.407234], [95.98385, 4.409128], [95.98885, 4.409115], [95.988993, 4.408184], [95.990896, 4.408087], [95.990993, 4.406184], [95.992707, 4.406184], [95.992805, 4.408087], [95.995701, 4.40819], [95.995801, 4.410091], [95.99785, 4.410124], [95.998043, 4.409234], [95.999658, 4.409234], [95.999793, 4.411099], [96.000912, 4.411103], [96.001043, 4.410233], [96.00195, 4.410041], [96.00107, 4.409821], [96.001092, 4.405283], [96.001933, 4.405124], [96.002106, 4.404297], [96.002983, 4.404174], [96.003157, 4.401348], [96.00401, 4.4012], [96.004181, 4.400371], [96.006065, 4.400041], [96.006078, 4.399041], [96.005111, 4.398041], [96.005058, 4.396834], [96.004184, 4.396041], [96.004253, 4.394443], [96.00448, 4.39367], [96.006606, 4.392041], [96.00685, 4.391172], [96.007226, 4.393041], [96.005483, 4.395041], [96.006301, 4.39559], [96.006569, 4.397041], [96.007686, 4.398206], [96.010202, 4.39869], [96.010485, 4.399676], [96.00985, 4.400218], [96.00885, 4.399693], [96.007474, 4.401665], [96.004691, 4.401882], [96.004575, 4.404766], [96.003718, 4.404908], [96.003603, 4.406794], [96.002735, 4.407041], [96.002778, 4.408113], [96.003641, 4.40825], [96.003653, 4.411844], [96.002787, 4.411977], [96.002665, 4.412855], [95.99885, 4.412957], [95.998686, 4.413877], [95.996771, 4.414041], [95.997682, 4.414209], [95.997657, 4.419847], [95.996784, 4.419975], [95.996745, 4.421041], [95.997622, 4.42127], [95.997736, 4.422041], [95.997622, 4.422812], [95.996735, 4.423041], [95.996609, 4.4248], [95.995718, 4.425041], [95.997451, 4.42544], [95.997451, 4.426642], [95.996741, 4.427151], [95.998487, 4.427405], [95.998669, 4.428041], [95.998438, 4.430629], [95.997634, 4.430825], [95.997647, 4.433244], [95.99985, 4.433492], [96.00085, 4.432683], [96.002067, 4.433041], [96.001277, 4.434041], [96.001987, 4.435041], [96.00185, 4.435366], [96.00085, 4.435351], [96.000231, 4.436041], [96.000218, 4.436673], [96.00085, 4.437199]]], "type": "Polygon"}, "type": "Feature"}], "type": "FeatureCollection"}