{"features": [{"properties": {"fill-opacity": 0.33, "fillColor": "#bf4040", "opacity": 0.33, "fill": "#bf4040", "fillOpacity": 0.33, "color": "#bf4040", "contour": 15.0, "metric": "time"}, "geometry": {"coordinates": [[[97.40752, 2.324676], [97.407085, 2.323449], [97.407846, 2.322775], [97.407888, 2.321449], [97.408737, 2.320666], [97.409035, 2.318964], [97.409736, 2.318449], [97.409658, 2.313449], [97.408771, 2.313198], [97.408599, 2.31237], [97.407745, 2.312224], [97.407629, 2.31134], [97.406449, 2.311378], [97.406299, 2.312228], [97.405446, 2.312375], [97.405301, 2.31323], [97.402733, 2.313236], [97.402589, 2.31238], [97.401725, 2.312244], [97.40171, 2.308639], [97.402582, 2.308511], [97.402699, 2.306628], [97.403578, 2.306507], [97.403689, 2.305618], [97.404575, 2.305504], [97.404679, 2.303608], [97.405596, 2.303449], [97.405668, 2.301597], [97.406592, 2.301449], [97.406656, 2.298585], [97.407586, 2.298449], [97.405646, 2.298323], [97.405646, 2.296575], [97.407564, 2.296493], [97.407668, 2.294597], [97.412371, 2.294598], [97.412444, 2.295525], [97.413366, 2.295603], [97.413372, 2.300302], [97.411473, 2.300402], [97.411371, 2.302301], [97.410443, 2.302449], [97.410357, 2.305286], [97.409465, 2.305394], [97.409344, 2.307273], [97.408428, 2.307449], [97.408411, 2.310558], [97.410279, 2.31069], [97.410436, 2.311532], [97.411261, 2.311708], [97.411429, 2.31254], [97.412239, 2.31273], [97.412379, 2.313449], [97.412239, 2.314168], [97.411369, 2.314449], [97.411279, 2.319449], [97.410238, 2.320449], [97.410182, 2.321449], [97.409117, 2.322449], [97.408833, 2.323762], [97.40752, 2.324676]]], "type": "Polygon"}, "type": "Feature"}], "type": "FeatureCollection"}