{"features": [{"properties": {"fill-opacity": 0.33, "fillColor": "#bf4040", "opacity": 0.33, "fill": "#bf4040", "fillOpacity": 0.33, "color": "#bf4040", "contour": 15.0, "metric": "time"}, "geometry": {"coordinates": [[[95.314173, 5.584137], [95.312432, 5.584003], [95.312262, 5.583173], [95.311452, 5.582983], [95.311269, 5.582166], [95.310471, 5.581964], [95.310276, 5.581159], [95.309498, 5.580937], [95.309286, 5.580149], [95.30853, 5.579905], [95.308296, 5.579139], [95.307562, 5.578873], [95.307309, 5.578126], [95.306609, 5.577826], [95.303409, 5.574026], [95.301812, 5.573623], [95.300625, 5.57181], [95.299615, 5.571262], [95.301173, 5.570954], [95.302885, 5.572551], [95.304597, 5.572838], [95.307012, 5.575423], [95.30772, 5.575716], [95.30803, 5.576405], [95.30877, 5.576665], [95.309045, 5.57739], [95.309811, 5.577624], [95.310056, 5.578379], [95.310839, 5.578596], [95.311066, 5.579369], [95.311867, 5.579568], [95.312173, 5.580403], [95.312415, 5.578503], [95.314248, 5.578336], [95.314519, 5.576608], [95.315293, 5.576381], [95.315507, 5.575596], [95.317968, 5.575467], [95.318109, 5.576326], [95.319232, 5.57632], [95.319226, 5.574209], [95.316324, 5.574111], [95.316222, 5.573213], [95.315173, 5.573193], [95.31503, 5.574118], [95.312383, 5.574262], [95.312364, 5.575262], [95.311132, 5.575303], [95.310555, 5.573262], [95.309483, 5.572262], [95.309346, 5.568262], [95.307467, 5.567968], [95.307278, 5.563262], [95.306376, 5.563059], [95.306241, 5.562195], [95.30595, 5.563038], [95.304034, 5.563262], [95.303867, 5.565955], [95.300485, 5.56595], [95.300173, 5.565098], [95.297173, 5.564881], [95.296457, 5.563978], [95.294856, 5.563579], [95.294521, 5.562914], [95.292759, 5.561676], [95.291002, 5.561433], [95.289949, 5.560486], [95.288734, 5.560262], [95.288122, 5.556313], [95.287642, 5.556262], [95.288791, 5.555879], [95.289173, 5.555074], [95.289767, 5.556668], [95.291608, 5.556827], [95.292008, 5.557428], [95.292918, 5.557517], [95.293127, 5.558308], [95.29364, 5.558262], [95.29383, 5.557262], [95.293176, 5.556262], [95.293476, 5.555262], [95.294173, 5.553819], [95.294667, 5.553756], [95.29464, 5.553262], [95.295989, 5.552262], [95.295663, 5.551262], [95.297741, 5.549262], [95.297852, 5.547941], [95.301604, 5.546692], [95.303402, 5.545262], [95.303066, 5.544369], [95.30351, 5.543262], [95.303256, 5.542262], [95.304173, 5.539963], [95.307265, 5.53917], [95.308173, 5.539475], [95.308758, 5.540677], [95.311173, 5.540583], [95.312173, 5.54139], [95.312437, 5.539998], [95.311458, 5.538262], [95.312173, 5.537781], [95.314173, 5.537844], [95.315173, 5.537133], [95.31817, 5.539262], [95.319173, 5.539402], [95.320427, 5.539008], [95.321173, 5.539958], [95.325173, 5.538915], [95.325697, 5.540738], [95.327635, 5.541262], [95.327597, 5.542686], [95.327082, 5.543353], [95.328173, 5.54307], [95.330753, 5.545262], [95.331199, 5.549287], [95.330448, 5.550262], [95.330812, 5.550623], [95.331524, 5.550612], [95.331732, 5.549821], [95.333173, 5.548535], [95.333885, 5.549262], [95.333974, 5.551062], [95.333173, 5.551309], [95.334244, 5.551332], [95.335173, 5.550637], [95.338593, 5.551262], [95.339968, 5.553262], [95.339032, 5.555262], [95.3381, 5.556188], [95.337507, 5.558262], [95.336527, 5.559908], [95.338173, 5.561541], [95.338292, 5.562381], [95.337701, 5.563262], [95.337943, 5.565492], [95.339173, 5.566612], [95.340227, 5.566208], [95.340434, 5.568523], [95.340173, 5.569068], [95.339841, 5.568594], [95.339173, 5.568526], [95.337789, 5.569878], [95.337554, 5.570881], [95.337923, 5.571262], [95.336957, 5.572045], [95.336173, 5.573992], [95.334887, 5.573975], [95.33271, 5.574798], [95.330786, 5.575874], [95.329362, 5.577451], [95.327527, 5.578616], [95.323885, 5.578973], [95.323442, 5.58053], [95.322694, 5.580783], [95.322173, 5.581692], [95.322026, 5.580262], [95.322705, 5.579793], [95.322604, 5.578832], [95.321596, 5.578684], [95.321142, 5.579293], [95.318129, 5.579218], [95.318013, 5.580102], [95.317096, 5.580184], [95.31689, 5.580978], [95.316056, 5.581144], [95.315719, 5.582807], [95.315009, 5.583097], [95.314871, 5.58396], [95.314173, 5.584137]]], "type": "Polygon"}, "type": "Feature"}], "type": "FeatureCollection"}