{"features": [{"properties": {"fill-opacity": 0.33, "fillColor": "#bf4040", "opacity": 0.33, "fill": "#bf4040", "fillOpacity": 0.33, "color": "#bf4040", "contour": 15.0, "metric": "time"}, "geometry": {"coordinates": [[[97.522636, 4.510199], [97.51925, 4.51043], [97.519026, 4.509043], [97.519957, 4.508043], [97.519909, 4.506043], [97.520863, 4.505043], [97.520055, 4.504624], [97.519767, 4.503913], [97.519012, 4.503668], [97.518636, 4.502856], [97.517492, 4.5029], [97.516636, 4.503817], [97.514347, 4.503754], [97.514061, 4.505469], [97.512296, 4.506703], [97.511775, 4.508182], [97.511288, 4.507391], [97.511314, 4.505722], [97.513177, 4.503584], [97.513925, 4.503332], [97.515139, 4.501546], [97.516636, 4.501265], [97.517636, 4.500274], [97.5185, 4.50118], [97.518801, 4.501043], [97.518732, 4.499947], [97.516898, 4.499782], [97.51671, 4.496969], [97.51585, 4.496829], [97.515706, 4.495973], [97.51484, 4.495839], [97.514702, 4.494977], [97.512822, 4.494857], [97.512697, 4.493983], [97.511818, 4.493862], [97.511818, 4.492225], [97.512695, 4.492102], [97.51272, 4.491128], [97.511797, 4.490882], [97.511796, 4.488203], [97.512688, 4.488095], [97.512708, 4.487043], [97.509767, 4.486912], [97.509702, 4.486043], [97.509762, 4.483169], [97.51151, 4.483169], [97.511636, 4.485111], [97.515636, 4.48512], [97.515803, 4.48321], [97.516722, 4.483043], [97.516702, 4.479977], [97.514849, 4.479831], [97.514742, 4.479043], [97.514882, 4.474289], [97.515767, 4.474043], [97.515823, 4.468043], [97.516009, 4.467416], [97.51684, 4.467043], [97.516116, 4.466563], [97.515813, 4.464866], [97.51492, 4.464043], [97.515636, 4.457169], [97.516328, 4.463043], [97.517123, 4.463557], [97.517391, 4.465043], [97.518416, 4.466043], [97.518436, 4.468043], [97.518236, 4.468643], [97.517462, 4.469043], [97.51751, 4.475043], [97.517384, 4.475792], [97.516518, 4.476043], [97.516526, 4.477933], [97.518435, 4.478244], [97.518552, 4.484043], [97.518468, 4.484875], [97.517556, 4.485043], [97.517478, 4.486885], [97.514564, 4.487043], [97.514547, 4.493043], [97.517425, 4.493255], [97.517564, 4.495115], [97.518415, 4.495264], [97.518549, 4.49813], [97.52035, 4.498329], [97.52046, 4.502043], [97.521254, 4.502426], [97.522422, 4.504043], [97.522382, 4.506043], [97.521356, 4.507043], [97.521324, 4.509356], [97.523036, 4.510043], [97.522636, 4.510199]]], "type": "Polygon"}, "type": "Feature"}], "type": "FeatureCollection"}