{"features": [{"properties": {"fill-opacity": 0.33, "fillColor": "#bf4040", "opacity": 0.33, "fill": "#bf4040", "fillOpacity": 0.33, "color": "#bf4040", "contour": 15.0, "metric": "time"}, "geometry": {"coordinates": [[[97.935121, 4.337584], [97.93392, 4.337132], [97.933286, 4.330967], [97.931559, 4.330694], [97.931121, 4.328865], [97.929121, 4.328894], [97.928121, 4.329828], [97.927658, 4.329596], [97.927392, 4.327132], [97.928271, 4.326283], [97.928306, 4.325132], [97.927462, 4.324792], [97.927212, 4.323041], [97.926888, 4.3249], [97.92604, 4.325051], [97.925869, 4.325881], [97.925034, 4.326045], [97.924832, 4.327844], [97.923969, 4.328132], [97.923793, 4.329804], [97.923008, 4.330019], [97.922766, 4.330777], [97.922121, 4.330955], [97.918573, 4.33068], [97.918285, 4.328968], [97.916645, 4.328609], [97.91633, 4.327923], [97.914723, 4.32753], [97.914121, 4.326587], [97.912762, 4.326132], [97.912725, 4.325132], [97.914121, 4.324745], [97.914342, 4.323353], [97.915176, 4.323187], [97.915276, 4.321287], [97.916171, 4.321182], [97.916257, 4.317268], [97.917185, 4.317132], [97.915121, 4.317067], [97.914985, 4.317996], [97.909271, 4.317982], [97.909271, 4.316282], [97.913121, 4.316202], [97.913256, 4.315267], [97.915184, 4.315132], [97.91425, 4.315004], [97.914188, 4.312132], [97.913262, 4.311991], [97.91317, 4.310084], [97.91227, 4.309983], [97.912199, 4.307132], [97.911287, 4.306967], [97.911301, 4.302312], [97.912215, 4.302132], [97.912226, 4.299132], [97.911349, 4.298904], [97.911201, 4.298052], [97.90902, 4.298031], [97.908804, 4.298816], [97.90801, 4.299021], [97.907768, 4.299779], [97.906999, 4.300011], [97.906736, 4.300748], [97.905986, 4.300998], [97.904653, 4.302664], [97.902848, 4.302859], [97.902529, 4.307724], [97.903121, 4.308358], [97.901984, 4.308132], [97.90147, 4.304132], [97.901121, 4.303806], [97.898245, 4.306256], [97.896989, 4.306265], [97.89971, 4.302722], [97.902394, 4.302405], [97.902625, 4.301637], [97.904264, 4.300275], [97.904527, 4.299539], [97.905248, 4.29926], [97.90548, 4.298491], [97.906237, 4.298248], [97.906452, 4.297463], [97.907227, 4.297238], [97.907429, 4.29644], [97.910121, 4.29627], [97.91038, 4.295391], [97.911204, 4.295215], [97.911421, 4.291432], [97.912821, 4.291432], [97.912979, 4.293132], [97.913858, 4.293396], [97.914121, 4.295264], [97.915218, 4.295229], [97.915426, 4.294437], [97.917802, 4.294451], [97.917986, 4.298267], [97.918695, 4.298558], [97.91897, 4.299283], [97.920841, 4.301132], [97.920579, 4.302591], [97.919663, 4.302591], [97.917265, 4.299988], [97.916531, 4.299722], [97.916229, 4.297024], [97.913041, 4.297052], [97.913903, 4.297351], [97.914049, 4.298205], [97.914897, 4.298357], [97.915009, 4.299132], [97.914897, 4.299908], [97.91402, 4.300132], [97.91394, 4.303951], [97.913062, 4.304073], [97.913038, 4.305132], [97.91396, 4.305293], [97.914046, 4.308132], [97.914975, 4.308278], [97.915074, 4.310179], [97.915984, 4.310269], [97.916078, 4.313175], [97.917996, 4.313257], [97.917996, 4.315007], [97.917079, 4.315174], [97.92098, 4.315273], [97.921195, 4.316206], [97.922172, 4.316184], [97.922277, 4.315288], [97.923965, 4.315288], [97.924121, 4.316212], [97.925956, 4.316298], [97.926065, 4.317189], [97.926949, 4.317304], [97.927121, 4.318222], [97.92731, 4.317321], [97.931017, 4.317237], [97.931908, 4.317346], [97.932238, 4.318249], [97.932402, 4.314413], [97.943443, 4.314454], [97.944121, 4.310539], [97.944769, 4.312484], [97.946602, 4.313652], [97.946476, 4.314487], [97.943799, 4.314811], [97.943588, 4.315599], [97.943121, 4.315833], [97.934029, 4.31604], [97.933882, 4.318893], [97.933005, 4.319016], [97.932993, 4.322132], [97.933846, 4.322408], [97.933983, 4.323132], [97.933922, 4.329132], [97.9356, 4.330654], [97.935878, 4.332376], [97.937464, 4.332789], [97.939164, 4.335132], [97.938121, 4.335376], [97.936431, 4.333823], [97.93487, 4.333881], [97.934636, 4.336617], [97.935721, 4.337132], [97.935121, 4.337584]]], "type": "Polygon"}, "type": "Feature"}], "type": "FeatureCollection"}