{"features": [{"properties": {"fill-opacity": 0.33, "fillColor": "#bf4040", "opacity": 0.33, "fill": "#bf4040", "fillOpacity": 0.33, "color": "#bf4040", "contour": 15.0, "metric": "time"}, "geometry": {"coordinates": [[[96.695467, 5.073377], [96.695208, 5.072172], [96.693467, 5.070819], [96.692626, 5.072331], [96.692308, 5.072331], [96.691467, 5.069915], [96.689467, 5.069961], [96.687467, 5.071911], [96.686467, 5.070897], [96.679831, 5.070172], [96.68761, 5.069315], [96.687559, 5.06808], [96.685707, 5.067932], [96.685556, 5.064172], [96.684641, 5.063997], [96.684641, 5.062346], [96.685542, 5.062172], [96.685594, 5.058299], [96.68734, 5.058299], [96.687417, 5.061222], [96.689286, 5.061353], [96.689467, 5.062271], [96.694467, 5.062377], [96.695467, 5.061461], [96.696467, 5.062641], [96.697624, 5.063172], [96.69524, 5.063945], [96.688467, 5.064079], [96.687653, 5.063986], [96.687387, 5.063172], [96.68739, 5.066249], [96.689178, 5.066461], [96.689467, 5.068382], [96.690467, 5.067411], [96.691657, 5.068362], [96.691844, 5.067172], [96.692467, 5.066548], [96.695719, 5.06692], [96.695467, 5.068518], [96.694467, 5.067669], [96.693467, 5.06775], [96.693148, 5.068172], [96.693258, 5.069381], [96.694956, 5.069683], [96.695178, 5.070461], [96.696852, 5.072172], [96.696467, 5.073144], [96.695467, 5.073377]]], "type": "Polygon"}, "type": "Feature"}], "type": "FeatureCollection"}