{"features": [{"properties": {"fill-opacity": 0.33, "fillColor": "#bf4040", "opacity": 0.33, "fill": "#bf4040", "fillOpacity": 0.33, "color": "#bf4040", "contour": 15.0, "metric": "time"}, "geometry": {"coordinates": [[[96.976575, 3.618731], [96.975725, 3.618656], [96.975624, 3.617757], [96.97472, 3.617661], [96.974575, 3.615738], [96.974449, 3.61668], [96.973533, 3.616764], [96.97345, 3.617681], [96.972575, 3.617743], [96.9717, 3.617681], [96.971575, 3.61574], [96.967717, 3.615664], [96.967659, 3.608806], [96.966751, 3.60863], [96.966575, 3.607713], [96.966375, 3.608606], [96.964774, 3.608606], [96.96477, 3.606001], [96.965669, 3.605806], [96.96478, 3.6056], [96.964645, 3.604736], [96.96379, 3.60459], [96.963575, 3.603691], [96.961575, 3.603681], [96.961275, 3.604506], [96.95947, 3.604701], [96.960384, 3.605806], [96.960194, 3.606425], [96.959373, 3.606806], [96.960356, 3.607806], [96.960307, 3.609806], [96.961261, 3.610806], [96.961321, 3.612059], [96.963736, 3.614645], [96.963575, 3.615499], [96.962575, 3.615139], [96.961575, 3.615524], [96.961244, 3.615136], [96.961057, 3.613806], [96.960171, 3.61321], [96.959908, 3.611806], [96.958871, 3.610806], [96.958725, 3.608656], [96.955233, 3.608464], [96.954575, 3.60947], [96.953913, 3.608468], [96.952575, 3.608409], [96.952012, 3.608806], [96.9517, 3.609931], [96.950575, 3.610184], [96.950117, 3.607806], [96.948284, 3.607097], [96.949228, 3.605806], [96.949437, 3.603806], [96.95027, 3.603501], [96.950575, 3.602265], [96.953575, 3.602439], [96.954712, 3.601943], [96.955001, 3.601232], [96.955575, 3.601019], [96.956747, 3.601978], [96.956693, 3.600688], [96.955965, 3.600415], [96.95577, 3.599806], [96.955997, 3.597228], [96.957153, 3.597228], [96.957575, 3.598974], [96.957927, 3.598158], [96.958698, 3.597929], [96.958994, 3.596224], [96.959802, 3.595806], [96.959857, 3.592806], [96.960086, 3.592317], [96.961446, 3.591806], [96.961182, 3.590806], [96.961432, 3.589663], [96.962487, 3.588718], [96.963575, 3.588374], [96.964143, 3.590238], [96.964788, 3.590019], [96.964902, 3.587806], [96.964224, 3.586806], [96.965575, 3.585277], [96.966575, 3.585129], [96.966747, 3.585633], [96.966954, 3.586806], [96.966124, 3.587806], [96.967159, 3.588806], [96.966249, 3.589806], [96.967299, 3.590806], [96.967428, 3.592953], [96.968735, 3.592966], [96.970575, 3.591102], [96.972575, 3.591197], [96.973183, 3.591806], [96.972575, 3.592414], [96.97137, 3.592601], [96.970077, 3.594307], [96.968383, 3.594806], [96.968395, 3.595806], [96.969243, 3.596137], [96.969468, 3.596912], [96.972575, 3.597006], [96.973174, 3.597207], [96.973374, 3.597806], [96.973174, 3.598404], [96.972575, 3.598605], [96.970469, 3.5987], [96.970329, 3.60256], [96.969495, 3.602726], [96.969343, 3.603573], [96.967469, 3.603806], [96.969369, 3.604011], [96.969369, 3.6056], [96.967481, 3.605806], [96.968393, 3.605988], [96.968516, 3.606865], [96.9694, 3.60698], [96.969491, 3.608806], [96.970412, 3.608968], [96.970416, 3.611647], [96.969499, 3.611806], [96.969528, 3.613853], [96.971575, 3.613871], [96.971713, 3.612944], [96.973575, 3.612873], [96.97444, 3.612941], [96.974575, 3.613873], [96.97843, 3.613951], [96.978575, 3.61488], [96.980575, 3.614885], [96.980741, 3.613972], [96.986388, 3.613993], [96.986388, 3.615619], [96.984575, 3.615715], [96.9844, 3.616631], [96.977502, 3.616732], [96.977425, 3.618656], [96.976575, 3.618731]]], "type": "Polygon"}, "type": "Feature"}], "type": "FeatureCollection"}