{"features": [{"properties": {"fill-opacity": 0.33, "fillColor": "#bf4040", "opacity": 0.33, "fill": "#bf4040", "fillOpacity": 0.33, "color": "#bf4040", "contour": 15.0, "metric": "time"}, "geometry": {"coordinates": [[[96.426541, 3.951137], [96.424926, 3.950093], [96.42459, 3.949093], [96.424801, 3.947833], [96.423876, 3.948093], [96.42436, 3.949093], [96.423762, 3.949313], [96.422976, 3.948658], [96.421541, 3.948606], [96.421028, 3.948093], [96.421106, 3.945657], [96.422541, 3.945392], [96.423541, 3.944355], [96.424691, 3.944242], [96.425919, 3.942471], [96.426712, 3.942093], [96.426679, 3.938093], [96.425832, 3.937802], [96.425633, 3.937001], [96.423797, 3.936837], [96.423794, 3.934346], [96.424652, 3.934093], [96.423747, 3.933887], [96.423609, 3.933026], [96.422738, 3.932897], [96.422541, 3.931002], [96.422348, 3.9319], [96.420473, 3.932024], [96.420329, 3.932881], [96.418466, 3.933017], [96.418309, 3.93386], [96.416458, 3.934009], [96.416281, 3.934832], [96.414448, 3.934999], [96.414245, 3.935796], [96.410856, 3.935779], [96.410541, 3.934926], [96.41018, 3.935731], [96.408403, 3.935954], [96.408089, 3.93664], [96.407288, 3.937093], [96.408254, 3.938093], [96.407993, 3.939545], [96.404766, 3.942317], [96.403541, 3.942895], [96.403419, 3.94197], [96.405908, 3.939093], [96.405821, 3.938093], [96.40481, 3.937093], [96.405045, 3.935596], [96.406541, 3.935319], [96.406959, 3.93451], [96.408542, 3.934283], [96.408897, 3.933448], [96.409542, 3.933271], [96.412213, 3.933421], [96.412542, 3.934241], [96.412823, 3.933374], [96.414628, 3.933179], [96.414793, 3.932344], [96.416619, 3.932171], [96.416769, 3.931321], [96.418612, 3.931164], [96.418749, 3.930301], [96.421635, 3.930186], [96.42163, 3.929093], [96.420719, 3.928915], [96.42063, 3.928093], [96.420719, 3.927271], [96.421624, 3.927093], [96.420702, 3.926933], [96.420542, 3.92003], [96.419499, 3.92005], [96.419413, 3.920964], [96.414494, 3.921045], [96.414396, 3.921947], [96.413491, 3.922043], [96.413386, 3.922938], [96.410486, 3.923038], [96.410373, 3.923924], [96.409484, 3.924035], [96.409363, 3.924915], [96.407479, 3.92503], [96.407348, 3.925899], [96.406475, 3.926026], [96.406333, 3.926884], [96.403748, 3.926886], [96.403746, 3.924298], [96.405542, 3.924191], [96.40573, 3.923282], [96.407601, 3.923152], [96.407714, 3.922265], [96.408598, 3.922149], [96.408709, 3.92126], [96.411593, 3.921144], [96.411691, 3.920243], [96.41259, 3.920142], [96.412686, 3.919238], [96.417541, 3.919158], [96.417669, 3.918221], [96.418584, 3.918135], [96.418666, 3.917218], [96.420417, 3.917218], [96.4205, 3.918135], [96.421541, 3.918157], [96.421614, 3.917093], [96.417707, 3.916927], [96.417541, 3.916007], [96.415718, 3.915916], [96.415602, 3.915033], [96.414726, 3.914908], [96.41464, 3.912093], [96.413753, 3.911881], [96.413613, 3.911021], [96.411773, 3.910861], [96.411541, 3.90997], [96.409798, 3.909836], [96.409542, 3.908957], [96.407828, 3.908806], [96.407704, 3.905093], [96.406899, 3.904735], [96.406667, 3.903967], [96.404541, 3.905839], [96.401096, 3.905538], [96.399933, 3.904093], [96.400064, 3.902093], [96.399229, 3.901093], [96.399541, 3.899704], [96.400895, 3.901093], [96.401284, 3.90335], [96.402541, 3.904388], [96.403708, 3.90426], [96.40497, 3.902521], [96.405542, 3.902307], [96.408159, 3.902476], [96.408421, 3.903213], [96.409195, 3.903439], [96.409447, 3.907187], [96.411282, 3.907352], [96.411541, 3.908215], [96.413307, 3.908327], [96.413541, 3.909204], [96.415328, 3.909306], [96.415472, 3.910163], [96.416338, 3.910296], [96.416447, 3.913093], [96.41736, 3.913274], [96.417483, 3.914152], [96.419374, 3.91426], [96.419541, 3.915173], [96.423395, 3.915239], [96.423493, 3.916141], [96.4244, 3.916234], [96.424403, 3.918954], [96.423496, 3.919047], [96.423407, 3.920959], [96.422472, 3.921093], [96.422464, 3.925093], [96.42338, 3.925254], [96.423453, 3.929093], [96.424355, 3.929279], [96.424476, 3.931158], [96.425338, 3.931296], [96.425472, 3.932162], [96.426328, 3.932306], [96.426468, 3.933166], [96.426787, 3.932338], [96.427542, 3.932216], [96.42929, 3.932345], [96.429416, 3.933093], [96.42929, 3.933841], [96.428423, 3.934093], [96.42839, 3.940093], [96.429207, 3.940427], [96.429207, 3.941758], [96.428431, 3.941982], [96.42817, 3.943722], [96.427413, 3.943964], [96.426093, 3.945644], [96.424253, 3.946093], [96.425936, 3.946699], [96.426133, 3.947093], [96.426137, 3.949498], [96.426843, 3.950093], [96.426699, 3.950935], [96.427212, 3.951093], [96.426541, 3.951137]]], "type": "Polygon"}, "type": "Feature"}], "type": "FeatureCollection"}