{"features": [{"properties": {"fill-opacity": 0.33, "fillColor": "#bf4040", "opacity": 0.33, "fill": "#bf4040", "fillOpacity": 0.33, "color": "#bf4040", "contour": 15.0, "metric": "time"}, "geometry": {"coordinates": [[[97.876868, 4.504791], [97.874373, 4.503504], [97.87211, 4.500767], [97.870425, 4.500453], [97.869993, 4.498884], [97.869225, 4.498653], [97.868983, 4.497894], [97.867188, 4.49769], [97.867165, 4.494306], [97.867962, 4.494103], [97.868136, 4.493276], [97.868955, 4.493095], [97.869117, 4.492258], [97.869989, 4.492009], [97.869935, 4.490942], [97.869065, 4.490812], [97.868957, 4.487009], [97.868713, 4.487854], [97.864011, 4.487866], [97.863915, 4.486962], [97.863006, 4.486871], [97.862933, 4.484009], [97.861995, 4.483882], [97.861994, 4.481135], [97.863743, 4.481135], [97.863826, 4.482051], [97.86474, 4.482137], [97.864801, 4.485009], [97.865729, 4.485148], [97.865868, 4.486081], [97.86602, 4.485161], [97.867716, 4.485161], [97.867947, 4.486088], [97.868028, 4.485169], [97.868923, 4.485063], [97.869034, 4.484175], [97.870702, 4.484175], [97.870774, 4.489009], [97.87167, 4.489207], [97.871868, 4.490115], [97.872868, 4.490131], [97.873133, 4.489273], [97.874009, 4.489009], [97.874166, 4.487306], [97.875028, 4.487009], [97.875208, 4.485349], [97.875985, 4.485126], [97.876238, 4.484378], [97.876997, 4.484138], [97.87728, 4.48342], [97.880055, 4.481196], [97.88043, 4.47957], [97.88126, 4.479009], [97.881604, 4.476009], [97.882685, 4.475825], [97.882868, 4.475114], [97.882944, 4.476009], [97.882289, 4.477009], [97.882503, 4.480009], [97.881647, 4.480788], [97.881343, 4.482484], [97.87965, 4.484009], [97.881868, 4.484281], [97.88246, 4.482601], [97.882868, 4.482396], [97.885312, 4.482565], [97.886941, 4.482936], [97.887219, 4.485009], [97.884609, 4.485749], [97.883868, 4.490002], [97.883101, 4.485776], [97.877868, 4.485818], [97.877523, 4.486663], [97.876757, 4.486897], [97.876567, 4.488707], [97.875771, 4.488911], [97.875594, 4.490734], [97.874781, 4.490921], [97.874733, 4.492009], [97.875558, 4.492319], [97.875701, 4.494009], [97.876507, 4.494371], [97.876732, 4.496145], [97.877434, 4.496443], [97.878609, 4.498009], [97.878603, 4.499009], [97.877566, 4.500009], [97.877308, 4.501448], [97.876448, 4.502009], [97.87748, 4.504009], [97.876868, 4.504791]]], "type": "Polygon"}, "type": "Feature"}], "type": "FeatureCollection"}