{"features": [{"properties": {"fill-opacity": 0.33, "fillColor": "#bf4040", "opacity": 0.33, "fill": "#bf4040", "fillOpacity": 0.33, "color": "#bf4040", "contour": 15.0, "metric": "time"}, "geometry": {"coordinates": [[[97.778901, 2.885913], [97.77413, 2.885784], [97.773901, 2.884893], [97.772154, 2.88476], [97.771988, 2.883925], [97.771169, 2.883745], [97.770994, 2.882919], [97.77019, 2.882723], [97.770002, 2.881911], [97.769219, 2.881695], [97.768901, 2.878777], [97.767723, 2.878834], [97.765901, 2.880734], [97.765188, 2.879726], [97.763901, 2.87954], [97.763828, 2.878939], [97.765136, 2.878247], [97.765441, 2.877552], [97.768117, 2.877012], [97.768141, 2.875012], [97.767192, 2.874012], [97.767156, 2.871758], [97.766519, 2.871395], [97.766267, 2.869647], [97.765648, 2.869265], [97.765235, 2.868012], [97.765901, 2.867816], [97.767176, 2.868737], [97.767439, 2.870012], [97.768304, 2.87061], [97.768603, 2.873012], [97.769632, 2.874012], [97.769758, 2.876155], [97.771452, 2.876462], [97.771452, 2.877563], [97.770715, 2.878012], [97.770796, 2.880118], [97.771597, 2.880317], [97.771804, 2.88111], [97.77262, 2.881294], [97.772811, 2.882103], [97.773637, 2.882277], [97.773818, 2.883096], [97.775665, 2.883248], [97.775901, 2.884122], [97.777901, 2.884114], [97.778095, 2.883206], [97.779962, 2.883073], [97.780079, 2.88219], [97.780959, 2.882071], [97.78107, 2.881182], [97.781957, 2.881068], [97.782064, 2.880175], [97.783901, 2.880091], [97.784054, 2.879165], [97.786901, 2.879084], [97.787044, 2.878155], [97.787949, 2.878061], [97.788053, 2.876165], [97.78898, 2.876012], [97.788986, 2.874012], [97.788081, 2.873833], [97.787963, 2.872951], [97.787091, 2.872823], [97.786972, 2.869942], [97.785128, 2.869785], [97.785152, 2.866263], [97.785988, 2.866099], [97.786167, 2.865278], [97.786995, 2.865106], [97.787192, 2.864303], [97.788003, 2.864114], [97.788218, 2.863329], [97.790023, 2.863134], [97.790285, 2.862396], [97.792052, 2.861163], [97.792408, 2.85952], [97.794119, 2.85823], [97.794506, 2.856618], [97.795569, 2.85568], [97.797157, 2.855756], [97.797238, 2.856349], [97.79563, 2.857741], [97.795353, 2.859464], [97.79373, 2.860841], [97.793436, 2.862547], [97.791773, 2.863884], [97.791531, 2.864642], [97.790785, 2.864896], [97.790565, 2.865677], [97.788803, 2.865914], [97.788614, 2.866725], [97.787811, 2.866922], [97.787639, 2.86775], [97.786782, 2.868012], [97.78869, 2.868224], [97.788833, 2.869081], [97.7897, 2.869214], [97.78981, 2.872012], [97.790724, 2.872189], [97.790815, 2.873099], [97.790748, 2.877859], [97.789828, 2.878012], [97.789833, 2.880012], [97.792776, 2.880138], [97.792776, 2.881887], [97.788036, 2.881878], [97.787901, 2.880943], [97.785901, 2.880938], [97.785748, 2.881859], [97.783847, 2.881958], [97.783736, 2.882847], [97.782845, 2.882956], [97.782725, 2.883836], [97.781842, 2.883953], [97.781718, 2.884829], [97.779901, 2.88492], [97.779702, 2.885813], [97.778901, 2.885913]]], "type": "Polygon"}, "type": "Feature"}], "type": "FeatureCollection"}