{"features": [{"properties": {"fill-opacity": 0.33, "fillColor": "#bf4040", "opacity": 0.33, "fill": "#bf4040", "fillOpacity": 0.33, "color": "#bf4040", "contour": 15.0, "metric": "time"}, "geometry": {"coordinates": [[[96.48205, 4.726652], [96.480687, 4.726435], [96.48005, 4.725525], [96.479621, 4.725643], [96.47905, 4.726875], [96.478735, 4.725072], [96.482271, 4.724293], [96.48233, 4.723072], [96.483298, 4.722072], [96.482433, 4.72169], [96.482223, 4.720072], [96.482396, 4.719419], [96.483213, 4.719072], [96.483231, 4.707254], [96.484137, 4.707072], [96.484106, 4.706017], [96.483214, 4.705909], [96.483196, 4.700218], [96.48505, 4.700143], [96.48519, 4.699212], [96.48805, 4.699138], [96.488178, 4.6982], [96.491094, 4.698116], [96.491182, 4.697204], [96.492095, 4.697117], [96.492188, 4.69621], [96.493097, 4.696119], [96.493193, 4.695215], [96.49505, 4.695144], [96.495201, 4.694223], [96.497103, 4.694125], [96.49721, 4.693232], [96.498105, 4.693127], [96.498217, 4.692239], [96.501874, 4.692249], [96.50199, 4.693132], [96.503116, 4.693138], [96.503257, 4.692279], [96.504159, 4.692072], [96.504297, 4.688319], [96.505181, 4.688072], [96.505524, 4.682546], [96.507229, 4.682251], [96.50758, 4.681602], [96.509441, 4.681072], [96.509444, 4.679679], [96.508696, 4.678718], [96.508892, 4.678072], [96.50906, 4.678062], [96.509552, 4.678571], [96.510299, 4.678823], [96.51057, 4.680072], [96.51105, 4.680478], [96.512429, 4.680451], [96.51305, 4.67972], [96.514773, 4.680072], [96.513601, 4.680623], [96.51305, 4.681461], [96.51105, 4.681667], [96.51049, 4.682512], [96.50905, 4.682769], [96.507895, 4.683917], [96.508682, 4.684441], [96.508866, 4.685072], [96.508682, 4.685704], [96.506895, 4.686072], [96.507772, 4.686351], [96.507779, 4.688801], [96.506964, 4.688986], [96.506801, 4.689823], [96.505932, 4.690072], [96.506812, 4.690311], [96.506967, 4.691156], [96.507791, 4.691332], [96.507791, 4.692813], [96.506969, 4.692992], [96.506973, 4.69415], [96.50905, 4.694205], [96.509335, 4.693357], [96.510765, 4.693357], [96.51105, 4.694223], [96.513712, 4.694411], [96.513712, 4.695734], [96.50605, 4.695955], [96.505286, 4.695837], [96.50505, 4.693967], [96.504853, 4.694875], [96.503954, 4.694976], [96.50023, 4.694893], [96.50005, 4.693987], [96.499885, 4.694907], [96.498997, 4.695019], [96.498892, 4.695914], [96.49705, 4.695995], [96.496902, 4.696924], [96.495003, 4.697025], [96.494911, 4.697933], [96.494005, 4.698027], [96.493916, 4.698938], [96.493006, 4.699028], [96.492919, 4.699941], [96.490008, 4.70003], [96.489922, 4.700945], [96.489007, 4.701029], [96.488915, 4.701937], [96.485002, 4.702024], [96.484971, 4.704072], [96.485884, 4.704238], [96.48599, 4.707133], [96.487853, 4.70727], [96.487946, 4.710072], [96.487841, 4.710863], [96.48495, 4.711072], [96.484927, 4.716072], [96.486774, 4.716348], [96.486912, 4.717072], [96.486774, 4.717797], [96.485957, 4.717979], [96.485752, 4.718774], [96.484888, 4.719072], [96.484923, 4.7202], [96.485639, 4.720484], [96.485845, 4.721072], [96.485605, 4.722627], [96.483867, 4.723889], [96.48349, 4.725512], [96.48205, 4.726652]]], "type": "Polygon"}, "type": "Feature"}], "type": "FeatureCollection"}