{"features": [{"properties": {"fill-opacity": 0.33, "fillColor": "#bf4040", "opacity": 0.33, "fill": "#bf4040", "fillOpacity": 0.33, "color": "#bf4040", "contour": 15.0, "metric": "time"}, "geometry": {"coordinates": [[[97.836403, 3.52597], [97.833416, 3.52527], [97.834403, 3.52479], [97.835403, 3.523651], [97.837403, 3.523462], [97.837728, 3.522596], [97.840403, 3.522391], [97.840621, 3.521488], [97.847403, 3.521336], [97.84753, 3.520397], [97.84847, 3.520337], [97.848545, 3.519412], [97.849453, 3.51932], [97.84956, 3.518427], [97.851463, 3.51833], [97.851595, 3.517462], [97.853211, 3.517462], [97.853403, 3.518373], [97.853651, 3.517518], [97.856403, 3.517425], [97.856818, 3.516685], [97.85818, 3.516494], [97.858918, 3.516755], [97.859403, 3.517608], [97.861287, 3.51827], [97.860002, 3.518869], [97.855403, 3.519139], [97.855175, 3.520043], [97.851403, 3.520187], [97.851252, 3.521119], [97.849336, 3.521203], [97.849272, 3.52314], [97.844403, 3.523189], [97.844223, 3.52409], [97.843403, 3.52418], [97.842584, 3.52409], [97.842403, 3.523172], [97.842168, 3.524035], [97.839299, 3.524166], [97.839051, 3.524918], [97.837244, 3.525111], [97.836403, 3.52597]]], "type": "Polygon"}, "type": "Feature"}], "type": "FeatureCollection"}