{"features": [{"properties": {"fill-opacity": 0.33, "fillColor": "#bf4040", "opacity": 0.33, "fill": "#bf4040", "fillOpacity": 0.33, "color": "#bf4040", "contour": 15.0, "metric": "time"}, "geometry": {"coordinates": [[[95.75437, 4.618144], [95.751499, 4.618077], [95.75137, 4.61714], [95.749507, 4.61707], [95.749416, 4.61616], [95.748511, 4.616065], [95.748418, 4.615159], [95.74652, 4.615057], [95.746422, 4.613154], [95.745531, 4.613046], [95.745454, 4.610207], [95.744547, 4.61003], [95.744464, 4.608207], [95.743566, 4.608011], [95.743468, 4.607207], [95.743575, 4.604412], [95.744441, 4.604278], [95.744588, 4.603424], [95.745486, 4.603207], [95.744615, 4.602962], [95.744455, 4.602122], [95.743635, 4.601941], [95.743506, 4.600207], [95.742672, 4.599904], [95.742474, 4.599102], [95.739739, 4.598837], [95.739498, 4.598079], [95.738773, 4.597803], [95.738614, 4.591963], [95.736101, 4.591476], [95.735255, 4.590207], [95.73537, 4.589124], [95.735672, 4.589905], [95.73659, 4.589986], [95.736986, 4.590591], [95.739787, 4.590789], [95.74005, 4.592207], [95.741084, 4.593207], [95.741003, 4.596207], [95.74137, 4.596648], [95.744419, 4.597157], [95.744147, 4.597983], [95.745084, 4.598493], [95.745282, 4.600295], [95.746114, 4.600463], [95.746288, 4.601289], [95.747128, 4.601449], [95.747143, 4.60498], [95.746297, 4.605133], [95.746155, 4.605991], [95.745271, 4.606207], [95.746182, 4.606394], [95.746308, 4.607268], [95.747189, 4.607388], [95.747289, 4.611207], [95.748212, 4.611364], [95.74832, 4.613256], [95.750226, 4.613351], [95.750323, 4.614254], [95.751232, 4.614344], [95.751325, 4.615252], [95.75324, 4.615337], [95.75337, 4.61627], [95.755244, 4.616332], [95.755244, 4.618081], [95.75437, 4.618144]]], "type": "Polygon"}, "type": "Feature"}], "type": "FeatureCollection"}