{"features": [{"properties": {"fill-opacity": 0.33, "fillColor": "#bf4040", "opacity": 0.33, "fill": "#bf4040", "fillOpacity": 0.33, "color": "#bf4040", "contour": 15.0, "metric": "time"}, "geometry": {"coordinates": [[[106.832989, -6.2236], [106.832673, -6.22508], [106.830282, -6.225396], [106.828732, -6.227396], [106.827699, -6.227687], [106.825989, -6.226272], [106.825026, -6.227433], [106.823989, -6.227145], [106.822431, -6.228396], [106.821943, -6.229396], [106.822361, -6.230396], [106.821989, -6.230787], [106.820801, -6.230584], [106.820439, -6.229947], [106.819672, -6.229713], [106.819521, -6.228396], [106.818498, -6.227887], [106.818132, -6.227254], [106.81691, -6.227317], [106.817639, -6.227746], [106.817765, -6.228396], [106.817576, -6.228984], [106.816857, -6.229396], [106.816855, -6.231396], [106.816465, -6.232396], [106.817651, -6.233734], [106.818989, -6.233941], [106.81945, -6.234396], [106.819414, -6.236821], [106.818302, -6.237709], [106.814747, -6.237396], [106.814445, -6.235396], [106.814989, -6.234197], [106.813932, -6.232453], [106.812027, -6.232358], [106.811192, -6.231396], [106.809989, -6.231186], [106.808989, -6.232175], [106.806989, -6.232114], [106.805989, -6.234535], [106.803989, -6.233912], [106.801989, -6.236106], [106.801363, -6.23877], [106.80023, -6.240396], [106.801356, -6.241396], [106.800958, -6.244427], [106.801278, -6.243685], [106.801989, -6.243789], [106.803244, -6.245141], [106.803263, -6.24567], [106.799989, -6.245996], [106.798213, -6.247396], [106.797919, -6.248326], [106.796562, -6.249396], [106.796113, -6.251521], [106.794687, -6.252396], [106.794913, -6.254396], [106.795989, -6.25459], [106.796541, -6.255396], [106.796008, -6.256416], [106.794173, -6.257396], [106.795591, -6.258396], [106.793989, -6.258802], [106.793982, -6.260396], [106.794207, -6.259614], [106.794989, -6.259611], [106.79651, -6.260875], [106.796836, -6.261396], [106.796736, -6.262649], [106.798298, -6.263087], [106.798433, -6.26384], [106.797747, -6.264396], [106.798593, -6.264792], [106.798989, -6.265708], [106.799667, -6.265075], [106.800989, -6.264994], [106.801519, -6.265396], [106.800463, -6.266396], [106.801323, -6.267062], [106.801784, -6.268602], [106.802898, -6.269396], [106.802083, -6.270396], [106.804683, -6.273396], [106.806207, -6.274178], [106.807989, -6.276273], [106.808989, -6.27673], [106.809508, -6.274915], [106.811989, -6.273227], [106.812989, -6.274102], [106.813784, -6.277396], [106.812989, -6.278051], [106.811508, -6.278396], [106.812448, -6.278938], [106.813434, -6.281396], [106.815569, -6.281817], [106.81729, -6.283095], [106.818062, -6.285323], [106.818989, -6.286388], [106.819396, -6.285803], [106.821882, -6.284396], [106.820956, -6.282363], [106.821469, -6.281396], [106.822989, -6.280933], [106.823989, -6.279826], [106.824718, -6.279667], [106.825989, -6.280327], [106.826646, -6.280053], [106.826989, -6.279377], [106.8291, -6.280285], [106.832337, -6.278744], [106.832989, -6.2776], [106.834284, -6.277691], [106.836989, -6.275401], [106.840994, -6.276391], [106.841055, -6.27733], [106.841989, -6.277805], [106.842617, -6.276024], [106.843635, -6.275396], [106.843462, -6.274396], [106.843989, -6.273014], [106.845727, -6.271134], [106.846989, -6.271169], [106.847258, -6.270665], [106.847996, -6.267396], [106.846989, -6.266816], [106.846579, -6.264987], [106.849448, -6.262396], [106.848678, -6.260707], [106.848582, -6.259396], [106.846989, -6.258791], [106.844989, -6.258705], [106.844741, -6.257396], [106.843854, -6.256261], [106.854573, -6.255396], [106.850989, -6.253591], [106.850424, -6.252396], [106.850728, -6.251396], [106.849989, -6.250849], [106.849256, -6.251664], [106.847993, -6.251396], [106.848888, -6.250396], [106.846829, -6.248237], [106.845989, -6.24893], [106.845177, -6.248396], [106.84646, -6.247867], [106.846548, -6.247396], [106.845039, -6.246346], [106.843952, -6.246396], [106.843989, -6.244243], [106.846071, -6.243396], [106.84518, -6.242205], [106.844989, -6.24068], [106.843989, -6.241016], [106.842989, -6.242047], [106.839605, -6.242396], [106.840989, -6.242735], [106.841518, -6.243396], [106.840989, -6.24536], [106.839989, -6.246262], [106.839166, -6.246219], [106.838629, -6.244756], [106.837847, -6.244396], [106.837596, -6.24079], [106.836136, -6.240396], [106.834937, -6.239449], [106.833989, -6.239375], [106.832479, -6.237906], [106.832286, -6.237396], [106.833428, -6.236396], [106.833496, -6.235396], [106.83274, -6.233645], [106.83285, -6.232396], [106.833839, -6.231396], [106.833989, -6.229718], [106.835492, -6.228396], [106.834989, -6.227593], [106.834846, -6.228253], [106.833522, -6.227863], [106.832989, -6.2236]]], "type": "Polygon"}, "type": "Feature"}], "type": "FeatureCollection"}