{"features": [{"properties": {"fill-opacity": 0.33, "fillColor": "#bf4040", "opacity": 0.33, "fill": "#bf4040", "fillOpacity": 0.33, "color": "#bf4040", "contour": 15.0, "metric": "time"}, "geometry": {"coordinates": [[[106.826475, -6.117938], [106.825959, -6.118102], [106.82585, -6.119476], [106.824384, -6.120011], [106.825046, -6.120531], [106.82529, -6.122102], [106.824825, -6.124452], [106.822475, -6.12564], [106.821716, -6.124861], [106.821475, -6.123768], [106.821009, -6.124636], [106.819475, -6.125706], [106.819266, -6.126893], [106.817668, -6.127294], [106.817352, -6.127978], [106.819136, -6.13044], [106.820895, -6.130682], [106.821007, -6.131633], [106.820248, -6.132102], [106.821379, -6.133198], [106.822475, -6.133422], [106.824475, -6.13282], [106.826817, -6.133102], [106.824272, -6.133899], [106.822475, -6.136477], [106.818475, -6.136896], [106.81841, -6.138037], [106.817729, -6.138102], [106.819475, -6.139173], [106.819862, -6.138489], [106.82098, -6.138596], [106.821742, -6.140102], [106.824475, -6.139807], [106.825244, -6.141332], [106.827521, -6.142055], [106.8285, -6.144102], [106.82992, -6.144657], [106.830139, -6.145102], [106.829739, -6.146102], [106.830137, -6.14744], [106.831682, -6.147894], [106.833475, -6.149881], [106.834798, -6.150102], [106.83534, -6.153102], [106.836385, -6.153191], [106.836475, -6.154105], [106.837218, -6.153845], [106.838475, -6.154247], [106.839475, -6.15528], [106.839598, -6.153102], [106.838719, -6.152858], [106.838644, -6.152102], [106.83876, -6.150102], [106.839475, -6.149514], [106.842273, -6.152304], [106.84394, -6.152636], [106.844475, -6.153399], [106.847593, -6.153102], [106.845574, -6.150102], [106.847559, -6.149018], [106.845069, -6.148507], [106.844688, -6.148102], [106.844711, -6.147102], [106.846194, -6.14582], [106.84677, -6.145807], [106.847475, -6.147595], [106.848475, -6.147203], [106.849466, -6.15011], [106.850475, -6.150056], [106.850724, -6.148852], [106.849927, -6.147102], [106.850116, -6.144743], [106.850977, -6.144599], [106.851527, -6.145153], [106.85303, -6.144657], [106.854475, -6.14496], [106.854574, -6.1432], [106.855201, -6.143102], [106.855509, -6.142102], [106.854999, -6.141578], [106.855112, -6.140739], [106.857036, -6.140102], [106.855475, -6.13904], [106.854802, -6.139429], [106.853205, -6.139372], [106.85307, -6.136102], [106.853475, -6.135678], [106.855475, -6.135675], [106.856066, -6.135102], [106.85612, -6.131102], [106.856759, -6.128386], [106.857403, -6.128029], [106.857475, -6.127069], [106.859008, -6.127102], [106.858475, -6.12444], [106.857475, -6.124418], [106.855475, -6.125589], [106.851475, -6.125439], [106.850249, -6.126328], [106.846639, -6.124937], [106.845475, -6.123187], [106.845023, -6.123649], [106.845059, -6.125102], [106.843811, -6.126438], [106.842451, -6.127125], [106.84186, -6.127102], [106.840475, -6.125135], [106.838954, -6.124622], [106.838387, -6.124014], [106.8381, -6.125102], [106.836957, -6.126102], [106.836895, -6.127102], [106.835475, -6.127355], [106.835029, -6.126547], [106.833341, -6.126235], [106.832984, -6.124593], [106.831156, -6.124102], [106.830814, -6.123102], [106.831076, -6.122703], [106.832786, -6.122102], [106.832263, -6.121313], [106.830475, -6.120846], [106.829475, -6.119378], [106.828475, -6.120128], [106.8272, -6.119377], [106.826475, -6.117938]]], "type": "Polygon"}, "type": "Feature"}], "type": "FeatureCollection"}