{"features": [{"properties": {"fill-opacity": 0.33, "fillColor": "#bf4040", "opacity": 0.33, "fill": "#bf4040", "fillOpacity": 0.33, "color": "#bf4040", "contour": 15.0, "metric": "time"}, "geometry": {"coordinates": [[[106.826315, -6.30283], [106.826111, -6.304058], [106.82713, -6.304244], [106.827173, -6.305058], [106.82702, -6.307058], [106.826003, -6.308058], [106.826602, -6.309058], [106.825469, -6.310212], [106.823887, -6.31063], [106.823341, -6.312084], [106.823022, -6.312058], [106.822369, -6.310058], [106.821315, -6.308753], [106.820478, -6.307896], [106.819715, -6.308058], [106.818624, -6.309058], [106.818779, -6.310058], [106.817213, -6.311058], [106.818621, -6.311753], [106.818315, -6.31434], [106.817315, -6.313325], [106.815649, -6.313058], [106.815608, -6.311766], [106.813315, -6.309505], [106.811291, -6.311058], [106.811084, -6.312058], [106.80912, -6.313863], [106.80894, -6.317058], [106.807687, -6.31843], [106.805315, -6.318702], [106.804682, -6.319425], [106.803898, -6.319476], [106.803315, -6.317174], [106.803151, -6.317894], [106.802308, -6.318058], [106.799315, -6.320428], [106.798586, -6.324329], [106.797523, -6.325058], [106.796663, -6.326406], [106.795784, -6.326527], [106.794171, -6.329914], [106.795797, -6.335058], [106.796916, -6.336058], [106.794315, -6.337207], [106.793881, -6.339058], [106.794798, -6.341058], [106.796059, -6.342058], [106.795906, -6.343058], [106.796457, -6.344058], [106.79772, -6.345058], [106.79744, -6.347183], [106.796018, -6.349058], [106.797229, -6.351058], [106.796988, -6.352058], [106.797315, -6.352477], [106.798736, -6.352638], [106.799453, -6.355058], [106.802182, -6.357192], [106.802293, -6.358058], [106.801233, -6.359058], [106.801474, -6.360058], [106.803315, -6.361865], [106.804917, -6.36066], [106.805614, -6.36076], [106.805661, -6.362404], [106.804035, -6.363058], [106.805315, -6.364326], [106.80645, -6.363924], [106.805855, -6.365058], [106.807315, -6.366618], [106.808189, -6.365932], [106.808751, -6.364494], [106.810315, -6.363898], [106.810447, -6.36319], [106.812379, -6.363122], [106.811668, -6.362705], [106.811616, -6.362058], [106.813315, -6.360622], [106.815315, -6.36227], [106.816315, -6.362501], [106.817315, -6.362227], [106.818478, -6.361058], [106.820335, -6.361078], [106.821315, -6.360116], [106.822315, -6.360701], [106.823315, -6.360077], [106.823713, -6.357058], [106.824471, -6.356214], [106.824824, -6.353058], [106.825557, -6.3523], [106.825826, -6.350058], [106.827938, -6.347681], [106.832315, -6.346327], [106.833073, -6.347058], [106.832902, -6.348645], [106.832068, -6.349058], [106.832315, -6.356533], [106.833315, -6.356202], [106.833538, -6.355281], [106.834172, -6.354915], [106.833976, -6.353719], [106.835941, -6.351684], [106.836803, -6.351571], [106.837319, -6.352062], [106.838315, -6.350978], [106.838369, -6.350005], [106.837633, -6.349741], [106.837462, -6.349058], [106.837757, -6.348058], [106.837154, -6.346058], [106.83828, -6.346094], [106.839315, -6.345418], [106.83955, -6.343824], [106.838315, -6.342451], [106.836315, -6.344456], [106.835712, -6.343662], [106.834315, -6.343552], [106.833954, -6.343058], [106.834167, -6.34091], [106.835123, -6.339866], [106.835308, -6.337051], [106.836258, -6.337001], [106.836315, -6.335294], [106.837864, -6.334607], [106.839218, -6.333058], [106.838798, -6.332058], [106.840304, -6.330058], [106.839674, -6.329058], [106.840557, -6.3283], [106.840909, -6.326652], [106.842126, -6.326058], [106.840855, -6.324519], [106.838558, -6.323816], [106.836715, -6.325058], [106.835243, -6.325131], [106.836232, -6.324974], [106.83617, -6.323058], [106.837003, -6.322746], [106.83704, -6.321058], [106.837935, -6.320058], [106.837645, -6.315058], [106.838579, -6.314058], [106.838315, -6.307563], [106.836264, -6.309007], [106.835236, -6.309058], [106.833315, -6.31052], [106.832315, -6.30726], [106.831315, -6.307232], [106.829315, -6.308214], [106.828124, -6.30725], [106.827315, -6.303432], [106.826315, -6.30283]]], "type": "Polygon"}, "type": "Feature"}], "type": "FeatureCollection"}