{"features": [{"properties": {"fill-opacity": 0.33, "fillColor": "#bf4040", "opacity": 0.33, "fill": "#bf4040", "fillOpacity": 0.33, "color": "#bf4040", "contour": 15.0, "metric": "time"}, "geometry": {"coordinates": [[[106.581375, -5.573344], [106.579503, -5.573406], [106.579501, -5.576152], [106.580419, -5.576234], [106.580515, -5.577138], [106.583237, -5.57714], [106.583238, -5.574416], [106.582331, -5.574323], [106.582244, -5.573409], [106.581375, -5.573344]]], "type": "Polygon"}, "type": "Feature"}], "type": "FeatureCollection"}