{"features": [{"properties": {"fill-opacity": 0.33, "fillColor": "#bf4040", "opacity": 0.33, "fill": "#bf4040", "fillOpacity": 0.33, "color": "#bf4040", "contour": 15.0, "metric": "time"}, "geometry": {"coordinates": [[[106.71094, -6.109526], [106.710324, -6.111564], [106.70956, -6.112185], [106.709311, -6.113936], [106.705556, -6.110948], [106.70494, -6.109777], [106.703969, -6.109594], [106.700592, -6.110217], [106.700267, -6.110564], [106.70051, -6.113564], [106.70194, -6.115012], [106.702062, -6.115686], [106.700343, -6.115968], [106.700092, -6.117564], [106.699261, -6.117885], [106.69903, -6.118654], [106.695258, -6.118883], [106.695271, -6.121233], [106.696043, -6.121668], [106.694292, -6.121917], [106.69394, -6.122755], [106.692354, -6.122979], [106.692074, -6.123699], [106.690441, -6.124066], [106.687435, -6.12706], [106.686496, -6.127008], [106.686248, -6.126564], [106.68594, -6.120883], [106.68494, -6.120572], [106.6847, -6.122804], [106.685146, -6.123358], [106.685314, -6.125564], [106.684249, -6.126564], [106.684243, -6.128868], [106.682173, -6.130564], [106.683168, -6.131564], [106.683123, -6.132747], [106.681542, -6.133167], [106.68094, -6.133996], [106.67994, -6.133176], [106.678695, -6.13332], [106.678609, -6.133895], [106.679592, -6.135564], [106.679431, -6.136564], [106.677708, -6.137796], [106.678003, -6.138502], [106.68194, -6.13821], [106.682261, -6.140886], [106.68094, -6.141185], [106.67994, -6.140222], [106.676502, -6.140564], [106.67694, -6.141306], [106.678042, -6.141462], [106.67794, -6.142564], [106.679535, -6.142969], [106.679667, -6.144292], [106.678924, -6.144548], [106.67882, -6.145564], [106.67994, -6.145697], [106.680371, -6.144996], [106.68094, -6.14484], [106.68294, -6.145173], [106.68394, -6.144827], [106.68494, -6.143776], [106.686256, -6.145248], [106.686416, -6.146564], [106.68594, -6.147297], [106.68313, -6.147564], [106.68638, -6.149564], [106.686283, -6.150564], [106.686827, -6.150677], [106.687587, -6.152564], [106.687274, -6.15423], [106.68755, -6.156175], [106.687026, -6.156564], [106.688275, -6.157564], [106.68894, -6.157651], [106.689286, -6.15591], [106.691014, -6.155639], [106.690186, -6.155318], [106.690447, -6.154071], [106.692028, -6.153653], [106.692303, -6.150927], [106.69394, -6.150778], [106.695382, -6.151122], [106.695805, -6.151564], [106.69594, -6.154477], [106.696852, -6.155564], [106.695054, -6.158564], [106.691394, -6.159564], [106.69294, -6.159893], [106.69494, -6.161664], [106.696378, -6.160564], [106.69894, -6.160265], [106.69994, -6.162934], [106.700438, -6.162564], [106.700583, -6.160564], [106.701246, -6.160258], [106.702648, -6.161856], [106.703385, -6.162119], [106.70494, -6.164301], [106.706246, -6.163564], [106.706012, -6.161564], [106.70794, -6.160345], [106.70894, -6.158748], [106.713294, -6.156564], [106.715427, -6.156052], [106.71594, -6.155357], [106.71694, -6.154954], [106.717272, -6.153897], [106.718528, -6.153564], [106.71794, -6.152702], [106.71694, -6.152811], [106.71694, -6.152398], [106.72294, -6.152647], [106.72394, -6.151321], [106.725505, -6.15113], [106.72694, -6.150019], [106.72719, -6.149564], [106.726893, -6.148564], [106.727501, -6.147126], [106.72794, -6.147145], [106.728436, -6.14606], [106.72919, -6.145564], [106.729306, -6.141564], [106.730179, -6.140325], [106.72994, -6.13571], [106.729246, -6.13787], [106.727701, -6.138325], [106.727229, -6.138854], [106.72594, -6.138822], [106.725391, -6.138113], [106.72372, -6.137784], [106.7237, -6.137325], [106.72494, -6.136445], [106.726842, -6.136467], [106.727829, -6.135564], [106.727784, -6.133409], [106.728945, -6.132569], [106.728726, -6.130564], [106.727966, -6.129538], [106.727047, -6.129457], [106.726529, -6.127564], [106.725048, -6.126456], [106.724178, -6.124564], [106.723244, -6.12426], [106.72294, -6.12271], [106.72197, -6.121564], [106.72094, -6.120853], [106.718431, -6.120073], [106.717754, -6.11875], [106.71694, -6.118575], [106.716488, -6.118016], [106.715902, -6.116602], [106.716181, -6.115564], [106.714811, -6.113564], [106.715584, -6.113209], [106.715806, -6.112564], [106.715251, -6.111564], [106.71394, -6.111215], [106.71294, -6.110076], [106.71094, -6.109526]]], "type": "Polygon"}, "type": "Feature"}], "type": "FeatureCollection"}