{"features": [{"properties": {"fill-opacity": 0.33, "fillColor": "#bf4040", "opacity": 0.33, "fill": "#bf4040", "fillOpacity": 0.33, "color": "#bf4040", "contour": 15.0, "metric": "time"}, "geometry": {"coordinates": [[[106.911482, -6.298284], [106.910326, -6.298458], [106.909482, -6.297857], [106.907563, -6.299302], [106.90816, -6.300302], [106.90812, -6.301664], [106.908482, -6.301409], [106.910482, -6.301764], [106.910652, -6.303472], [106.909008, -6.303828], [106.908482, -6.30457], [106.90796, -6.301824], [106.906482, -6.300752], [106.90538, -6.3012], [106.905193, -6.303591], [106.905626, -6.305446], [106.903482, -6.30599], [106.902482, -6.304706], [106.900482, -6.304774], [106.899216, -6.306036], [106.899096, -6.308302], [106.898482, -6.308897], [106.897482, -6.307911], [106.896064, -6.30772], [106.895482, -6.306928], [106.893482, -6.306945], [106.892482, -6.30606], [106.889983, -6.305801], [106.889482, -6.305111], [106.886482, -6.305243], [106.886482, -6.305329], [106.887482, -6.305944], [106.887625, -6.30616], [106.887797, -6.307302], [106.886482, -6.308546], [106.885482, -6.308538], [106.884473, -6.310293], [106.884644, -6.311302], [106.885934, -6.31185], [106.886114, -6.312302], [106.885913, -6.316302], [106.887, -6.317302], [106.88671, -6.32453], [106.886482, -6.32487], [106.883482, -6.324484], [106.881482, -6.325268], [106.880894, -6.326714], [106.879158, -6.327302], [106.878705, -6.328302], [106.880042, -6.329302], [106.879895, -6.330715], [106.878866, -6.331302], [106.879012, -6.333302], [106.879758, -6.335027], [106.881166, -6.335619], [106.881752, -6.337032], [106.883109, -6.337675], [106.884482, -6.336654], [106.885745, -6.33704], [106.886444, -6.339302], [106.885615, -6.340302], [106.886096, -6.341302], [106.885708, -6.342528], [106.884482, -6.342334], [106.883307, -6.343302], [106.883029, -6.344302], [106.883893, -6.345302], [106.883482, -6.347598], [106.884482, -6.348771], [106.885482, -6.347745], [106.887482, -6.34964], [106.888482, -6.348856], [106.890482, -6.348762], [106.890887, -6.349302], [106.890781, -6.350601], [106.888675, -6.352302], [106.892194, -6.354591], [106.893089, -6.354695], [106.893482, -6.355325], [106.894459, -6.354278], [106.896549, -6.354302], [106.897056, -6.352875], [106.899482, -6.351772], [106.902115, -6.352669], [106.902482, -6.353494], [106.904482, -6.353607], [106.908482, -6.351229], [106.909482, -6.350174], [106.912482, -6.35096], [106.914482, -6.349912], [106.915482, -6.350699], [106.916304, -6.350124], [106.916983, -6.348803], [106.91806, -6.348302], [106.917697, -6.347087], [106.916482, -6.346902], [106.915979, -6.346302], [106.917369, -6.345302], [106.917311, -6.344131], [106.918603, -6.343423], [106.917663, -6.342302], [106.917909, -6.341302], [106.917451, -6.340333], [106.918039, -6.339302], [106.918, -6.336302], [106.918766, -6.335585], [106.919114, -6.333933], [106.919891, -6.333302], [106.920193, -6.327302], [106.919482, -6.326528], [106.915482, -6.326452], [106.914783, -6.326602], [106.914574, -6.327394], [106.913482, -6.327424], [106.913345, -6.325302], [106.920067, -6.324887], [106.921408, -6.324228], [106.921253, -6.321073], [106.922135, -6.319955], [106.923052, -6.320302], [106.923482, -6.322168], [106.925121, -6.321302], [106.925158, -6.319978], [106.926689, -6.319509], [106.925591, -6.318302], [106.925933, -6.316302], [106.925328, -6.314302], [106.924482, -6.313488], [106.923482, -6.313858], [106.92314, -6.313644], [106.922886, -6.312898], [106.921145, -6.311302], [106.921769, -6.310302], [106.922001, -6.308821], [106.923925, -6.307744], [106.92596, -6.305302], [106.924999, -6.304302], [106.923864, -6.30392], [106.923482, -6.302822], [106.921482, -6.302446], [106.920858, -6.299926], [106.920138, -6.299958], [106.918482, -6.301541], [106.917942, -6.299842], [106.917482, -6.299613], [106.915482, -6.301557], [106.915082, -6.299302], [106.911632, -6.299153], [106.911482, -6.298284]]], "type": "Polygon"}, "type": "Feature"}], "type": "FeatureCollection"}