{"features": [{"properties": {"fill-opacity": 0.33, "fillColor": "#bf4040", "opacity": 0.33, "fill": "#bf4040", "fillOpacity": 0.33, "color": "#bf4040", "contour": 15.0, "metric": "time"}, "geometry": {"coordinates": [[[106.903912, -6.161327], [106.902254, -6.162641], [106.901912, -6.164332], [106.901348, -6.161862], [106.900912, -6.161498], [106.900523, -6.16291], [106.898651, -6.164038], [106.898182, -6.165569], [106.896912, -6.166231], [106.894741, -6.166128], [106.894625, -6.167299], [106.892994, -6.168299], [106.892909, -6.169302], [106.892265, -6.167299], [106.891432, -6.166299], [106.891761, -6.165299], [106.8912, -6.164299], [106.889912, -6.165058], [106.888912, -6.164772], [106.887912, -6.165916], [106.886973, -6.16636], [106.884777, -6.166164], [106.884058, -6.166299], [106.883488, -6.167299], [106.88083, -6.167217], [106.881032, -6.168299], [106.882622, -6.169588], [106.884078, -6.173465], [106.882912, -6.174024], [106.880375, -6.174299], [106.881037, -6.175174], [106.881031, -6.176299], [106.879854, -6.176357], [106.879661, -6.174549], [106.878989, -6.174221], [106.87924, -6.171299], [106.877912, -6.170123], [106.874969, -6.174356], [106.872221, -6.175608], [106.871753, -6.176299], [106.872255, -6.177299], [106.872217, -6.178299], [106.871475, -6.178862], [106.869673, -6.17906], [106.86831, -6.179697], [106.865912, -6.179166], [106.865912, -6.183762], [106.865986, -6.183373], [106.866912, -6.18328], [106.867141, -6.184528], [106.866912, -6.185309], [106.865912, -6.184352], [106.865367, -6.184754], [106.864094, -6.186299], [106.863654, -6.187557], [106.863732, -6.188299], [106.865226, -6.188985], [106.867133, -6.191299], [106.864912, -6.191536], [106.863912, -6.192642], [106.861912, -6.192831], [106.861364, -6.193751], [106.859721, -6.194109], [106.859468, -6.194855], [106.858783, -6.195171], [106.858591, -6.195979], [106.856847, -6.196299], [106.856912, -6.197403], [106.857527, -6.196914], [106.858912, -6.197048], [106.860912, -6.196546], [106.861542, -6.197299], [106.862063, -6.199299], [106.862976, -6.200299], [106.864528, -6.201299], [106.867621, -6.202299], [106.867899, -6.203299], [106.868912, -6.20457], [106.869912, -6.204286], [106.870912, -6.204901], [106.871912, -6.204035], [106.873001, -6.20421], [106.873912, -6.211318], [106.876358, -6.213299], [106.876886, -6.214299], [106.875218, -6.215299], [106.875912, -6.215776], [106.876095, -6.215482], [106.877448, -6.215762], [106.877912, -6.218409], [106.878915, -6.217295], [106.880828, -6.219299], [106.881912, -6.219832], [106.883326, -6.218713], [106.885057, -6.216444], [106.884754, -6.215142], [106.887912, -6.215141], [106.889912, -6.214012], [106.894912, -6.213914], [106.895912, -6.213014], [106.897408, -6.213299], [106.898189, -6.214021], [106.899975, -6.214236], [106.899076, -6.215299], [106.899912, -6.217979], [106.900669, -6.217056], [106.902279, -6.216299], [106.902944, -6.213331], [106.904436, -6.212823], [106.904912, -6.211602], [106.906912, -6.213353], [106.908605, -6.212299], [106.908611, -6.211299], [106.907568, -6.210299], [106.907912, -6.209498], [106.908912, -6.20892], [106.909409, -6.207796], [106.910912, -6.206576], [106.911665, -6.206546], [106.911912, -6.207172], [106.912912, -6.207506], [106.914501, -6.206888], [106.914912, -6.206129], [106.913682, -6.205299], [106.915912, -6.204341], [106.916049, -6.202436], [106.916912, -6.202256], [106.917912, -6.203062], [106.919066, -6.201299], [106.921225, -6.199299], [106.920805, -6.198406], [106.921305, -6.197299], [106.920912, -6.196554], [106.919912, -6.196089], [106.918912, -6.196452], [106.918547, -6.195299], [106.919494, -6.194299], [106.919571, -6.191299], [106.918696, -6.190299], [106.919744, -6.189299], [106.918912, -6.188695], [106.917578, -6.188633], [106.916912, -6.186034], [106.915912, -6.184981], [106.913912, -6.185078], [106.913118, -6.184299], [106.913039, -6.183299], [106.913509, -6.182897], [106.916912, -6.18275], [106.917208, -6.182299], [106.916766, -6.181299], [106.917086, -6.180299], [106.916912, -6.179673], [106.91689, -6.180277], [106.915867, -6.180254], [106.915718, -6.181105], [106.914241, -6.180969], [106.913983, -6.179228], [106.913055, -6.179156], [106.912912, -6.177548], [106.912284, -6.178671], [106.911604, -6.178991], [106.911084, -6.180471], [106.910223, -6.180299], [106.909912, -6.179616], [106.908912, -6.179905], [106.908334, -6.179299], [106.908311, -6.177698], [106.90865, -6.177299], [106.908207, -6.177004], [106.907918, -6.175299], [106.906557, -6.174299], [106.905248, -6.173962], [106.902403, -6.169299], [106.902229, -6.168299], [106.903186, -6.167299], [106.903329, -6.163716], [106.904014, -6.163401], [106.904277, -6.162299], [106.903912, -6.161327]]], "type": "Polygon"}, "type": "Feature"}], "type": "FeatureCollection"}