{"features": [{"properties": {"fill-opacity": 0.33, "fillColor": "#bf4040", "opacity": 0.33, "fill": "#bf4040", "fillOpacity": 0.33, "color": "#bf4040", "contour": 15.0, "metric": "time"}, "geometry": {"coordinates": [[[106.79842, -6.21951], [106.79742, -6.223108], [106.79642, -6.223128], [106.79542, -6.222565], [106.79442, -6.223356], [106.791376, -6.223735], [106.792101, -6.226735], [106.790296, -6.227611], [106.790184, -6.230499], [106.78985, -6.230735], [106.790616, -6.231931], [106.789707, -6.233021], [106.788132, -6.233447], [106.786181, -6.235495], [106.78542, -6.23803], [106.78442, -6.238284], [106.78342, -6.237754], [106.781362, -6.237735], [106.779565, -6.23559], [106.77842, -6.234962], [106.776375, -6.23669], [106.774015, -6.237735], [106.774307, -6.238735], [106.775943, -6.239212], [106.776388, -6.240767], [106.77842, -6.241922], [106.77942, -6.240842], [106.779769, -6.241083], [106.779536, -6.240735], [106.780601, -6.239735], [106.780766, -6.240735], [106.779118, -6.242433], [106.779415, -6.245735], [106.780284, -6.245871], [106.78112, -6.250735], [106.781114, -6.258041], [106.782184, -6.261971], [106.78278, -6.262375], [106.781972, -6.264735], [106.78342, -6.266114], [106.783868, -6.264735], [106.78442, -6.264358], [106.784882, -6.264735], [106.784759, -6.265735], [106.786695, -6.26646], [106.787051, -6.267104], [106.78942, -6.267214], [106.79042, -6.267845], [106.792562, -6.266735], [106.793126, -6.265735], [106.794062, -6.265377], [106.794738, -6.265417], [106.79542, -6.266033], [106.79642, -6.265871], [106.797031, -6.266735], [106.79742, -6.269755], [106.79842, -6.267516], [106.799735, -6.26842], [106.801175, -6.268489], [106.80242, -6.267734], [106.80342, -6.270374], [106.806683, -6.269998], [106.806473, -6.269735], [106.80742, -6.268059], [106.807616, -6.269931], [106.806939, -6.270254], [106.806036, -6.27135], [106.80589, -6.272205], [106.805168, -6.272735], [106.805983, -6.273172], [106.806404, -6.274751], [106.808062, -6.275093], [106.80842, -6.277826], [106.809526, -6.27684], [106.809947, -6.274262], [106.811031, -6.273346], [106.811688, -6.272002], [106.810949, -6.269735], [106.812192, -6.268735], [106.812418, -6.267733], [106.814085, -6.268735], [106.814118, -6.270037], [106.81542, -6.271722], [106.81642, -6.271308], [106.818671, -6.268985], [106.821444, -6.267735], [106.821991, -6.266735], [106.821524, -6.264735], [106.82242, -6.262216], [106.822957, -6.262735], [106.82342, -6.26437], [106.824829, -6.263143], [106.825593, -6.261735], [106.825185, -6.26097], [106.82542, -6.260279], [106.82742, -6.260255], [106.828489, -6.259804], [106.828042, -6.258735], [106.826731, -6.257735], [106.827866, -6.257289], [106.82842, -6.258117], [106.829307, -6.255735], [106.83142, -6.253909], [106.829717, -6.252735], [106.830696, -6.250735], [106.833103, -6.247735], [106.83242, -6.246193], [106.829161, -6.244735], [106.829665, -6.24398], [106.82942, -6.242968], [106.82842, -6.242286], [106.82742, -6.242323], [106.827107, -6.240735], [106.82742, -6.240433], [106.828589, -6.240566], [106.83142, -6.241403], [106.831908, -6.240223], [106.83242, -6.239953], [106.833198, -6.239957], [106.833375, -6.24078], [106.833901, -6.240735], [106.833505, -6.24065], [106.833453, -6.239702], [106.83142, -6.239297], [106.83042, -6.238345], [106.82942, -6.238216], [106.829269, -6.238735], [106.82842, -6.239059], [106.827138, -6.238735], [106.828335, -6.237735], [106.82905, -6.235365], [106.829557, -6.234872], [106.829496, -6.23381], [106.830491, -6.233664], [106.828276, -6.233591], [106.826755, -6.23507], [106.82542, -6.235291], [106.824625, -6.23453], [106.822941, -6.234214], [106.821692, -6.232735], [106.821608, -6.231735], [106.820666, -6.231489], [106.82042, -6.230679], [106.819097, -6.230411], [106.819266, -6.231735], [106.818139, -6.232016], [106.817635, -6.231735], [106.818082, -6.230397], [106.819162, -6.229735], [106.818583, -6.229572], [106.818493, -6.227662], [106.817762, -6.227393], [106.81742, -6.226586], [106.8166, -6.226555], [106.81642, -6.224885], [106.815834, -6.226149], [106.81442, -6.226293], [106.813578, -6.225735], [106.8138, -6.224114], [106.814544, -6.223858], [106.81442, -6.223406], [106.81342, -6.22326], [106.812664, -6.223979], [106.811237, -6.223918], [106.810851, -6.222304], [106.809749, -6.221735], [106.81042, -6.220926], [106.811438, -6.220752], [106.811105, -6.22005], [106.81042, -6.219754], [106.809911, -6.220225], [106.80842, -6.220162], [106.80742, -6.220548], [106.80642, -6.220134], [106.805708, -6.221022], [106.80342, -6.222045], [106.80242, -6.221167], [106.799712, -6.221443], [106.79942, -6.22017], [106.79842, -6.21951]]], "type": "Polygon"}, "type": "Feature"}], "type": "FeatureCollection"}