{"features": [{"properties": {"fill-opacity": 0.33, "fillColor": "#bf4040", "opacity": 0.33, "fill": "#bf4040", "fillOpacity": 0.33, "color": "#bf4040", "contour": 15.0, "metric": "time"}, "geometry": {"coordinates": [[[106.761319, -6.103287], [106.757518, -6.103394], [106.757319, -6.104298], [106.757095, -6.103419], [106.751319, -6.103329], [106.750915, -6.103791], [106.750996, -6.110872], [106.749305, -6.111181], [106.749055, -6.112931], [106.746366, -6.113148], [106.746138, -6.112195], [106.746226, -6.113288], [106.748319, -6.113665], [106.749195, -6.114319], [106.750746, -6.113622], [106.751747, -6.113767], [106.752319, -6.118779], [106.752795, -6.117671], [106.754582, -6.117195], [106.753704, -6.11858], [106.752529, -6.119195], [106.753079, -6.120195], [106.75243, -6.123306], [106.752144, -6.124021], [106.751569, -6.124195], [106.752094, -6.12442], [106.752319, -6.125234], [106.752515, -6.124391], [106.755179, -6.124195], [106.754319, -6.123957], [106.753862, -6.123195], [106.75512, -6.121996], [106.760673, -6.121549], [106.762117, -6.121195], [106.762319, -6.120756], [106.762368, -6.121146], [106.771319, -6.121015], [106.772319, -6.12159], [106.773319, -6.121255], [106.774127, -6.121387], [106.775319, -6.122599], [106.776319, -6.122784], [106.777553, -6.122195], [106.776749, -6.121765], [106.776533, -6.121195], [106.776866, -6.120195], [106.777319, -6.119832], [106.778369, -6.120245], [106.779613, -6.119195], [106.778643, -6.118195], [106.77896, -6.116836], [106.779979, -6.117195], [106.780319, -6.118586], [106.78055, -6.117426], [106.782094, -6.117195], [106.783319, -6.11624], [106.781918, -6.113195], [106.78324, -6.112195], [106.780835, -6.110679], [106.779698, -6.108195], [106.778171, -6.108344], [106.778047, -6.106195], [106.776643, -6.106195], [106.776914, -6.107195], [106.775956, -6.107558], [106.775702, -6.107195], [106.776145, -6.106195], [106.775319, -6.105142], [106.773319, -6.105734], [106.772677, -6.106553], [106.771319, -6.106937], [106.768319, -6.106125], [106.767783, -6.109195], [106.768588, -6.109926], [106.768655, -6.111195], [106.769519, -6.111995], [106.770559, -6.115195], [106.766319, -6.115296], [106.766236, -6.111195], [106.767147, -6.111023], [106.767147, -6.109367], [106.766231, -6.109195], [106.766136, -6.107378], [106.765226, -6.107195], [106.765112, -6.105402], [106.764253, -6.105261], [106.764125, -6.104389], [106.762319, -6.104284], [106.762135, -6.103379], [106.761319, -6.103287]]], "type": "Polygon"}, "type": "Feature"}], "type": "FeatureCollection"}