{"features": [{"properties": {"fill-opacity": 0.33, "fillColor": "#bf4040", "opacity": 0.33, "fill": "#bf4040", "fillOpacity": 0.33, "color": "#bf4040", "contour": 15.0, "metric": "time"}, "geometry": {"coordinates": [[[106.788553, -6.165422], [106.787526, -6.165719], [106.78729, -6.166483], [106.785971, -6.166746], [106.786359, -6.167746], [106.785384, -6.168577], [106.784512, -6.168746], [106.784999, -6.169746], [106.787048, -6.170252], [106.787247, -6.171746], [106.788131, -6.172746], [106.787553, -6.173353], [106.786553, -6.173342], [106.785984, -6.173746], [106.786908, -6.174746], [106.786272, -6.177746], [106.786669, -6.178746], [106.786289, -6.179746], [106.784206, -6.179746], [106.783961, -6.178339], [106.780553, -6.176188], [106.779553, -6.174107], [106.777553, -6.177302], [106.776553, -6.177895], [106.776265, -6.178746], [106.777065, -6.179746], [106.776586, -6.180746], [106.774273, -6.181746], [106.775553, -6.18244], [106.776734, -6.182566], [106.776147, -6.183746], [106.776803, -6.184746], [106.776553, -6.185733], [106.775995, -6.185305], [106.773553, -6.18522], [106.773118, -6.185746], [106.77382, -6.18648], [106.773553, -6.187153], [106.771695, -6.187888], [106.771, -6.189193], [106.769363, -6.189746], [106.769822, -6.191746], [106.770742, -6.192746], [106.769221, -6.196414], [106.769361, -6.200939], [106.769553, -6.201502], [106.770905, -6.201746], [106.769608, -6.203746], [106.77218, -6.205746], [106.772134, -6.206746], [106.772553, -6.207329], [106.773786, -6.207746], [106.774094, -6.208746], [106.776248, -6.210052], [106.776553, -6.211914], [106.777664, -6.212746], [106.777262, -6.213455], [106.777553, -6.21458], [106.778553, -6.214478], [106.779938, -6.215362], [106.781777, -6.217746], [106.784143, -6.218157], [106.785553, -6.21992], [106.786366, -6.218559], [106.786857, -6.218443], [106.790397, -6.220903], [106.791553, -6.220848], [106.791823, -6.219016], [106.792553, -6.218344], [106.79287, -6.217063], [106.794711, -6.215904], [106.79501, -6.215203], [106.796389, -6.214911], [106.796518, -6.215782], [106.797555, -6.215748], [106.79785, -6.215043], [106.798748, -6.21494], [106.799724, -6.213917], [106.800858, -6.213746], [106.799201, -6.212746], [106.800436, -6.210746], [106.799343, -6.209746], [106.799415, -6.207885], [106.801096, -6.207289], [106.80142, -6.206613], [106.8019, -6.2074], [106.802723, -6.207577], [106.806013, -6.210746], [106.805905, -6.212098], [106.805553, -6.212367], [106.803553, -6.212362], [106.802, -6.213746], [106.803276, -6.214024], [106.804553, -6.213236], [106.807553, -6.213058], [106.809012, -6.214288], [106.809409, -6.215891], [106.810197, -6.216103], [106.810477, -6.216823], [106.811435, -6.216865], [106.811587, -6.21778], [106.811621, -6.216678], [106.810947, -6.216353], [106.810736, -6.215564], [106.809881, -6.214746], [106.81001, -6.212746], [106.810553, -6.212123], [106.812182, -6.211746], [106.811553, -6.211075], [106.809762, -6.210746], [106.810212, -6.210405], [106.812553, -6.210533], [106.813009, -6.210202], [106.813594, -6.207746], [106.814726, -6.205918], [106.814749, -6.204746], [106.81223, -6.20407], [106.811864, -6.202057], [106.81249, -6.200746], [106.811553, -6.200222], [106.810789, -6.19851], [106.810136, -6.198164], [106.809315, -6.196746], [106.808786, -6.192746], [106.808969, -6.192162], [106.809727, -6.191746], [106.809625, -6.189817], [106.810178, -6.189371], [106.810253, -6.188746], [106.809553, -6.186729], [106.806621, -6.186746], [106.806025, -6.188218], [106.805553, -6.188455], [106.803314, -6.188507], [106.801553, -6.189169], [106.799553, -6.18885], [106.801553, -6.186363], [106.806356, -6.185944], [106.806553, -6.186636], [106.806715, -6.185908], [106.805799, -6.185501], [106.805586, -6.183746], [106.804679, -6.183621], [106.803553, -6.180866], [106.800358, -6.181551], [106.799553, -6.182519], [106.798206, -6.180746], [106.798342, -6.179535], [106.800291, -6.177484], [106.801226, -6.177419], [106.801654, -6.176746], [106.803553, -6.176247], [106.805415, -6.177885], [106.806553, -6.178094], [106.807152, -6.177746], [106.807445, -6.176746], [106.806242, -6.175058], [106.806232, -6.173425], [106.807553, -6.17239], [106.809553, -6.172161], [106.809879, -6.171072], [106.81081, -6.170746], [106.809078, -6.170222], [106.808553, -6.169107], [106.805553, -6.172336], [106.803079, -6.170221], [106.802578, -6.168721], [106.800381, -6.168919], [106.800553, -6.166716], [106.799553, -6.166584], [106.799071, -6.166746], [106.798863, -6.169056], [106.797553, -6.168752], [106.795887, -6.169412], [106.794553, -6.169026], [106.793979, -6.170172], [106.792131, -6.171746], [106.791553, -6.173532], [106.791464, -6.172836], [106.790441, -6.172859], [106.789168, -6.171746], [106.788586, -6.169746], [106.789551, -6.167746], [106.788553, -6.165422]]], "type": "Polygon"}, "type": "Feature"}], "type": "FeatureCollection"}