{"features": [{"properties": {"fill-opacity": 0.33, "fillColor": "#bf4040", "opacity": 0.33, "fill": "#bf4040", "fillOpacity": 0.33, "color": "#bf4040", "contour": 15.0, "metric": "time"}, "geometry": {"coordinates": [[[106.876484, -6.176222], [106.874484, -6.178141], [106.869805, -6.17993], [106.868726, -6.180851], [106.867726, -6.180366], [106.866757, -6.180609], [106.866602, -6.181609], [106.867534, -6.182609], [106.867035, -6.18316], [106.866484, -6.185471], [106.865386, -6.185609], [106.865912, -6.18618], [106.865484, -6.187119], [106.864484, -6.18729], [106.862484, -6.186154], [106.859484, -6.18565], [106.857528, -6.184564], [106.856484, -6.183111], [106.855484, -6.183546], [106.854484, -6.184844], [106.852164, -6.185289], [106.851484, -6.185804], [106.850484, -6.185523], [106.849484, -6.185994], [106.848894, -6.186609], [106.84899, -6.187102], [106.850488, -6.188604], [106.84968, -6.189805], [106.848506, -6.189609], [106.848663, -6.18843], [106.848241, -6.186852], [106.847484, -6.186476], [106.84678, -6.185312], [106.845484, -6.185249], [106.844014, -6.184079], [106.843612, -6.18248], [106.842866, -6.182226], [106.842484, -6.180789], [106.841708, -6.181833], [106.841352, -6.182609], [106.8416, -6.183609], [106.840847, -6.184609], [106.84098, -6.185609], [106.840417, -6.186675], [106.840589, -6.187503], [106.841562, -6.187609], [106.840567, -6.187692], [106.840331, -6.188455], [106.840264, -6.189609], [106.840915, -6.191609], [106.839324, -6.193769], [106.839484, -6.194342], [106.841484, -6.193663], [106.842484, -6.194119], [106.842916, -6.196041], [106.842128, -6.197253], [106.840144, -6.196948], [106.839484, -6.19609], [106.838484, -6.195707], [106.838147, -6.196272], [106.837209, -6.196609], [106.837667, -6.198425], [106.838012, -6.198609], [106.835376, -6.200609], [106.835282, -6.201609], [106.836484, -6.201838], [106.837276, -6.202816], [106.839149, -6.203943], [106.840456, -6.205637], [106.840309, -6.206783], [106.841484, -6.20791], [106.844388, -6.207704], [106.844484, -6.208102], [106.844831, -6.207609], [106.844534, -6.206609], [106.845484, -6.206465], [106.846596, -6.206496], [106.847642, -6.20745], [106.846635, -6.208609], [106.84667, -6.209794], [106.844809, -6.211609], [106.844657, -6.212782], [106.842963, -6.214087], [106.842882, -6.215609], [106.844484, -6.216773], [106.845069, -6.215194], [106.846484, -6.21419], [106.847484, -6.215284], [106.848859, -6.215234], [106.848833, -6.215958], [106.847654, -6.217609], [106.848574, -6.221518], [106.852484, -6.224086], [106.853484, -6.224047], [106.854484, -6.2233], [106.855484, -6.224727], [106.857484, -6.223143], [106.858484, -6.223031], [106.859484, -6.223438], [106.860823, -6.221609], [106.860926, -6.219609], [106.861872, -6.217997], [106.863484, -6.217094], [106.863959, -6.217609], [106.863967, -6.219609], [106.865056, -6.220609], [106.865085, -6.222609], [106.866238, -6.223854], [106.86635, -6.224609], [106.867305, -6.224788], [106.867484, -6.226459], [106.868171, -6.225296], [106.869734, -6.224609], [106.869365, -6.223489], [106.870484, -6.223549], [106.872188, -6.222609], [106.871147, -6.221609], [106.870785, -6.220307], [106.869484, -6.219485], [106.869216, -6.218876], [106.868378, -6.218609], [106.870947, -6.218072], [106.871484, -6.216475], [106.872201, -6.216609], [106.873832, -6.21826], [106.87432, -6.223772], [106.874484, -6.224294], [106.875484, -6.224096], [106.876105, -6.223609], [106.876112, -6.222237], [106.877898, -6.221023], [106.878235, -6.22036], [106.878264, -6.219609], [106.876484, -6.218162], [106.876535, -6.216609], [106.876031, -6.215609], [106.878484, -6.215372], [106.879597, -6.214609], [106.887484, -6.213941], [106.888676, -6.212801], [106.888922, -6.212047], [106.889829, -6.211609], [106.88731, -6.210609], [106.885981, -6.209609], [106.885114, -6.208609], [106.885651, -6.207609], [106.885232, -6.206357], [106.885484, -6.205828], [106.886666, -6.205609], [106.886994, -6.205119], [106.887186, -6.204609], [106.886653, -6.204439], [106.886649, -6.203609], [106.887028, -6.202153], [106.890162, -6.201609], [106.889, -6.201093], [106.888771, -6.200609], [106.889001, -6.199126], [106.889852, -6.199241], [106.890484, -6.199839], [106.891484, -6.198978], [106.892484, -6.19951], [106.893103, -6.199228], [106.893777, -6.196609], [106.892239, -6.195853], [106.891484, -6.192898], [106.890484, -6.193091], [106.889614, -6.192609], [106.888271, -6.190609], [106.888496, -6.189597], [106.886428, -6.188664], [106.885484, -6.186785], [106.884484, -6.186373], [106.883484, -6.18849], [106.882957, -6.187136], [106.881046, -6.187047], [106.880964, -6.186089], [106.881861, -6.185609], [106.881634, -6.183609], [106.880677, -6.183415], [106.880811, -6.181609], [106.879484, -6.179671], [106.878767, -6.179325], [106.878484, -6.178494], [106.877182, -6.17791], [106.876484, -6.176222]]], "type": "Polygon"}, "type": "Feature"}], "type": "FeatureCollection"}