{"features": [{"properties": {"fill-opacity": 0.33, "fillColor": "#bf4040", "opacity": 0.33, "fill": "#bf4040", "fillOpacity": 0.33, "color": "#bf4040", "contour": 15.0, "metric": "time"}, "geometry": {"coordinates": [[[106.834172, -6.163777], [106.833043, -6.165653], [106.831699, -6.16631], [106.831172, -6.167008], [106.829701, -6.167253], [106.826172, -6.166718], [106.825566, -6.167782], [106.826479, -6.168782], [106.826172, -6.169271], [106.825172, -6.169166], [106.824172, -6.168159], [106.822172, -6.169514], [106.821172, -6.167077], [106.820172, -6.167655], [106.819765, -6.169375], [106.820434, -6.174045], [106.818172, -6.176017], [106.816249, -6.176782], [106.81627, -6.177782], [106.81557, -6.17918], [106.813136, -6.179746], [106.812705, -6.181782], [106.81111, -6.183721], [106.810843, -6.184782], [106.811172, -6.186066], [106.812172, -6.187086], [106.813172, -6.187174], [106.813516, -6.188782], [106.814613, -6.189782], [106.814466, -6.191782], [106.813506, -6.192782], [106.813172, -6.196864], [106.812316, -6.197782], [106.81332, -6.199634], [106.814304, -6.199782], [106.814172, -6.200369], [106.813492, -6.200782], [106.814901, -6.201053], [106.815086, -6.201868], [106.815913, -6.202041], [106.815978, -6.204976], [106.816715, -6.205239], [106.816974, -6.205782], [106.816694, -6.207782], [106.817102, -6.208852], [106.818009, -6.208945], [106.818172, -6.210441], [106.819532, -6.208782], [106.819172, -6.207782], [106.820409, -6.20702], [106.820422, -6.205782], [106.821027, -6.204638], [106.821493, -6.20546], [106.821305, -6.208782], [106.820346, -6.208957], [106.820527, -6.211138], [106.818768, -6.212378], [106.818569, -6.21418], [106.817338, -6.214782], [106.817484, -6.21547], [106.819172, -6.216011], [106.820029, -6.214782], [106.821172, -6.214141], [106.823172, -6.215546], [106.826172, -6.215237], [106.827239, -6.214782], [106.828541, -6.212782], [106.828489, -6.211782], [106.829172, -6.211728], [106.829341, -6.214782], [106.830532, -6.215782], [106.830768, -6.219782], [106.831692, -6.220782], [106.832172, -6.223394], [106.833025, -6.223929], [106.833172, -6.22516], [106.834254, -6.223782], [106.834007, -6.222618], [106.834831, -6.221782], [106.833824, -6.22113], [106.834172, -6.220286], [106.836172, -6.22117], [106.836401, -6.221782], [106.838429, -6.22304], [106.84244, -6.221782], [106.841622, -6.220782], [106.843172, -6.219355], [106.844172, -6.219503], [106.845172, -6.218663], [106.845235, -6.217719], [106.843851, -6.217103], [106.843943, -6.214554], [106.847172, -6.211787], [106.849172, -6.211965], [106.849828, -6.210438], [106.850549, -6.210405], [106.851172, -6.21093], [106.851673, -6.210284], [106.853158, -6.209782], [106.85284, -6.20745], [106.853134, -6.205782], [106.851344, -6.204782], [106.853846, -6.203782], [106.854033, -6.202643], [106.856172, -6.202059], [106.856708, -6.202246], [106.857083, -6.203871], [106.857942, -6.204012], [106.858172, -6.205299], [106.859773, -6.201782], [106.859172, -6.201103], [106.857941, -6.201013], [106.857172, -6.199417], [106.856096, -6.198858], [106.856687, -6.197298], [106.858199, -6.19681], [106.858007, -6.195946], [106.856166, -6.195788], [106.855599, -6.195355], [106.855172, -6.193459], [106.850883, -6.191071], [106.852172, -6.188071], [106.852816, -6.188138], [106.853172, -6.18959], [106.853565, -6.189175], [106.853407, -6.187018], [106.854602, -6.185212], [106.854916, -6.183782], [106.854172, -6.182939], [106.853013, -6.182941], [106.852172, -6.181441], [106.851172, -6.181164], [106.850172, -6.182248], [106.848172, -6.181518], [106.846728, -6.180226], [106.846549, -6.177782], [106.845591, -6.176782], [106.845616, -6.175782], [106.846172, -6.175176], [106.848172, -6.175323], [106.852135, -6.174782], [106.851578, -6.173782], [106.849928, -6.173026], [106.849934, -6.171782], [106.849396, -6.171558], [106.848172, -6.171977], [106.846912, -6.171523], [106.846172, -6.172102], [106.845867, -6.173477], [106.845172, -6.173729], [106.843758, -6.173196], [106.843352, -6.168782], [106.842172, -6.168224], [106.84149, -6.170782], [106.842247, -6.171857], [106.841067, -6.171887], [106.840964, -6.17099], [106.840172, -6.169941], [106.83934, -6.171951], [106.838045, -6.171909], [106.838512, -6.170442], [106.837649, -6.169305], [106.836881, -6.169073], [106.835727, -6.167227], [106.836863, -6.164782], [106.834465, -6.164489], [106.834172, -6.163777]]], "type": "Polygon"}, "type": "Feature"}], "type": "FeatureCollection"}