{"features": [{"properties": {"fill-opacity": 0.33, "fillColor": "#bf4040", "opacity": 0.33, "fill": "#bf4040", "fillOpacity": 0.33, "color": "#bf4040", "contour": 15.0, "metric": "time"}, "geometry": {"coordinates": [[[106.939656, -6.096909], [106.936343, -6.096925], [106.935656, -6.098381], [106.934656, -6.098885], [106.932381, -6.104925], [106.932814, -6.106083], [106.931656, -6.106381], [106.931347, -6.107235], [106.931663, -6.107918], [106.933067, -6.108515], [106.933868, -6.109925], [106.935656, -6.110546], [106.936295, -6.109564], [106.936996, -6.109586], [106.937406, -6.109925], [106.937546, -6.111036], [106.938656, -6.111266], [106.939468, -6.112113], [106.940014, -6.115925], [106.93986, -6.146925], [106.941226, -6.147925], [106.940967, -6.149236], [106.939752, -6.149925], [106.939526, -6.152795], [106.938656, -6.153546], [106.938457, -6.154726], [106.937656, -6.155164], [106.93728, -6.156549], [106.936635, -6.156904], [106.936465, -6.158117], [106.936617, -6.158964], [106.939656, -6.158562], [106.941162, -6.159419], [106.941656, -6.164461], [106.942958, -6.162925], [106.942525, -6.159794], [106.943656, -6.159334], [106.94472, -6.159989], [106.945241, -6.15851], [106.946656, -6.158348], [106.947057, -6.157925], [106.945656, -6.157742], [106.945017, -6.156925], [106.945656, -6.156105], [106.946848, -6.155925], [106.946988, -6.152925], [106.947656, -6.152543], [106.948546, -6.153036], [106.950547, -6.152925], [106.951751, -6.151925], [106.94997, -6.150925], [106.950087, -6.149925], [106.949656, -6.148753], [106.94845, -6.149719], [106.948184, -6.150925], [106.947656, -6.151307], [106.947102, -6.14948], [106.945493, -6.149088], [106.945476, -6.147925], [106.946297, -6.147566], [106.946468, -6.145925], [106.946281, -6.145301], [106.944554, -6.145028], [106.944526, -6.144055], [106.945393, -6.143662], [106.945521, -6.141925], [106.949507, -6.141925], [106.951708, -6.143925], [106.952656, -6.144284], [106.953656, -6.143647], [106.954709, -6.144925], [106.956656, -6.146217], [106.959227, -6.143925], [106.959128, -6.141925], [106.960051, -6.140925], [106.958371, -6.14021], [106.958025, -6.138556], [106.956454, -6.138127], [106.957415, -6.136925], [106.956461, -6.135925], [106.958333, -6.133925], [106.957467, -6.132736], [106.958656, -6.132562], [106.959656, -6.133481], [106.960212, -6.132925], [106.960235, -6.131925], [106.959656, -6.131346], [106.957656, -6.131236], [106.957355, -6.130925], [106.957656, -6.130514], [106.958998, -6.130267], [106.959169, -6.129925], [106.958357, -6.129224], [106.95831, -6.128579], [106.959875, -6.127925], [106.958174, -6.125407], [106.956656, -6.124098], [106.953514, -6.126783], [106.954656, -6.127272], [106.955117, -6.127925], [106.955001, -6.128925], [106.953832, -6.130101], [106.953343, -6.129238], [106.951969, -6.129238], [106.951751, -6.13002], [106.950925, -6.130194], [106.950742, -6.131011], [106.949901, -6.13117], [106.949736, -6.132005], [106.947883, -6.132152], [106.947729, -6.132998], [106.9466, -6.132981], [106.947505, -6.132774], [106.947607, -6.130876], [106.949506, -6.130775], [106.949605, -6.129874], [106.9505, -6.129769], [106.950603, -6.128872], [106.952484, -6.128753], [106.952537, -6.126044], [106.945656, -6.12599], [106.945486, -6.125095], [106.943576, -6.124925], [106.944479, -6.124748], [106.944479, -6.123103], [106.941602, -6.122979], [106.941599, -6.121868], [106.942478, -6.121747], [106.942567, -6.120925], [106.942276, -6.120306], [106.941424, -6.119925], [106.941656, -6.111848], [106.942656, -6.112762], [106.943662, -6.11192], [106.944656, -6.115137], [106.947656, -6.112932], [106.948133, -6.114925], [106.947266, -6.115925], [106.947656, -6.117118], [106.949656, -6.117376], [106.950251, -6.11652], [106.951656, -6.11638], [106.95288, -6.117149], [106.953593, -6.116925], [106.953052, -6.11653], [106.953506, -6.114925], [106.952857, -6.111724], [106.950656, -6.111428], [106.949656, -6.112333], [106.949499, -6.110768], [106.954656, -6.110481], [106.955105, -6.109374], [106.957762, -6.108925], [106.953549, -6.108032], [106.9526, -6.104925], [106.951174, -6.104407], [106.950656, -6.103256], [106.946293, -6.102288], [106.945325, -6.100925], [106.945537, -6.100045], [106.944746, -6.098925], [106.943656, -6.099331], [106.942656, -6.098309], [106.941656, -6.098963], [106.940939, -6.097643], [106.939656, -6.096909]]], "type": "Polygon"}, "type": "Feature"}], "type": "FeatureCollection"}