{"features": [{"properties": {"fill-opacity": 0.33, "fillColor": "#bf4040", "opacity": 0.33, "fill": "#bf4040", "fillOpacity": 0.33, "color": "#bf4040", "contour": 15.0, "metric": "time"}, "geometry": {"coordinates": [[[106.873336, -6.205069], [106.872336, -6.206507], [106.869319, -6.2085], [106.870198, -6.210638], [106.872458, -6.212378], [106.872336, -6.213715], [106.871603, -6.2145], [106.866336, -6.214975], [106.865336, -6.214528], [106.864336, -6.214986], [106.863085, -6.214751], [106.861336, -6.21317], [106.860349, -6.215513], [106.86044, -6.2165], [106.860322, -6.215514], [106.858336, -6.215896], [106.857336, -6.216956], [106.85677, -6.2165], [106.856626, -6.2155], [106.856676, -6.214841], [106.857383, -6.2145], [106.857336, -6.213925], [106.855336, -6.214537], [106.854618, -6.214218], [106.854336, -6.213516], [106.853589, -6.213753], [106.852796, -6.21496], [106.852406, -6.2165], [106.853069, -6.2175], [106.852962, -6.218126], [106.852413, -6.2185], [106.852619, -6.219217], [106.853336, -6.219511], [106.854658, -6.219178], [106.855336, -6.219478], [106.855581, -6.220255], [106.856436, -6.2204], [106.856551, -6.2215], [106.857629, -6.2225], [106.857566, -6.22473], [106.855336, -6.224703], [106.854803, -6.224033], [106.852322, -6.223514], [106.852128, -6.222709], [106.847336, -6.220944], [106.846458, -6.2215], [106.846992, -6.221844], [106.846747, -6.222911], [106.845336, -6.223264], [106.845015, -6.224179], [106.842993, -6.2245], [106.844336, -6.2254], [106.846506, -6.22433], [106.847336, -6.227943], [106.847881, -6.2285], [106.847351, -6.2295], [106.849336, -6.232088], [106.849949, -6.231113], [106.850797, -6.2315], [106.849614, -6.2325], [106.850336, -6.234462], [106.851723, -6.233887], [106.852737, -6.234099], [106.853336, -6.235211], [106.853732, -6.235104], [106.854586, -6.23625], [106.855348, -6.236488], [106.856541, -6.238295], [106.857336, -6.238348], [106.858336, -6.239995], [106.859336, -6.23929], [106.860336, -6.240093], [106.862336, -6.240113], [106.862916, -6.23908], [106.863584, -6.238749], [106.863667, -6.2375], [106.864336, -6.236991], [106.864698, -6.237138], [106.865811, -6.2385], [106.866051, -6.2405], [106.867336, -6.240557], [106.86806, -6.2415], [106.867417, -6.243581], [106.865142, -6.2435], [106.8656, -6.2445], [106.866876, -6.2455], [106.866871, -6.247035], [106.866344, -6.2475], [106.867336, -6.247968], [106.868196, -6.24736], [106.869336, -6.247201], [106.870336, -6.248148], [106.872336, -6.247912], [106.873336, -6.248037], [106.873776, -6.2485], [106.873336, -6.249476], [106.871336, -6.251454], [106.869336, -6.252019], [106.868415, -6.2535], [106.868989, -6.2545], [106.870969, -6.254867], [106.871141, -6.2555], [106.871024, -6.256188], [106.870174, -6.2565], [106.870188, -6.258352], [106.868956, -6.2585], [106.869336, -6.259438], [106.872336, -6.258562], [106.873336, -6.260082], [106.87482, -6.2585], [106.874214, -6.2575], [106.875106, -6.25627], [106.876336, -6.256621], [106.877028, -6.2555], [106.877185, -6.2535], [106.876092, -6.252744], [106.876336, -6.251943], [106.877792, -6.252044], [106.878131, -6.2525], [106.877762, -6.2535], [106.87863, -6.2545], [106.878451, -6.2555], [106.880336, -6.255885], [106.881336, -6.25487], [106.881653, -6.2555], [106.883256, -6.25558], [106.883491, -6.2565], [106.883836, -6.2555], [106.882524, -6.254313], [106.882415, -6.253422], [106.881653, -6.253183], [106.881207, -6.247371], [106.882336, -6.246813], [106.885336, -6.247237], [106.887081, -6.245245], [106.888336, -6.245119], [106.889336, -6.24415], [106.891336, -6.244182], [106.89214, -6.243304], [106.893336, -6.242819], [106.895655, -6.243181], [106.896166, -6.2435], [106.896336, -6.244505], [106.898243, -6.244407], [106.899719, -6.244883], [106.902238, -6.2445], [106.900942, -6.243894], [106.900767, -6.243069], [106.899962, -6.2425], [106.900336, -6.242116], [106.901087, -6.2425], [106.901026, -6.24281], [106.902475, -6.2425], [106.902856, -6.2415], [106.902793, -6.2395], [106.904464, -6.2385], [106.903265, -6.236429], [106.905336, -6.235141], [106.906018, -6.234182], [106.908336, -6.234074], [106.908507, -6.233671], [106.909256, -6.2335], [106.9084, -6.2325], [106.909336, -6.232258], [106.909683, -6.233153], [106.910336, -6.233321], [106.910787, -6.230951], [106.913054, -6.2305], [106.910524, -6.2285], [106.910581, -6.2265], [106.909591, -6.225245], [106.906336, -6.224638], [106.906885, -6.224049], [106.906922, -6.2225], [106.904754, -6.221082], [106.900062, -6.2135], [106.890269, -6.212568], [106.892336, -6.211826], [106.892613, -6.209777], [106.893309, -6.2095], [106.888336, -6.207694], [106.884782, -6.2115], [106.885251, -6.2135], [106.877336, -6.214153], [106.875336, -6.213534], [106.874896, -6.21194], [106.874172, -6.211664], [106.87361, -6.2105], [106.873336, -6.205069]]], "type": "Polygon"}, "type": "Feature"}], "type": "FeatureCollection"}