{"features": [{"properties": {"fill-opacity": 0.33, "fillColor": "#bf4040", "opacity": 0.33, "fill": "#bf4040", "fillOpacity": 0.33, "color": "#bf4040", "contour": 15.0, "metric": "time"}, "geometry": {"coordinates": [[[106.85054, -6.153861], [106.84954, -6.155596], [106.846722, -6.156305], [106.846512, -6.157123], [106.847135, -6.157527], [106.84716, -6.159123], [106.845953, -6.160123], [106.846006, -6.160589], [106.844832, -6.161415], [106.84354, -6.161101], [106.843425, -6.162009], [106.842698, -6.162281], [106.84154, -6.162362], [106.8403, -6.161363], [106.839851, -6.158812], [106.83854, -6.158197], [106.837984, -6.159123], [106.837426, -6.16201], [106.83837, -6.162293], [106.838182, -6.163766], [106.837377, -6.164123], [106.837365, -6.164948], [106.835994, -6.165123], [106.83654, -6.165706], [106.83754, -6.165377], [106.837885, -6.166123], [106.83754, -6.166526], [106.83654, -6.16626], [106.836067, -6.166651], [106.835841, -6.167425], [106.834662, -6.168123], [106.83442, -6.169123], [106.83554, -6.169252], [106.835966, -6.170123], [106.83354, -6.172568], [106.83254, -6.171882], [106.831389, -6.172123], [106.830253, -6.173837], [106.830348, -6.176123], [106.831282, -6.177123], [106.83154, -6.178724], [106.83254, -6.177796], [106.833168, -6.178495], [106.83554, -6.17858], [106.836309, -6.180123], [106.835992, -6.181576], [106.83454, -6.182741], [106.832998, -6.181665], [106.83254, -6.180503], [106.832234, -6.180817], [106.83254, -6.182342], [106.835225, -6.185438], [106.835424, -6.186123], [106.83454, -6.186732], [106.83354, -6.186649], [106.83254, -6.187084], [106.832295, -6.188879], [106.830917, -6.189123], [106.830727, -6.189935], [106.83307, -6.190593], [106.83354, -6.191512], [106.83454, -6.190662], [106.834701, -6.192284], [106.83354, -6.193191], [106.83254, -6.192747], [106.832275, -6.194123], [106.83154, -6.194933], [106.830695, -6.194968], [106.83054, -6.194628], [106.82943, -6.195123], [106.830234, -6.195428], [106.830246, -6.196417], [106.831326, -6.198123], [106.833029, -6.198634], [106.83354, -6.200072], [106.83454, -6.19973], [106.83554, -6.200868], [106.83849, -6.202172], [106.840726, -6.204123], [106.84154, -6.20581], [106.84354, -6.205534], [106.84454, -6.203597], [106.845094, -6.205569], [106.847163, -6.2065], [106.848197, -6.208123], [106.847364, -6.208948], [106.847184, -6.209767], [106.846496, -6.210079], [106.84654, -6.211458], [106.849515, -6.211148], [106.849879, -6.210463], [106.852215, -6.210123], [106.852054, -6.207123], [106.854856, -6.20644], [106.855789, -6.205372], [106.855952, -6.203123], [106.856821, -6.202841], [106.85716, -6.205502], [106.85781, -6.205852], [106.858125, -6.207537], [106.858879, -6.208123], [106.858891, -6.210772], [106.859045, -6.211123], [106.86041, -6.211253], [106.860701, -6.212123], [106.861509, -6.211123], [106.862102, -6.208686], [106.862857, -6.208123], [106.861596, -6.207067], [106.86165, -6.206123], [106.862378, -6.203961], [106.863934, -6.201517], [106.867773, -6.201357], [106.867948, -6.200123], [106.86854, -6.19957], [106.869223, -6.200123], [106.86954, -6.201339], [106.871145, -6.199729], [106.87354, -6.198506], [106.874962, -6.197123], [106.874756, -6.194123], [106.87654, -6.192516], [106.877981, -6.192682], [106.87854, -6.193383], [106.882851, -6.193123], [106.88206, -6.192123], [106.884004, -6.190123], [106.88225, -6.189412], [106.88254, -6.186609], [106.88234, -6.186924], [106.880941, -6.186722], [106.88054, -6.18544], [106.879731, -6.184932], [106.878571, -6.182092], [106.87754, -6.181815], [106.876963, -6.181123], [106.87754, -6.180513], [106.87854, -6.180539], [106.878809, -6.178123], [106.87954, -6.177519], [106.881007, -6.177655], [106.88254, -6.17869], [106.884145, -6.178123], [106.88154, -6.175578], [106.879458, -6.176205], [106.879225, -6.174809], [106.879875, -6.174123], [106.87964, -6.172223], [106.880031, -6.171123], [106.87854, -6.170719], [106.877964, -6.169698], [106.877988, -6.168571], [106.878867, -6.168123], [106.87854, -6.166399], [106.87754, -6.166625], [106.87654, -6.168632], [106.87454, -6.168528], [106.87354, -6.166798], [106.871353, -6.167123], [106.87118, -6.166482], [106.87051, -6.166123], [106.86995, -6.163123], [106.868056, -6.162607], [106.866275, -6.161388], [106.86554, -6.160108], [106.863246, -6.160417], [106.86054, -6.158894], [106.858866, -6.158797], [106.857759, -6.157904], [106.85554, -6.158131], [106.85454, -6.158807], [106.85354, -6.158836], [106.85354, -6.160123], [106.85254, -6.160274], [106.851854, -6.156123], [106.850884, -6.155779], [106.85054, -6.153861]]], "type": "Polygon"}, "type": "Feature"}], "type": "FeatureCollection"}