{"features": [{"properties": {"fill-opacity": 0.33, "fillColor": "#bf4040", "opacity": 0.33, "fill": "#bf4040", "fillOpacity": 0.33, "color": "#bf4040", "contour": 15.0, "metric": "time"}, "geometry": {"coordinates": [[[106.858223, -6.298041], [106.856223, -6.2982], [106.855689, -6.300704], [106.854223, -6.301946], [106.853091, -6.302106], [106.852887, -6.302902], [106.851983, -6.303239], [106.85418, -6.304282], [106.856223, -6.303937], [106.857388, -6.305073], [106.857665, -6.308238], [106.856846, -6.308861], [106.856698, -6.310239], [106.857728, -6.311239], [106.856858, -6.311873], [106.856302, -6.313317], [106.855223, -6.313689], [106.854752, -6.313239], [106.854602, -6.31186], [106.852777, -6.311792], [106.851794, -6.31381], [106.851534, -6.31555], [106.849559, -6.317574], [106.848762, -6.317777], [106.848223, -6.318746], [106.847701, -6.318239], [106.84868, -6.317696], [106.84868, -6.316238], [106.848223, -6.315381], [106.847315, -6.31633], [106.845355, -6.317238], [106.845223, -6.318353], [106.844998, -6.317238], [106.844223, -6.316932], [106.843223, -6.3179], [106.841223, -6.317886], [106.839223, -6.318411], [106.838396, -6.319239], [106.838567, -6.321895], [106.840322, -6.322139], [106.840511, -6.32395], [106.841312, -6.32415], [106.841479, -6.324983], [106.842305, -6.325157], [106.842463, -6.325998], [106.843363, -6.326239], [106.8425, -6.326515], [106.842316, -6.327332], [106.841514, -6.327529], [106.841323, -6.328338], [106.840532, -6.328547], [106.840378, -6.329239], [106.840532, -6.32993], [106.841323, -6.330139], [106.841517, -6.330945], [106.842314, -6.331147], [106.842312, -6.332327], [106.841101, -6.33236], [106.840833, -6.331629], [106.840223, -6.331434], [106.839614, -6.331629], [106.839419, -6.332239], [106.839418, -6.339239], [106.838463, -6.340239], [106.839223, -6.340999], [106.8404, -6.341062], [106.840622, -6.342239], [106.839661, -6.343239], [106.839941, -6.345956], [106.839283, -6.346239], [106.839101, -6.347116], [106.838444, -6.347239], [106.839066, -6.348239], [106.841223, -6.349676], [106.843345, -6.349117], [106.843232, -6.35123], [106.844223, -6.352655], [106.846014, -6.350239], [106.845376, -6.349239], [106.847223, -6.349009], [106.848004, -6.34802], [106.849567, -6.347582], [106.850102, -6.346117], [106.851545, -6.345917], [106.851579, -6.346594], [106.850748, -6.347239], [106.850737, -6.350239], [106.849812, -6.351239], [106.849884, -6.354578], [106.850223, -6.355442], [106.852525, -6.35354], [106.853303, -6.352318], [106.855704, -6.351719], [106.856953, -6.350239], [106.857223, -6.348043], [106.858825, -6.349636], [106.860415, -6.350047], [106.860539, -6.351555], [106.859977, -6.352239], [106.860223, -6.352726], [106.863223, -6.353635], [106.863766, -6.353239], [106.864648, -6.351239], [106.863179, -6.350283], [106.863903, -6.349918], [106.864223, -6.349004], [106.865327, -6.349239], [106.865866, -6.350596], [106.866985, -6.351239], [106.86727, -6.352192], [106.867962, -6.3525], [106.868223, -6.353144], [106.868772, -6.351787], [106.870276, -6.350292], [106.870223, -6.346041], [106.871282, -6.346179], [106.871327, -6.347135], [106.872036, -6.347426], [106.872211, -6.348239], [106.873223, -6.34936], [106.876223, -6.348132], [106.876822, -6.346239], [106.876645, -6.344817], [106.876223, -6.344777], [106.876144, -6.344159], [106.876865, -6.344239], [106.876835, -6.344627], [106.878162, -6.345299], [106.878476, -6.344491], [106.880164, -6.344239], [106.880537, -6.341552], [106.882223, -6.33989], [106.883609, -6.339239], [106.882396, -6.338239], [106.882348, -6.337239], [106.882987, -6.336239], [106.88331, -6.334239], [106.883301, -6.333239], [106.882667, -6.332239], [106.882764, -6.331239], [106.883223, -6.330562], [106.884223, -6.33061], [106.886027, -6.329239], [106.88353, -6.324932], [106.883223, -6.3246], [106.882223, -6.325138], [106.880729, -6.324732], [106.880251, -6.322239], [106.879498, -6.321964], [106.879345, -6.321239], [106.880742, -6.319239], [106.881298, -6.317313], [106.880475, -6.315239], [106.881144, -6.313239], [106.880003, -6.311239], [106.881223, -6.310611], [106.881253, -6.310208], [106.880368, -6.310093], [106.880308, -6.309238], [106.880352, -6.308367], [106.881238, -6.308254], [106.881223, -6.307692], [106.879223, -6.306963], [106.876223, -6.306613], [106.874305, -6.30732], [106.873349, -6.307239], [106.872595, -6.306867], [106.871223, -6.304986], [106.870223, -6.305212], [106.869622, -6.304839], [106.867223, -6.304718], [106.866977, -6.303992], [106.868568, -6.302583], [106.869928, -6.300239], [106.869418, -6.299239], [106.867223, -6.299523], [106.866223, -6.298817], [106.865223, -6.299056], [106.864223, -6.29954], [106.863579, -6.301594], [106.862309, -6.302324], [106.862168, -6.301238], [106.858223, -6.298041]]], "type": "Polygon"}, "type": "Feature"}], "type": "FeatureCollection"}