{"features": [{"properties": {"fill-opacity": 0.33, "fillColor": "#bf4040", "opacity": 0.33, "fill": "#bf4040", "fillOpacity": 0.33, "color": "#bf4040", "contour": 15.0, "metric": "time"}, "geometry": {"coordinates": [[[106.87682, -6.105881], [106.875672, -6.106137], [106.87482, -6.105452], [106.87382, -6.105931], [106.873173, -6.10999], [106.87182, -6.111553], [106.87082, -6.110596], [106.867584, -6.111755], [106.86682, -6.11242], [106.865542, -6.112713], [106.86482, -6.114074], [106.86382, -6.114016], [106.86282, -6.11539], [106.862219, -6.114591], [106.86082, -6.114689], [106.860575, -6.11499], [106.861446, -6.11599], [106.860997, -6.119167], [106.85982, -6.119478], [106.858163, -6.11899], [106.858115, -6.120285], [106.85715, -6.12099], [106.85582, -6.123554], [106.85354, -6.124711], [106.85282, -6.125574], [106.851541, -6.125712], [106.85082, -6.126589], [106.84782, -6.126601], [106.84673, -6.12699], [106.846659, -6.12799], [106.84882, -6.128442], [106.84982, -6.129674], [106.851127, -6.12999], [106.850999, -6.13099], [106.853935, -6.13399], [106.85355, -6.13499], [106.852289, -6.13599], [106.852743, -6.136066], [106.852518, -6.139689], [106.85182, -6.140276], [106.848722, -6.140892], [106.84882, -6.14516], [106.849082, -6.144253], [106.85028, -6.14353], [106.852605, -6.14599], [106.852735, -6.14699], [106.853389, -6.14656], [106.854123, -6.146687], [106.855091, -6.148262], [106.855488, -6.14799], [106.854983, -6.147827], [106.855049, -6.14399], [106.85582, -6.143298], [106.856271, -6.143539], [106.857371, -6.14499], [106.857259, -6.14899], [106.855416, -6.15199], [106.858162, -6.15199], [106.858027, -6.15099], [106.85882, -6.150163], [106.860191, -6.150618], [106.86082, -6.151777], [106.86182, -6.15192], [106.862595, -6.14999], [106.86082, -6.149491], [106.860659, -6.148829], [106.86282, -6.148473], [106.86382, -6.148751], [106.86482, -6.148177], [106.867029, -6.147781], [106.867446, -6.14799], [106.86782, -6.149754], [106.868155, -6.149655], [106.86921, -6.15099], [106.868855, -6.152025], [106.870049, -6.154761], [106.871994, -6.15399], [106.872325, -6.15199], [106.873501, -6.15099], [106.873348, -6.14999], [106.87482, -6.148701], [106.877824, -6.148986], [106.875833, -6.15099], [106.879223, -6.151586], [106.879503, -6.152674], [106.87928, -6.15399], [106.87982, -6.154448], [106.880276, -6.15099], [106.881381, -6.150552], [106.88382, -6.150544], [106.884282, -6.15099], [106.884444, -6.152366], [106.88642, -6.15239], [106.886804, -6.154975], [106.886527, -6.15499], [106.88682, -6.155032], [106.88691, -6.154081], [106.8883, -6.15299], [106.888457, -6.151627], [106.88982, -6.151281], [106.891387, -6.152423], [106.891701, -6.153109], [106.893566, -6.153243], [106.893756, -6.154053], [106.894753, -6.154056], [106.89482, -6.154377], [106.89482, -6.153082], [106.89382, -6.150662], [106.89282, -6.150895], [106.891446, -6.14999], [106.892475, -6.14699], [106.89274, -6.14491], [106.895305, -6.14799], [106.89682, -6.14864], [106.897146, -6.148317], [106.89882, -6.148266], [106.899995, -6.149165], [106.901576, -6.14899], [106.901038, -6.148771], [106.90082, -6.14669], [106.89982, -6.14678], [106.898254, -6.14499], [106.897959, -6.14385], [106.89582, -6.144112], [106.895463, -6.143347], [106.891674, -6.14299], [106.891553, -6.13999], [106.892615, -6.13899], [106.892922, -6.136092], [106.894327, -6.13499], [106.893939, -6.132871], [106.894155, -6.131326], [106.894635, -6.13099], [106.894152, -6.12999], [106.89435, -6.12399], [106.893438, -6.12299], [106.89382, -6.118793], [106.894868, -6.11699], [106.893682, -6.11599], [106.894528, -6.11499], [106.893414, -6.114396], [106.891515, -6.11199], [106.888351, -6.111459], [106.888241, -6.110411], [106.890266, -6.10999], [106.88982, -6.109564], [106.889688, -6.109858], [106.884248, -6.109562], [106.88182, -6.108313], [106.88082, -6.108272], [106.879778, -6.109032], [106.87882, -6.108535], [106.87782, -6.109505], [106.877298, -6.10899], [106.877389, -6.10856], [106.878431, -6.10799], [106.87682, -6.105881]]], "type": "Polygon"}, "type": "Feature"}], "type": "FeatureCollection"}