{"features": [{"properties": {"fill-opacity": 0.33, "fillColor": "#bf4040", "opacity": 0.33, "fill": "#bf4040", "fillOpacity": 0.33, "color": "#bf4040", "contour": 15.0, "metric": "time"}, "geometry": {"coordinates": [[[106.757639, -6.217966], [106.755916, -6.218249], [106.756232, -6.218656], [106.756045, -6.219655], [106.754563, -6.220173], [106.754478, -6.221088], [106.753623, -6.221233], [106.752737, -6.223347], [106.751639, -6.222991], [106.750797, -6.222091], [106.749639, -6.222128], [106.749385, -6.222995], [106.748122, -6.223249], [106.749002, -6.223886], [106.748639, -6.22481], [106.747856, -6.224249], [106.747947, -6.223942], [106.746639, -6.223625], [106.744978, -6.225588], [106.743639, -6.226023], [106.743457, -6.226249], [106.744004, -6.226884], [106.74386, -6.228249], [106.742639, -6.229492], [106.741355, -6.229965], [106.738966, -6.232576], [106.738507, -6.233249], [106.738674, -6.234249], [106.737999, -6.234609], [106.737836, -6.236249], [106.735911, -6.237249], [106.736945, -6.238249], [106.736639, -6.238528], [106.735639, -6.238273], [106.735365, -6.238975], [106.734232, -6.239249], [106.733639, -6.240331], [106.733488, -6.2414], [106.734913, -6.241976], [106.734639, -6.243031], [106.731639, -6.24396], [106.731028, -6.245249], [106.731639, -6.246833], [106.732639, -6.246845], [106.734009, -6.248249], [106.73283, -6.24944], [106.731955, -6.251249], [106.733139, -6.251749], [106.733639, -6.253111], [106.73514, -6.254249], [106.736639, -6.25715], [106.737639, -6.256773], [106.738348, -6.259249], [106.737926, -6.260536], [106.737282, -6.260607], [106.736639, -6.257355], [106.735639, -6.257922], [106.73541, -6.25902], [106.734639, -6.260062], [106.733639, -6.259808], [106.732686, -6.260249], [106.732505, -6.261115], [106.7308, -6.262249], [106.731639, -6.263384], [106.732999, -6.263889], [106.733761, -6.266128], [106.73482, -6.26643], [106.73545, -6.26606], [106.735639, -6.265418], [106.73748, -6.269408], [106.740639, -6.269672], [106.74115, -6.270249], [106.741289, -6.2716], [106.743029, -6.27186], [106.742908, -6.27398], [106.743803, -6.274085], [106.744639, -6.274999], [106.745537, -6.275147], [106.746376, -6.273986], [106.748032, -6.273857], [106.75076, -6.276129], [106.751639, -6.278153], [106.753639, -6.275561], [106.754148, -6.276249], [106.754052, -6.277249], [106.754639, -6.278025], [106.755639, -6.278363], [106.757353, -6.275963], [106.758639, -6.274991], [106.759978, -6.275249], [106.760322, -6.276249], [106.761939, -6.27695], [106.762639, -6.277946], [106.763677, -6.276249], [106.764639, -6.27801], [106.766471, -6.277081], [106.767639, -6.275841], [106.768008, -6.273618], [106.770423, -6.273465], [106.770639, -6.27419], [106.770893, -6.273503], [106.771895, -6.273249], [106.769639, -6.271558], [106.769356, -6.270532], [106.769639, -6.269925], [106.771377, -6.270249], [106.772639, -6.271969], [106.775639, -6.269781], [106.777639, -6.267297], [106.777689, -6.265249], [106.776108, -6.263249], [106.776639, -6.263131], [106.778008, -6.261618], [106.778281, -6.258249], [106.777639, -6.257398], [106.775639, -6.257055], [106.774722, -6.256249], [106.775772, -6.254382], [106.777584, -6.253249], [106.777158, -6.252249], [106.778953, -6.251563], [106.779273, -6.249249], [106.779998, -6.248249], [106.779193, -6.245249], [106.779639, -6.244224], [106.778639, -6.243341], [106.777639, -6.243676], [106.775778, -6.24311], [106.774639, -6.243698], [106.77381, -6.243078], [106.772059, -6.24283], [106.771639, -6.242218], [106.771064, -6.243674], [106.769639, -6.244455], [106.76942, -6.24203], [106.770639, -6.241006], [106.774639, -6.240271], [106.775875, -6.238485], [106.777419, -6.238249], [106.77744, -6.237249], [106.776639, -6.236164], [106.775639, -6.236225], [106.774639, -6.234484], [106.773635, -6.234254], [106.771639, -6.232015], [106.770981, -6.232591], [106.769639, -6.232644], [106.768639, -6.231307], [106.766639, -6.230832], [106.765846, -6.228249], [106.766434, -6.227249], [106.766325, -6.226249], [106.76698, -6.224249], [106.764639, -6.224138], [106.764303, -6.224912], [106.763073, -6.224815], [106.762754, -6.223135], [106.761044, -6.221845], [106.760869, -6.220479], [106.761548, -6.220249], [106.760639, -6.218606], [106.760476, -6.219085], [106.759856, -6.219249], [106.76026, -6.220249], [106.760133, -6.221249], [106.759639, -6.221674], [106.759014, -6.219875], [106.758324, -6.219565], [106.757639, -6.217966]]], "type": "Polygon"}, "type": "Feature"}], "type": "FeatureCollection"}