{"features": [{"properties": {"fill-opacity": 0.33, "fillColor": "#bf4040", "opacity": 0.33, "fill": "#bf4040", "fillOpacity": 0.33, "color": "#bf4040", "contour": 15.0, "metric": "time"}, "geometry": {"coordinates": [[[106.940418, -6.152463], [106.939739, -6.153046], [106.939134, -6.15444], [106.938432, -6.154724], [106.938854, -6.155288], [106.938801, -6.156108], [106.937339, -6.156646], [106.936439, -6.157724], [106.936739, -6.158724], [106.938195, -6.159724], [106.937418, -6.160714], [106.936418, -6.159405], [106.935418, -6.159653], [106.933418, -6.161058], [106.932418, -6.160557], [106.931418, -6.160585], [106.931066, -6.161724], [106.932415, -6.163724], [106.931726, -6.164724], [106.931663, -6.16597], [106.929988, -6.167724], [106.929841, -6.169147], [106.929175, -6.169724], [106.929129, -6.171436], [106.92839, -6.171724], [106.928418, -6.172878], [106.929763, -6.171724], [106.929632, -6.170724], [106.930418, -6.170018], [106.930919, -6.170724], [106.930637, -6.171724], [106.932686, -6.173456], [106.932601, -6.176724], [106.933177, -6.177965], [106.934036, -6.178724], [106.933938, -6.181724], [106.933418, -6.182208], [106.929418, -6.182707], [106.928521, -6.182621], [106.928418, -6.181882], [106.927418, -6.1817], [106.927129, -6.182436], [106.925418, -6.183172], [106.923418, -6.182661], [106.923218, -6.183525], [106.922103, -6.183724], [106.923418, -6.185334], [106.924418, -6.185147], [106.925418, -6.186831], [106.926246, -6.186553], [106.926375, -6.185682], [106.927528, -6.185614], [106.927137, -6.187444], [106.927418, -6.188637], [106.928418, -6.188113], [106.929382, -6.188724], [106.929521, -6.18962], [106.931523, -6.189619], [106.932021, -6.191724], [106.93204, -6.192724], [106.931418, -6.193455], [106.929761, -6.193381], [106.929418, -6.193022], [106.928913, -6.194219], [106.928162, -6.194724], [106.927842, -6.196724], [106.929418, -6.198366], [106.930418, -6.198208], [106.931079, -6.197386], [106.931714, -6.197428], [106.931632, -6.198939], [106.929418, -6.199086], [106.928107, -6.200035], [106.927418, -6.199319], [106.926794, -6.2001], [106.923515, -6.201724], [106.924848, -6.202294], [106.925418, -6.203114], [106.926726, -6.203416], [106.92681, -6.205332], [106.92734, -6.206802], [106.929913, -6.207724], [106.930095, -6.210724], [106.931418, -6.211999], [106.932901, -6.211208], [106.933418, -6.209601], [106.933668, -6.210724], [106.934517, -6.211625], [106.935504, -6.211638], [106.935951, -6.213191], [106.936724, -6.213724], [106.936418, -6.214149], [106.934308, -6.214614], [106.934669, -6.216473], [106.937418, -6.217099], [106.939476, -6.216783], [106.940418, -6.214975], [106.942418, -6.217143], [106.943418, -6.216881], [106.944418, -6.215945], [106.946296, -6.217724], [106.947418, -6.217553], [106.948333, -6.217809], [106.948418, -6.218153], [106.949449, -6.217756], [106.949552, -6.216724], [106.950874, -6.215181], [106.951418, -6.214837], [106.952418, -6.214959], [106.95301, -6.214317], [106.953695, -6.213002], [106.954178, -6.208485], [106.955116, -6.207724], [106.955418, -6.206352], [106.957418, -6.204814], [106.95781, -6.203724], [106.958871, -6.202724], [106.958677, -6.201724], [106.959445, -6.200724], [106.961726, -6.198724], [106.961483, -6.197659], [106.960418, -6.197478], [106.959418, -6.198298], [106.95801, -6.196724], [106.958418, -6.194692], [106.959994, -6.1943], [106.960496, -6.193802], [106.960418, -6.193161], [106.959412, -6.19273], [106.960114, -6.191724], [106.95942, -6.190724], [106.960418, -6.190199], [106.964489, -6.189724], [106.969017, -6.187324], [106.969265, -6.186724], [106.968418, -6.185449], [106.967085, -6.185057], [106.966507, -6.181724], [106.966409, -6.181716], [106.965418, -6.183453], [106.964819, -6.181323], [106.964418, -6.18119], [106.963418, -6.182038], [106.96313, -6.181724], [106.962938, -6.180724], [106.963747, -6.180054], [106.963834, -6.178724], [106.962766, -6.177724], [106.96264, -6.175724], [106.962743, -6.17505], [106.963565, -6.174724], [106.963418, -6.173307], [106.962418, -6.17376], [106.961418, -6.175166], [106.958539, -6.174603], [106.958159, -6.173983], [106.958661, -6.172724], [106.959418, -6.17212], [106.960901, -6.172241], [106.961535, -6.172842], [106.962378, -6.172685], [106.962764, -6.17207], [106.962418, -6.171035], [106.958105, -6.171037], [106.956044, -6.168724], [106.955622, -6.166724], [106.954078, -6.167064], [106.953418, -6.166115], [106.952973, -6.166724], [106.952968, -6.168275], [106.952408, -6.168734], [106.952176, -6.166724], [106.950881, -6.165724], [106.9497, -6.162442], [106.947418, -6.162723], [106.947146, -6.163724], [106.94676, -6.167724], [106.947418, -6.168382], [106.948599, -6.168543], [106.948546, -6.169853], [106.943331, -6.169811], [106.943269, -6.167724], [106.94177, -6.166724], [106.941689, -6.161724], [106.940704, -6.160724], [106.940671, -6.158724], [106.941614, -6.157724], [106.940621, -6.156724], [106.940418, -6.152463]]], "type": "Polygon"}, "type": "Feature"}], "type": "FeatureCollection"}