{"features": [{"properties": {"fill-opacity": 0.33, "fillColor": "#bf4040", "opacity": 0.33, "fill": "#bf4040", "fillOpacity": 0.33, "color": "#bf4040", "contour": 15.0, "metric": "time"}, "geometry": {"coordinates": [[[106.922466, -6.20018], [106.921466, -6.200794], [106.920466, -6.202255], [106.920104, -6.204143], [106.918851, -6.20489], [106.916675, -6.207714], [106.916212, -6.209505], [106.914466, -6.210104], [106.914992, -6.211505], [106.914866, -6.213505], [106.910466, -6.213891], [106.908466, -6.213245], [106.904466, -6.213471], [106.901466, -6.21493], [106.900466, -6.214438], [106.899466, -6.214763], [106.899036, -6.215505], [106.899335, -6.216505], [106.898466, -6.217748], [106.896019, -6.219505], [106.89605, -6.220505], [106.895103, -6.221867], [106.895466, -6.221926], [106.89554, -6.222579], [106.894466, -6.222116], [106.893799, -6.223505], [106.895054, -6.224505], [106.893569, -6.225505], [106.892349, -6.227505], [106.893924, -6.228505], [106.890204, -6.229243], [106.889519, -6.230452], [106.891525, -6.231446], [106.891752, -6.232219], [106.89385, -6.233121], [106.895237, -6.235505], [106.895466, -6.237589], [106.896619, -6.237505], [106.896636, -6.238505], [106.89848, -6.240491], [106.899804, -6.240505], [106.900772, -6.241811], [106.901397, -6.241436], [106.901646, -6.240505], [106.90262, -6.240351], [106.902841, -6.24188], [106.902466, -6.242069], [106.901466, -6.241571], [106.901076, -6.242505], [106.901715, -6.243256], [106.902148, -6.244823], [106.903604, -6.245367], [106.904533, -6.247437], [106.906466, -6.247893], [106.907979, -6.248992], [106.908466, -6.249955], [106.908528, -6.249505], [106.909466, -6.248949], [106.912796, -6.249175], [106.913222, -6.253749], [106.914825, -6.253864], [106.915466, -6.253111], [106.917492, -6.253478], [106.917224, -6.254505], [106.918799, -6.257172], [106.919466, -6.257619], [106.920752, -6.257505], [106.921829, -6.256505], [106.921608, -6.253363], [106.920742, -6.251505], [106.921137, -6.248176], [106.925466, -6.247925], [106.926466, -6.248752], [106.929466, -6.248884], [106.934425, -6.248546], [106.936433, -6.249537], [106.937335, -6.249505], [106.936659, -6.247505], [106.937741, -6.246505], [106.938134, -6.244173], [106.939466, -6.245083], [106.941037, -6.244075], [106.941717, -6.243505], [106.940963, -6.242505], [106.942799, -6.241838], [106.944148, -6.239187], [106.946883, -6.237505], [106.94623, -6.235505], [106.946654, -6.234505], [106.946864, -6.230505], [106.946466, -6.22974], [106.945723, -6.229505], [106.946331, -6.22837], [106.946466, -6.226646], [106.947466, -6.22679], [106.949294, -6.225505], [106.947466, -6.220879], [106.945466, -6.22117], [106.943466, -6.22372], [106.943211, -6.22225], [106.943684, -6.220505], [106.943466, -6.219971], [106.940466, -6.21906], [106.939644, -6.218505], [106.939388, -6.217505], [106.933985, -6.216986], [106.933707, -6.216505], [106.934161, -6.21481], [106.930466, -6.20911], [106.928466, -6.208917], [106.927466, -6.209929], [106.926466, -6.210031], [106.926284, -6.209505], [106.926948, -6.207987], [106.927866, -6.207505], [106.927466, -6.205914], [106.923142, -6.205829], [106.923003, -6.201505], [106.922466, -6.20018]]], "type": "Polygon"}, "type": "Feature"}], "type": "FeatureCollection"}