{"features": [{"properties": {"fill-opacity": 0.33, "fillColor": "#bf4040", "opacity": 0.33, "fill": "#bf4040", "fillOpacity": 0.33, "color": "#bf4040", "contour": 15.0, "metric": "time"}, "geometry": {"coordinates": [[[106.886376, -6.305733], [106.885996, -6.306902], [106.885376, -6.307452], [106.884376, -6.3072], [106.882376, -6.307543], [106.881376, -6.30656], [106.879376, -6.30671], [106.877376, -6.306333], [106.876376, -6.307101], [106.873376, -6.307041], [106.87265, -6.308176], [106.870582, -6.308902], [106.870881, -6.309902], [106.870376, -6.310266], [106.866082, -6.309902], [106.865963, -6.311902], [106.864107, -6.313902], [106.864372, -6.314902], [106.862986, -6.315511], [106.862376, -6.316653], [106.860226, -6.317902], [106.861048, -6.318229], [106.860823, -6.319349], [106.859633, -6.319644], [106.858376, -6.318948], [106.854735, -6.321261], [106.854295, -6.322902], [106.852772, -6.324298], [106.851639, -6.326902], [106.853811, -6.329902], [106.853067, -6.330593], [106.852694, -6.33222], [106.851922, -6.332902], [106.851705, -6.334572], [106.853019, -6.336902], [106.853156, -6.338122], [106.854508, -6.339902], [106.853913, -6.340902], [106.853963, -6.341902], [106.855004, -6.343274], [106.855433, -6.345845], [106.857713, -6.346565], [106.858376, -6.347796], [106.860376, -6.348842], [106.862376, -6.349673], [106.863376, -6.349577], [106.863376, -6.350831], [106.861549, -6.351902], [106.861376, -6.353004], [106.863376, -6.353774], [106.864268, -6.352794], [106.867631, -6.352646], [106.867686, -6.355902], [106.868865, -6.356902], [106.866381, -6.358902], [106.866718, -6.359902], [106.869376, -6.36277], [106.870042, -6.361568], [106.871376, -6.361385], [106.87216, -6.360686], [106.872616, -6.361142], [106.872177, -6.361902], [106.873376, -6.363724], [106.875436, -6.362961], [106.875816, -6.361902], [106.876649, -6.361175], [106.878376, -6.361474], [106.879376, -6.362763], [106.884376, -6.360939], [106.884453, -6.357978], [106.88391, -6.356902], [106.884376, -6.35515], [106.88485, -6.354902], [106.884376, -6.354608], [106.884244, -6.353902], [106.885019, -6.353545], [106.885376, -6.35259], [106.887743, -6.352535], [106.888012, -6.354902], [106.889319, -6.355959], [106.88984, -6.355902], [106.890055, -6.354902], [106.888991, -6.354287], [106.889376, -6.353408], [106.890923, -6.354902], [106.892783, -6.355495], [106.893376, -6.356929], [106.894376, -6.356591], [106.895085, -6.355611], [106.895446, -6.353972], [106.89703, -6.353902], [106.897896, -6.352421], [106.900126, -6.351902], [106.89996, -6.349902], [106.898497, -6.346902], [106.89904, -6.345902], [106.899053, -6.344902], [106.898232, -6.342758], [106.900376, -6.341945], [106.901376, -6.343226], [106.902376, -6.34357], [106.903393, -6.342902], [106.905376, -6.342667], [106.906247, -6.341902], [106.905376, -6.338712], [106.903273, -6.337005], [106.902677, -6.337202], [106.902188, -6.336902], [106.904003, -6.336529], [106.904897, -6.335423], [106.906503, -6.335028], [106.906472, -6.333902], [106.90701, -6.332535], [106.908012, -6.331902], [106.908235, -6.330902], [106.905904, -6.326902], [106.906509, -6.325902], [106.906376, -6.323982], [106.904376, -6.324003], [106.903027, -6.324553], [106.902376, -6.325335], [106.900918, -6.323902], [106.900376, -6.322627], [106.899044, -6.322569], [106.898505, -6.322902], [106.898937, -6.323902], [106.898376, -6.324407], [106.896209, -6.323068], [106.896131, -6.319657], [106.89672, -6.319558], [106.897376, -6.321186], [106.898376, -6.321374], [106.898566, -6.321091], [106.897869, -6.315902], [106.898905, -6.314902], [106.897933, -6.314345], [106.896621, -6.311902], [106.894376, -6.30977], [106.892376, -6.31078], [106.891067, -6.310211], [106.889376, -6.308345], [106.888356, -6.307922], [106.887684, -6.306593], [106.886376, -6.305733]]], "type": "Polygon"}, "type": "Feature"}], "type": "FeatureCollection"}