{"features": [{"properties": {"fill-opacity": 0.33, "fillColor": "#bf4040", "opacity": 0.33, "fill": "#bf4040", "fillOpacity": 0.33, "color": "#bf4040", "contour": 15.0, "metric": "time"}, "geometry": {"coordinates": [[[106.837685, -6.198752], [106.836685, -6.199043], [106.834134, -6.201814], [106.834439, -6.20206], [106.834286, -6.203814], [106.833055, -6.204814], [106.833747, -6.205814], [106.832632, -6.206814], [106.832488, -6.209814], [106.8329, -6.210814], [106.834685, -6.211176], [106.835685, -6.21218], [106.836685, -6.211128], [106.837203, -6.211814], [106.837016, -6.213144], [106.836685, -6.213774], [106.835143, -6.213814], [106.834671, -6.2148], [106.833679, -6.214808], [106.833604, -6.215733], [106.832451, -6.216814], [106.831685, -6.21914], [106.829685, -6.218834], [106.829347, -6.220475], [106.828485, -6.220814], [106.829482, -6.222017], [106.829368, -6.222814], [106.827685, -6.224019], [106.826685, -6.223044], [106.824685, -6.222796], [106.823685, -6.221411], [106.823464, -6.221814], [106.822524, -6.221975], [106.822138, -6.221361], [106.821373, -6.221125], [106.820948, -6.219814], [106.82004, -6.219459], [106.819685, -6.218489], [106.81901, -6.220138], [106.818321, -6.220814], [106.818359, -6.221488], [106.818685, -6.222528], [106.819685, -6.222533], [106.821247, -6.224814], [106.820685, -6.225433], [106.81942, -6.225814], [106.819685, -6.226487], [106.821685, -6.228122], [106.822685, -6.226925], [106.823584, -6.227814], [106.822569, -6.228814], [106.823282, -6.229814], [106.825208, -6.23129], [106.827984, -6.231515], [106.829175, -6.232814], [106.828127, -6.235256], [106.827398, -6.235814], [106.82722, -6.236814], [106.827354, -6.237814], [106.828685, -6.23824], [106.829148, -6.238814], [106.828685, -6.239329], [106.826061, -6.239814], [106.826286, -6.240814], [106.827685, -6.240619], [106.828685, -6.24218], [106.829415, -6.241544], [106.830063, -6.241814], [106.830571, -6.242814], [106.829706, -6.243834], [106.829794, -6.245705], [106.831467, -6.247814], [106.834716, -6.248783], [106.836685, -6.24994], [106.838685, -6.249505], [106.839685, -6.248497], [106.84024, -6.249258], [106.841919, -6.24958], [106.842301, -6.255814], [106.843267, -6.256814], [106.843332, -6.260166], [106.843685, -6.261033], [106.845586, -6.258814], [106.844313, -6.258186], [106.844441, -6.25657], [106.849061, -6.255814], [106.848027, -6.255472], [106.847842, -6.254814], [106.849046, -6.253814], [106.849414, -6.252543], [106.850685, -6.252029], [106.852685, -6.252556], [106.855124, -6.252375], [106.855685, -6.253574], [106.857542, -6.250814], [106.857441, -6.249814], [106.85823, -6.249358], [106.85937, -6.247814], [106.859504, -6.243633], [106.864685, -6.243641], [106.865685, -6.244476], [106.866937, -6.244561], [106.86728, -6.244814], [106.867482, -6.246611], [106.867105, -6.246814], [106.867685, -6.247136], [106.868097, -6.246225], [106.869685, -6.245058], [106.870343, -6.245155], [106.870596, -6.245902], [106.872144, -6.245814], [106.871174, -6.245324], [106.870254, -6.243814], [106.870925, -6.242814], [106.869867, -6.240632], [106.868964, -6.240535], [106.868685, -6.24008], [106.864685, -6.240349], [106.863375, -6.238814], [106.864685, -6.237488], [106.866188, -6.239311], [106.867368, -6.239497], [106.867469, -6.237814], [106.866521, -6.236814], [106.866295, -6.232424], [106.867136, -6.231264], [106.867685, -6.22758], [106.868675, -6.225814], [106.873685, -6.225156], [106.878298, -6.2252], [106.878685, -6.225798], [106.878901, -6.22503], [106.878685, -6.223789], [106.878424, -6.224553], [106.875035, -6.224463], [106.874685, -6.219956], [106.871685, -6.219122], [106.869685, -6.22083], [106.867405, -6.219094], [106.867066, -6.217432], [106.866354, -6.216814], [106.866872, -6.215626], [106.864414, -6.214084], [106.863685, -6.212599], [106.862718, -6.212781], [106.862387, -6.212112], [106.861364, -6.211814], [106.862482, -6.210814], [106.862685, -6.209633], [106.862252, -6.209247], [106.858858, -6.20864], [106.858685, -6.207166], [106.857685, -6.208493], [106.856685, -6.208448], [106.856207, -6.209336], [106.855053, -6.210182], [106.854417, -6.210082], [106.85386, -6.208814], [106.853808, -6.20669], [106.853007, -6.205492], [106.851607, -6.204814], [106.852036, -6.204164], [106.853155, -6.203814], [106.853404, -6.202814], [106.851685, -6.202455], [106.850685, -6.201399], [106.849343, -6.201471], [106.848685, -6.201995], [106.847685, -6.201515], [106.845148, -6.201814], [106.844614, -6.203814], [106.845527, -6.203972], [106.8458, -6.205699], [106.846722, -6.205776], [106.847032, -6.206814], [106.847905, -6.207814], [106.845685, -6.207861], [106.84553, -6.206968], [106.844726, -6.206814], [106.845271, -6.205814], [106.843685, -6.205534], [106.842685, -6.206437], [106.841685, -6.20521], [106.839471, -6.205028], [106.839685, -6.203423], [106.841679, -6.202814], [106.839339, -6.202159], [106.839213, -6.201342], [106.839717, -6.200814], [106.837685, -6.198752]]], "type": "Polygon"}, "type": "Feature"}], "type": "FeatureCollection"}