{"features": [{"properties": {"fill-opacity": 0.33, "fillColor": "#bf4040", "opacity": 0.33, "fill": "#bf4040", "fillOpacity": 0.33, "color": "#bf4040", "contour": 15.0, "metric": "time"}, "geometry": {"coordinates": [[[106.622879, -5.854233], [106.622193, -5.85439], [106.621978, -5.855174], [106.621167, -5.855363], [106.620879, -5.856202], [106.618879, -5.856193], [106.618627, -5.855328], [106.617132, -5.855328], [106.61696, -5.857156], [106.614173, -5.85737], [106.614173, -5.858782], [106.614973, -5.85917], [106.614179, -5.859375], [106.613879, -5.86024], [106.612235, -5.860431], [106.612003, -5.861199], [106.610334, -5.86253], [106.610334, -5.863621], [106.612439, -5.863635], [106.612747, -5.862943], [106.613516, -5.862712], [106.613763, -5.86196], [106.615569, -5.861765], [106.615879, -5.860938], [106.617613, -5.860809], [106.617879, -5.859958], [106.619666, -5.859862], [106.619807, -5.859004], [106.620662, -5.858858], [106.620801, -5.857997], [106.62261, -5.857807], [106.622786, -5.856982], [106.623592, -5.856788], [106.623736, -5.856076], [106.623565, -5.85439], [106.622879, -5.854233]]], "type": "Polygon"}, "type": "Feature"}], "type": "FeatureCollection"}