{"features": [{"properties": {"fill-opacity": 0.33, "fillColor": "#bf4040", "opacity": 0.33, "fill": "#bf4040", "fillOpacity": 0.33, "color": "#bf4040", "contour": 15.0, "metric": "time"}, "geometry": {"coordinates": [[[106.783352, -6.268323], [106.782769, -6.272164], [106.779352, -6.272406], [106.778352, -6.271502], [106.778146, -6.273747], [106.777352, -6.274534], [106.775862, -6.274238], [106.775352, -6.273064], [106.773352, -6.272411], [106.771352, -6.273183], [106.770352, -6.2743], [106.768748, -6.274144], [106.768358, -6.274747], [106.769352, -6.275116], [106.769805, -6.275747], [106.769548, -6.277943], [106.768052, -6.278447], [106.767352, -6.279161], [106.765352, -6.279121], [106.764516, -6.279747], [106.764786, -6.281747], [106.768352, -6.281406], [106.768577, -6.281972], [106.766856, -6.282251], [106.765352, -6.28384], [106.763352, -6.283095], [106.76222, -6.283747], [106.76271, -6.285747], [106.762158, -6.286747], [106.763352, -6.288251], [106.764352, -6.288195], [106.765352, -6.288899], [106.765776, -6.289747], [106.765352, -6.290369], [106.764192, -6.289587], [106.762548, -6.290747], [106.761788, -6.292183], [106.759418, -6.292813], [106.759336, -6.293731], [106.760234, -6.293865], [106.760324, -6.294775], [106.761183, -6.294916], [106.761352, -6.295791], [106.763352, -6.295808], [106.763642, -6.295038], [106.764352, -6.294916], [106.764965, -6.295134], [106.765352, -6.296241], [106.766352, -6.29537], [106.767316, -6.295747], [106.767876, -6.296747], [106.767353, -6.298747], [106.768062, -6.299037], [106.768352, -6.299767], [106.769491, -6.299747], [106.769601, -6.300747], [106.768736, -6.301747], [106.76968, -6.302419], [106.769748, -6.303747], [106.770336, -6.304747], [106.770149, -6.305545], [106.769608, -6.305747], [106.770656, -6.306443], [106.772352, -6.30871], [106.7732, -6.307595], [106.774709, -6.307391], [106.776352, -6.309002], [106.777352, -6.308434], [106.77873, -6.308747], [106.778697, -6.309747], [106.780858, -6.310747], [106.780125, -6.311747], [106.781352, -6.313159], [106.781863, -6.312258], [106.783352, -6.311527], [106.784352, -6.312608], [106.789352, -6.311894], [106.792352, -6.312275], [106.793411, -6.311807], [106.794352, -6.311973], [106.794943, -6.312747], [106.794653, -6.313747], [106.795352, -6.315508], [106.798643, -6.313747], [106.799725, -6.312747], [106.798826, -6.312273], [106.798706, -6.311747], [106.799352, -6.31109], [106.800548, -6.310944], [106.801449, -6.309845], [106.801231, -6.308626], [106.801892, -6.307288], [106.802657, -6.307442], [106.803352, -6.309017], [106.805796, -6.307191], [106.806812, -6.305208], [106.808352, -6.304294], [106.80838, -6.303719], [106.80759, -6.303509], [106.807452, -6.302647], [106.806718, -6.302381], [106.806352, -6.299651], [106.804352, -6.299263], [106.804133, -6.298747], [106.805217, -6.297747], [106.805958, -6.296353], [106.807551, -6.295947], [106.807617, -6.293747], [106.806862, -6.293237], [106.80689, -6.292285], [106.813644, -6.291747], [106.812161, -6.290938], [106.810352, -6.288517], [106.809273, -6.289747], [106.808857, -6.291252], [106.806719, -6.291381], [106.805763, -6.290747], [106.806709, -6.289747], [106.806352, -6.289129], [106.805173, -6.288927], [106.804352, -6.288039], [106.802471, -6.287866], [106.801352, -6.288226], [106.800742, -6.287747], [106.801015, -6.286411], [106.801527, -6.285922], [106.801352, -6.285165], [106.800378, -6.284721], [106.799352, -6.282758], [106.798352, -6.283563], [106.798232, -6.282747], [106.797052, -6.281747], [106.79721, -6.280605], [106.798224, -6.279747], [106.798352, -6.278357], [106.799352, -6.278448], [106.800358, -6.277747], [106.799378, -6.276721], [106.798011, -6.276088], [106.797352, -6.273791], [106.795723, -6.276747], [106.79466, -6.277055], [106.793352, -6.278218], [106.792352, -6.278023], [106.791352, -6.278451], [106.791137, -6.281532], [106.790087, -6.281747], [106.789784, -6.283179], [106.788352, -6.284368], [106.78727, -6.284665], [106.788662, -6.285437], [106.788022, -6.288747], [106.786733, -6.289128], [106.786246, -6.289853], [106.786173, -6.288569], [106.786804, -6.2882], [106.787044, -6.28744], [106.787058, -6.286747], [106.786352, -6.286062], [106.785352, -6.286195], [106.784853, -6.286747], [106.784676, -6.290071], [106.784049, -6.29005], [106.783352, -6.289154], [106.781637, -6.288747], [106.78173, -6.287747], [106.782757, -6.287152], [106.78309, -6.285485], [106.783975, -6.284747], [106.784083, -6.282478], [106.785023, -6.281747], [106.784352, -6.281175], [106.783086, -6.281013], [106.781825, -6.279747], [106.78183, -6.277747], [106.782732, -6.276747], [106.78277, -6.274165], [106.783497, -6.272893], [106.783724, -6.270747], [106.783352, -6.268323]]], "type": "Polygon"}, "type": "Feature"}], "type": "FeatureCollection"}