{"features": [{"properties": {"fill-opacity": 0.33, "fillColor": "#bf4040", "opacity": 0.33, "fill": "#bf4040", "fillOpacity": 0.33, "color": "#bf4040", "contour": 15.0, "metric": "time"}, "geometry": {"coordinates": [[[106.876513, -6.243073], [106.875513, -6.243634], [106.875259, -6.244818], [106.874455, -6.245014], [106.874172, -6.24573], [106.871418, -6.246071], [106.871508, -6.247071], [106.872276, -6.247308], [106.873109, -6.249071], [106.87116, -6.250719], [106.870734, -6.252293], [106.869653, -6.253212], [106.867813, -6.253071], [106.868616, -6.250968], [106.868401, -6.250071], [106.867513, -6.249584], [106.866985, -6.248071], [106.867787, -6.247071], [106.867513, -6.245381], [106.865513, -6.246831], [106.863513, -6.247032], [106.862513, -6.246586], [106.862457, -6.248071], [106.863242, -6.248342], [106.863318, -6.250071], [106.862356, -6.250915], [106.861994, -6.253552], [106.861513, -6.253772], [106.860765, -6.253071], [106.860513, -6.250877], [106.860091, -6.25165], [106.858401, -6.25196], [106.85821, -6.253769], [106.857383, -6.254942], [106.855513, -6.254974], [106.854513, -6.255813], [106.850672, -6.256071], [106.852513, -6.258473], [106.852513, -6.26129], [106.853513, -6.260686], [106.855964, -6.26262], [106.855781, -6.264339], [106.854513, -6.264477], [106.853872, -6.265071], [106.85409, -6.265494], [106.855592, -6.265992], [106.855957, -6.266627], [106.85599, -6.269071], [106.854933, -6.270071], [106.854941, -6.271499], [106.854065, -6.271624], [106.852749, -6.273307], [106.851048, -6.273606], [106.85102, -6.274564], [106.851789, -6.275071], [106.850682, -6.276241], [106.848513, -6.276445], [106.847513, -6.277302], [106.846786, -6.277345], [106.846513, -6.278122], [106.845513, -6.277965], [106.844513, -6.281819], [106.843259, -6.282817], [106.84303, -6.283589], [106.842956, -6.284071], [106.843752, -6.285071], [106.843223, -6.285781], [106.843039, -6.287071], [106.843513, -6.288901], [106.844122, -6.289462], [106.84493, -6.289489], [106.845513, -6.288879], [106.846513, -6.289509], [106.850647, -6.288937], [106.850513, -6.289329], [106.848675, -6.289234], [106.848994, -6.292071], [106.850513, -6.293301], [106.851679, -6.293238], [106.852081, -6.29164], [106.853086, -6.290645], [106.85392, -6.290664], [106.853976, -6.292534], [106.852256, -6.294071], [106.854073, -6.294511], [106.854088, -6.295646], [106.850513, -6.296049], [106.850513, -6.296533], [106.852222, -6.297362], [106.852513, -6.29972], [106.852581, -6.29914], [106.85526, -6.299324], [106.855513, -6.302642], [106.856513, -6.303004], [106.857513, -6.301976], [106.857759, -6.302825], [106.86023, -6.304354], [106.86183, -6.304388], [106.864093, -6.303652], [106.864813, -6.303771], [106.865513, -6.304654], [106.865642, -6.3042], [106.866513, -6.304188], [106.866725, -6.303283], [106.867568, -6.303126], [106.86866, -6.302219], [106.870412, -6.299971], [106.871473, -6.299032], [106.872406, -6.298965], [106.872513, -6.29807], [106.873229, -6.300355], [106.874997, -6.300587], [106.876237, -6.301347], [106.877513, -6.301169], [106.87958, -6.299071], [106.878724, -6.295283], [106.87928, -6.294839], [106.879417, -6.294071], [106.880184, -6.293742], [106.880467, -6.291026], [106.881724, -6.291071], [106.882513, -6.292838], [106.884777, -6.292336], [106.886505, -6.291071], [106.885687, -6.289897], [106.885668, -6.289071], [106.886797, -6.285356], [106.887, -6.283071], [106.885166, -6.281418], [106.884582, -6.279071], [106.885182, -6.278741], [106.885513, -6.2761], [106.886513, -6.276379], [106.887245, -6.275071], [106.886105, -6.274479], [106.886176, -6.273735], [106.887773, -6.273331], [106.888047, -6.272071], [106.887513, -6.27194], [106.886513, -6.272647], [106.885513, -6.272523], [106.884951, -6.270633], [106.883513, -6.270404], [106.88271, -6.271269], [106.881513, -6.271322], [106.880618, -6.272177], [106.878767, -6.272326], [106.878513, -6.273186], [106.878395, -6.272071], [106.880214, -6.271773], [106.880513, -6.269672], [106.882513, -6.269744], [106.883978, -6.268537], [106.884143, -6.264702], [106.885513, -6.263409], [106.886724, -6.263283], [106.887639, -6.262071], [106.886727, -6.260857], [106.885513, -6.260225], [106.883513, -6.260446], [106.883642, -6.258942], [106.882236, -6.258795], [106.880259, -6.259325], [106.878513, -6.257946], [106.876513, -6.258752], [106.875039, -6.258071], [106.873282, -6.256302], [106.872466, -6.256118], [106.871864, -6.254071], [106.873234, -6.253071], [106.873049, -6.252071], [106.873819, -6.251378], [106.874028, -6.249586], [106.875207, -6.249071], [106.875059, -6.247617], [106.876111, -6.247071], [106.875629, -6.244188], [106.876545, -6.244103], [106.876513, -6.243073]]], "type": "Polygon"}, "type": "Feature"}], "type": "FeatureCollection"}