{"features": [{"properties": {"fill-opacity": 0.33, "fillColor": "#bf4040", "opacity": 0.33, "fill": "#bf4040", "fillOpacity": 0.33, "color": "#bf4040", "contour": 15.0, "metric": "time"}, "geometry": {"coordinates": [[[106.830272, -6.262707], [106.829326, -6.262769], [106.829272, -6.261823], [106.827531, -6.266081], [106.826272, -6.266048], [106.825166, -6.266716], [106.824515, -6.268065], [106.823573, -6.268823], [106.823315, -6.269823], [106.822272, -6.269366], [106.821235, -6.27086], [106.819122, -6.269672], [106.817789, -6.270823], [106.81786, -6.271823], [106.815272, -6.272434], [106.815492, -6.274823], [106.814725, -6.276275], [106.813272, -6.276936], [106.812272, -6.276001], [106.811243, -6.275793], [106.808373, -6.277823], [106.809272, -6.279337], [106.810381, -6.279714], [106.810815, -6.280823], [106.810465, -6.282015], [106.809575, -6.282125], [106.808272, -6.282978], [106.808053, -6.285823], [106.807172, -6.286823], [106.809034, -6.288823], [106.808888, -6.289438], [106.808168, -6.289718], [106.807862, -6.290823], [106.805958, -6.291508], [106.805272, -6.292327], [106.796272, -6.29236], [106.795388, -6.292823], [106.798272, -6.295693], [106.799576, -6.295126], [106.8025, -6.29505], [106.803789, -6.293339], [106.804711, -6.293384], [106.804816, -6.294366], [106.803868, -6.296823], [106.804272, -6.299026], [106.805272, -6.29937], [106.806272, -6.29878], [106.806801, -6.299294], [106.809031, -6.299823], [106.808205, -6.300891], [106.810272, -6.302734], [106.812313, -6.303823], [106.810272, -6.305455], [106.810073, -6.306623], [106.809198, -6.306823], [106.810912, -6.308823], [106.812154, -6.308941], [106.813272, -6.311543], [106.814089, -6.311823], [106.813272, -6.31265], [106.813706, -6.313389], [106.814953, -6.314142], [106.816272, -6.315731], [106.818272, -6.31525], [106.819527, -6.315568], [106.820272, -6.316985], [106.821384, -6.316934], [106.821488, -6.315823], [106.819979, -6.314117], [106.820032, -6.313582], [106.821272, -6.313473], [106.822543, -6.312553], [106.823272, -6.315477], [106.824681, -6.314231], [106.825234, -6.312784], [106.826272, -6.3124], [106.826836, -6.311386], [106.829325, -6.30977], [106.829507, -6.307823], [106.828773, -6.306823], [106.828724, -6.305371], [106.828063, -6.304823], [106.827528, -6.301567], [106.826272, -6.30143], [106.825915, -6.29918], [106.825061, -6.298823], [106.825257, -6.295808], [106.826272, -6.297286], [106.827272, -6.297099], [106.828272, -6.29823], [106.830796, -6.298823], [106.830272, -6.300416], [106.828383, -6.300823], [106.829272, -6.301078], [106.829747, -6.301823], [106.828904, -6.303823], [106.829564, -6.304823], [106.832272, -6.305516], [106.832435, -6.306823], [106.833272, -6.30699], [106.83392, -6.307823], [106.833863, -6.309823], [106.834742, -6.311353], [106.836272, -6.312385], [106.836805, -6.310355], [106.839272, -6.309771], [106.841133, -6.307823], [106.840858, -6.306237], [106.841272, -6.305455], [106.845272, -6.304698], [106.849272, -6.305059], [106.850104, -6.305823], [106.850272, -6.307316], [106.853268, -6.304823], [106.852678, -6.304417], [106.852601, -6.303823], [106.853272, -6.302959], [106.853945, -6.302823], [106.853585, -6.301823], [106.854272, -6.301062], [106.854272, -6.300719], [106.853272, -6.300348], [106.852272, -6.300602], [106.84989, -6.300205], [106.849272, -6.29845], [106.847937, -6.298159], [106.847272, -6.297318], [106.846226, -6.296869], [106.84589, -6.295823], [106.848056, -6.293823], [106.847971, -6.292522], [106.848553, -6.291823], [106.846943, -6.289152], [106.846272, -6.288786], [106.845272, -6.289156], [106.844879, -6.287823], [106.844882, -6.282823], [106.84578, -6.281823], [106.845688, -6.277823], [106.846633, -6.276823], [106.846666, -6.27243], [106.846272, -6.271826], [106.845148, -6.271947], [106.843272, -6.270159], [106.841272, -6.268985], [106.840272, -6.26988], [106.839272, -6.270039], [106.838272, -6.268109], [106.837272, -6.268266], [106.83692, -6.269823], [106.836059, -6.270036], [106.835272, -6.26806], [106.834272, -6.268651], [106.833585, -6.26851], [106.833597, -6.266823], [106.830816, -6.265279], [106.830272, -6.262707]]], "type": "Polygon"}, "type": "Feature"}], "type": "FeatureCollection"}