{"features": [{"properties": {"fill-opacity": 0.33, "fillColor": "#bf4040", "opacity": 0.33, "fill": "#bf4040", "fillOpacity": 0.33, "color": "#bf4040", "contour": 15.0, "metric": "time"}, "geometry": {"coordinates": [[[106.847609, -6.224872], [106.845842, -6.226597], [106.844609, -6.227128], [106.843951, -6.228705], [106.842289, -6.229043], [106.841609, -6.230324], [106.838609, -6.23025], [106.836609, -6.232649], [106.836333, -6.235087], [106.835538, -6.235363], [106.835901, -6.236363], [106.835462, -6.237217], [106.835609, -6.240012], [106.835685, -6.239439], [106.838131, -6.23984], [106.838673, -6.240363], [106.838626, -6.241381], [106.838585, -6.240387], [106.83797, -6.240724], [106.834609, -6.240527], [106.834288, -6.239683], [106.832539, -6.239433], [106.831239, -6.237733], [106.830505, -6.237363], [106.830875, -6.235363], [106.829609, -6.234708], [106.828407, -6.235161], [106.824482, -6.235363], [106.826122, -6.237363], [106.825241, -6.238363], [106.825017, -6.239771], [106.822609, -6.240702], [106.822228, -6.241743], [106.822446, -6.2422], [106.820432, -6.244187], [106.819554, -6.244363], [106.819395, -6.245363], [106.817004, -6.247363], [106.815204, -6.250363], [106.815616, -6.25137], [106.815049, -6.250923], [106.813746, -6.252363], [106.814932, -6.253363], [106.81357, -6.254363], [106.815321, -6.256363], [106.815483, -6.257489], [106.817775, -6.258196], [106.817461, -6.259363], [106.818609, -6.260413], [106.81894, -6.263032], [106.819609, -6.263878], [106.820609, -6.263382], [106.821209, -6.263763], [106.821771, -6.266363], [106.823609, -6.26814], [106.825378, -6.267132], [106.826609, -6.267208], [106.827609, -6.266416], [106.8278, -6.267363], [106.828609, -6.268023], [106.829181, -6.266936], [106.829988, -6.266984], [106.830276, -6.272363], [106.829609, -6.276681], [106.831609, -6.278262], [106.832609, -6.278144], [106.834609, -6.280355], [106.835908, -6.281064], [106.835863, -6.282363], [106.837609, -6.284453], [106.838609, -6.283827], [106.839609, -6.281898], [106.840305, -6.282363], [106.840609, -6.2833], [106.841609, -6.282557], [106.84233, -6.283642], [106.843377, -6.287594], [106.843406, -6.28916], [106.84258, -6.289335], [106.842609, -6.290749], [106.842705, -6.28946], [106.843921, -6.289363], [106.844501, -6.287363], [106.845214, -6.286969], [106.845609, -6.284771], [106.846609, -6.285376], [106.847768, -6.284522], [106.847114, -6.283363], [106.849816, -6.280363], [106.847116, -6.279856], [106.847166, -6.27792], [106.848803, -6.277557], [106.849609, -6.276706], [106.850853, -6.276607], [106.852022, -6.275363], [106.851239, -6.274733], [106.851235, -6.273989], [106.852866, -6.27362], [106.853018, -6.272363], [106.853609, -6.271665], [106.855601, -6.271363], [106.855483, -6.270238], [106.856508, -6.265464], [106.855915, -6.26567], [106.855509, -6.265263], [106.85654, -6.265294], [106.856609, -6.264785], [106.857612, -6.26536], [106.858776, -6.267363], [106.858609, -6.269605], [106.860609, -6.270108], [106.862679, -6.269433], [106.863219, -6.268363], [106.863752, -6.26822], [106.863798, -6.269363], [106.86519, -6.270363], [106.866609, -6.274195], [106.866849, -6.273603], [106.867897, -6.273363], [106.86832, -6.270363], [106.869609, -6.26901], [106.872609, -6.270241], [106.873609, -6.26789], [106.876318, -6.267072], [106.877522, -6.266277], [106.877972, -6.265363], [106.876609, -6.263153], [106.874609, -6.261545], [106.873609, -6.262384], [106.872847, -6.257124], [106.872609, -6.256542], [106.871795, -6.256177], [106.871381, -6.250363], [106.869969, -6.248363], [106.870775, -6.247196], [106.869785, -6.246363], [106.870609, -6.245586], [106.871343, -6.245629], [106.871518, -6.246454], [106.872507, -6.246363], [106.871848, -6.246124], [106.871058, -6.243914], [106.870144, -6.243363], [106.871456, -6.242363], [106.87089, -6.242082], [106.869609, -6.239478], [106.868609, -6.239579], [106.86829, -6.241363], [106.866609, -6.242716], [106.863965, -6.241006], [106.862951, -6.240021], [106.862609, -6.23884], [106.86219, -6.238945], [106.860609, -6.239884], [106.860273, -6.241363], [106.859609, -6.24214], [106.859341, -6.238363], [106.858609, -6.234973], [106.856609, -6.233072], [106.855224, -6.234979], [106.853609, -6.236073], [106.852525, -6.231363], [106.85182, -6.231152], [106.851609, -6.23046], [106.850609, -6.230253], [106.849609, -6.229042], [106.848609, -6.229911], [106.847609, -6.224872]]], "type": "Polygon"}, "type": "Feature"}], "type": "FeatureCollection"}