{"features": [{"properties": {"fill-opacity": 0.33, "fillColor": "#bf4040", "opacity": 0.33, "fill": "#bf4040", "fillOpacity": 0.33, "color": "#bf4040", "contour": 15.0, "metric": "time"}, "geometry": {"coordinates": [[[106.819049, -6.143449], [106.818146, -6.143365], [106.818049, -6.142816], [106.817982, -6.143396], [106.817396, -6.143463], [106.817457, -6.144463], [106.817049, -6.144856], [106.816357, -6.144154], [106.815519, -6.143993], [106.815049, -6.143127], [106.813887, -6.143301], [106.813757, -6.145463], [106.814566, -6.146463], [106.813441, -6.147463], [106.814049, -6.148182], [106.815049, -6.148112], [106.815242, -6.148656], [106.814459, -6.148873], [106.814049, -6.149761], [106.811049, -6.147962], [106.80971, -6.149463], [106.809049, -6.151042], [106.807049, -6.15119], [106.806171, -6.152463], [106.806045, -6.153459], [106.805049, -6.154663], [106.804049, -6.155038], [106.802792, -6.156206], [106.803477, -6.157463], [106.802049, -6.158746], [106.801292, -6.165706], [106.795049, -6.165921], [106.793049, -6.165389], [106.79154, -6.165954], [106.787713, -6.166463], [106.788621, -6.16789], [106.789049, -6.168014], [106.790049, -6.16688], [106.791484, -6.168028], [106.792636, -6.170463], [106.793041, -6.173471], [106.792907, -6.174463], [106.791912, -6.1746], [106.789049, -6.172216], [106.788168, -6.172344], [106.788049, -6.171741], [106.78781, -6.173224], [106.787179, -6.173463], [106.78827, -6.174241], [106.788964, -6.175547], [106.788561, -6.17795], [106.789049, -6.178477], [106.79043, -6.178082], [106.790481, -6.18003], [106.791121, -6.180463], [106.790049, -6.180818], [106.78989, -6.181304], [106.790049, -6.182437], [106.791091, -6.184421], [106.792049, -6.184634], [106.792276, -6.18269], [106.793214, -6.182463], [106.793413, -6.181463], [106.794188, -6.180602], [106.796049, -6.179845], [106.796681, -6.180463], [106.797049, -6.187325], [106.79736, -6.186463], [106.798256, -6.186256], [106.798457, -6.187871], [106.798338, -6.188463], [106.797049, -6.188805], [106.796844, -6.189258], [106.794892, -6.189463], [106.796672, -6.18984], [106.797049, -6.192086], [106.800108, -6.193404], [106.802049, -6.195224], [106.803049, -6.194817], [106.803011, -6.193463], [106.804049, -6.192872], [106.8057, -6.195812], [106.809049, -6.198515], [106.809374, -6.198463], [106.809071, -6.198441], [106.809692, -6.194106], [106.810049, -6.193913], [106.810947, -6.194565], [106.812049, -6.194698], [106.813049, -6.193808], [106.813389, -6.194463], [106.813207, -6.198463], [106.814451, -6.199463], [106.813823, -6.201463], [106.815908, -6.201603], [106.816049, -6.203259], [106.817684, -6.201463], [106.819049, -6.198903], [106.820049, -6.198649], [106.821049, -6.19745], [106.822049, -6.197377], [106.822824, -6.196238], [106.824049, -6.196103], [106.825309, -6.194463], [106.824049, -6.194097], [106.823636, -6.193463], [106.824049, -6.192998], [106.825049, -6.193056], [106.825349, -6.192463], [106.824828, -6.189463], [106.825487, -6.188901], [106.826049, -6.187266], [106.82979, -6.187722], [106.830049, -6.188267], [106.830672, -6.187086], [106.833049, -6.186871], [106.833837, -6.184463], [106.836185, -6.182327], [106.836018, -6.181493], [106.835435, -6.181077], [106.835391, -6.18012], [106.836074, -6.178463], [106.834272, -6.17824], [106.834058, -6.177463], [106.834233, -6.176647], [106.835075, -6.176489], [106.83515, -6.175564], [106.835492, -6.175463], [106.835158, -6.175354], [106.835188, -6.174463], [106.835862, -6.172276], [106.836726, -6.172463], [106.837048, -6.173463], [106.839049, -6.173235], [106.83924, -6.172654], [106.840463, -6.172463], [106.841113, -6.171463], [106.841361, -6.170463], [106.840627, -6.169885], [106.840724, -6.169138], [106.843089, -6.168463], [106.842381, -6.16813], [106.841832, -6.16668], [106.842515, -6.165463], [106.841651, -6.164463], [106.841933, -6.163463], [106.840727, -6.162463], [106.840798, -6.159714], [106.840458, -6.159463], [106.841049, -6.1588], [106.840904, -6.157607], [106.840178, -6.157334], [106.840049, -6.156892], [106.839869, -6.158283], [106.837504, -6.158008], [106.837152, -6.156359], [106.836398, -6.156114], [106.836049, -6.154542], [106.834852, -6.154659], [106.833049, -6.15296], [106.831049, -6.152089], [106.830049, -6.152482], [106.828815, -6.154229], [106.828049, -6.154691], [106.827755, -6.150463], [106.828365, -6.148463], [106.826321, -6.147735], [106.824633, -6.148047], [106.824049, -6.148402], [106.823468, -6.149882], [106.822049, -6.151598], [106.820996, -6.151463], [106.819049, -6.153797], [106.818833, -6.152678], [106.817897, -6.152463], [106.817676, -6.150463], [106.818049, -6.149797], [106.820061, -6.149463], [106.819224, -6.149288], [106.819556, -6.14797], [106.820345, -6.147463], [106.820347, -6.146761], [106.82016, -6.145351], [106.819121, -6.144391], [106.819049, -6.143449]]], "type": "Polygon"}, "type": "Feature"}], "type": "FeatureCollection"}