{"features": [{"properties": {"fill-opacity": 0.33, "fillColor": "#bf4040", "opacity": 0.33, "fill": "#bf4040", "fillOpacity": 0.33, "color": "#bf4040", "contour": 15.0, "metric": "time"}, "geometry": {"coordinates": [[[106.831164, -6.131254], [106.830164, -6.131388], [106.828896, -6.132635], [106.828922, -6.133144], [106.829719, -6.133903], [106.829164, -6.135085], [106.827164, -6.134467], [106.826697, -6.134903], [106.825164, -6.135071], [106.824164, -6.136037], [106.821203, -6.135863], [106.820809, -6.136548], [106.817164, -6.137136], [106.816164, -6.137653], [106.813825, -6.137564], [106.81302, -6.138046], [106.811164, -6.137464], [106.809152, -6.138891], [106.809975, -6.141903], [106.807278, -6.144903], [106.806336, -6.147903], [106.807164, -6.149529], [106.807771, -6.149903], [106.807443, -6.150903], [106.808853, -6.155213], [106.809611, -6.156455], [106.812736, -6.158903], [106.816357, -6.159096], [106.81697, -6.158709], [106.817164, -6.157854], [106.818193, -6.157873], [106.818164, -6.160461], [106.817568, -6.162903], [106.819191, -6.163903], [106.817164, -6.165111], [106.816686, -6.165903], [106.816947, -6.167119], [106.818273, -6.169012], [106.815164, -6.169148], [106.814599, -6.170338], [106.813231, -6.170903], [106.814716, -6.17135], [106.815164, -6.172012], [106.816164, -6.171612], [106.817164, -6.172294], [106.818164, -6.17162], [106.818347, -6.172719], [106.819908, -6.174903], [106.820107, -6.175959], [106.822164, -6.175631], [106.822802, -6.176264], [106.823164, -6.178557], [106.823934, -6.173673], [106.824442, -6.173624], [106.825164, -6.174401], [106.826164, -6.17434], [106.826601, -6.173903], [106.82584, -6.173226], [106.825972, -6.17271], [106.828164, -6.172678], [106.828432, -6.173634], [106.829306, -6.173903], [106.829787, -6.17528], [106.83041, -6.175656], [106.830669, -6.178903], [106.832164, -6.179351], [106.833164, -6.179103], [106.835164, -6.177214], [106.835344, -6.173903], [106.836164, -6.172668], [106.836964, -6.173102], [106.837164, -6.173989], [106.839164, -6.174157], [106.839415, -6.173154], [106.840746, -6.17332], [106.840983, -6.175903], [106.841816, -6.17625], [106.842018, -6.176903], [106.842164, -6.179366], [106.844164, -6.179679], [106.844404, -6.178903], [106.845164, -6.17845], [106.846164, -6.179471], [106.846238, -6.177828], [106.845526, -6.17754], [106.845375, -6.176903], [106.845728, -6.175467], [106.850188, -6.174903], [106.849663, -6.173903], [106.850682, -6.17242], [106.852164, -6.171209], [106.852922, -6.168903], [106.852164, -6.168195], [106.850164, -6.16919], [106.849907, -6.168159], [106.851003, -6.166741], [106.852164, -6.166205], [106.852906, -6.164644], [106.853752, -6.163903], [106.853022, -6.161903], [106.852879, -6.159187], [106.851893, -6.157903], [106.852164, -6.155236], [106.854164, -6.156174], [106.85442, -6.155903], [106.854664, -6.154903], [106.855869, -6.153903], [106.854164, -6.153138], [106.854164, -6.152824], [106.857164, -6.152493], [106.859164, -6.153837], [106.860035, -6.152903], [106.85745, -6.150903], [106.857591, -6.15033], [106.858614, -6.149903], [106.85871, -6.148903], [106.858164, -6.148236], [106.857164, -6.148954], [106.855164, -6.147963], [106.854359, -6.148903], [106.855607, -6.149459], [106.855723, -6.149903], [106.855164, -6.150329], [106.854016, -6.150051], [106.854069, -6.148903], [106.852164, -6.146907], [106.851164, -6.14824], [106.850111, -6.147955], [106.849164, -6.143504], [106.84822, -6.142846], [106.848164, -6.142376], [106.847748, -6.144487], [106.848093, -6.145903], [106.847851, -6.14659], [106.847282, -6.147021], [106.847064, -6.147903], [106.845164, -6.148803], [106.844715, -6.147903], [106.845164, -6.145129], [106.845852, -6.143903], [106.845849, -6.142588], [106.847824, -6.141903], [106.845755, -6.141311], [106.845173, -6.139903], [106.842308, -6.139758], [106.841964, -6.138103], [106.841164, -6.137387], [106.840164, -6.13739], [106.839711, -6.13845], [106.839164, -6.138649], [106.833148, -6.137918], [106.833256, -6.136995], [106.834559, -6.134508], [106.834164, -6.133885], [106.83395, -6.134689], [106.833164, -6.134688], [106.831554, -6.132903], [106.831164, -6.131254]]], "type": "Polygon"}, "type": "Feature"}], "type": "FeatureCollection"}