{"features": [{"properties": {"fill-opacity": 0.33, "fillColor": "#bf4040", "opacity": 0.33, "fill": "#bf4040", "fillOpacity": 0.33, "color": "#bf4040", "contour": 15.0, "metric": "time"}, "geometry": {"coordinates": [[[106.895907, -6.096629], [106.892742, -6.097116], [106.892754, -6.101269], [106.893839, -6.103116], [106.892525, -6.103734], [106.892029, -6.106238], [106.890165, -6.106116], [106.889907, -6.105029], [106.888907, -6.104736], [106.886907, -6.106171], [106.884907, -6.104842], [106.883907, -6.10677], [106.881479, -6.107116], [106.880731, -6.10794], [106.88105, -6.112259], [106.879062, -6.116116], [106.880109, -6.116914], [106.879921, -6.118116], [106.880405, -6.118618], [106.880907, -6.118956], [106.882907, -6.118611], [106.883145, -6.118878], [106.883209, -6.119418], [106.88231, -6.120116], [106.884296, -6.123116], [106.883984, -6.124193], [106.882907, -6.124151], [106.881236, -6.126116], [106.88149, -6.128116], [106.882907, -6.130239], [106.883907, -6.129749], [106.884449, -6.130574], [106.885592, -6.131116], [106.88557, -6.132116], [106.887455, -6.132567], [106.887638, -6.134847], [106.886354, -6.135116], [106.88777, -6.136253], [106.888269, -6.136116], [106.888566, -6.134775], [106.889907, -6.134774], [106.890214, -6.133423], [106.890974, -6.133116], [106.890844, -6.132116], [106.892612, -6.129822], [106.893174, -6.129849], [106.893267, -6.131116], [106.892268, -6.132116], [106.892109, -6.136116], [106.891335, -6.136544], [106.890907, -6.138932], [106.889566, -6.140116], [106.889878, -6.141145], [106.890503, -6.14152], [106.890907, -6.144654], [106.891907, -6.143638], [106.891599, -6.141808], [106.892658, -6.140867], [106.894333, -6.140542], [106.894907, -6.139769], [106.895706, -6.140316], [106.89667, -6.140353], [106.896907, -6.141212], [106.898818, -6.141205], [106.898749, -6.142274], [106.899907, -6.142411], [106.900715, -6.143308], [106.903907, -6.143589], [106.904907, -6.144578], [106.906133, -6.144343], [106.906907, -6.143515], [106.908907, -6.14361], [106.909431, -6.144116], [106.909505, -6.148518], [106.909907, -6.148914], [106.910007, -6.148216], [106.910631, -6.148116], [106.910525, -6.145116], [106.910907, -6.144778], [106.911337, -6.145116], [106.911567, -6.146456], [106.912326, -6.146697], [106.912907, -6.148103], [106.913629, -6.147116], [106.913663, -6.145872], [106.91585, -6.144116], [106.915717, -6.143116], [106.916343, -6.141552], [106.91811, -6.141116], [106.917196, -6.140827], [106.916907, -6.138653], [106.917907, -6.137436], [106.919075, -6.136948], [106.918907, -6.136076], [106.920486, -6.137116], [106.920361, -6.13857], [106.919744, -6.139279], [106.92067, -6.140116], [106.921907, -6.142231], [106.922907, -6.141564], [106.923907, -6.139721], [106.92361, -6.137819], [106.924907, -6.13663], [106.925828, -6.137195], [106.926974, -6.137116], [106.92749, -6.136116], [106.927486, -6.134116], [106.926907, -6.133458], [106.925907, -6.134213], [106.92568, -6.133116], [106.926467, -6.132676], [106.926907, -6.131711], [106.927907, -6.132574], [106.92863, -6.131116], [106.927487, -6.128116], [106.927595, -6.127116], [106.926428, -6.126595], [106.925335, -6.125116], [106.927168, -6.122855], [106.925832, -6.122116], [106.928907, -6.121805], [106.929672, -6.120881], [106.930907, -6.12083], [106.931235, -6.120444], [106.931589, -6.119116], [106.930355, -6.118668], [106.929951, -6.11716], [106.930541, -6.116751], [106.931518, -6.114727], [106.932701, -6.114116], [106.933414, -6.111623], [106.934962, -6.111171], [106.934907, -6.110619], [106.932662, -6.109361], [106.932373, -6.108116], [106.930275, -6.107748], [106.928907, -6.108008], [106.926486, -6.106537], [106.926087, -6.106116], [106.92629, -6.104733], [106.923011, -6.102116], [106.920907, -6.102621], [106.919793, -6.10123], [106.919907, -6.099795], [106.918907, -6.099902], [106.917907, -6.100735], [106.915907, -6.100505], [106.914907, -6.099512], [106.91407, -6.100116], [106.913907, -6.101208], [106.911907, -6.09897], [106.909036, -6.100116], [106.910299, -6.100723], [106.910323, -6.102116], [106.90927, -6.103479], [106.907907, -6.103773], [106.907167, -6.104376], [106.907058, -6.106116], [106.906192, -6.106402], [106.905821, -6.107202], [106.905514, -6.099116], [106.906236, -6.098446], [106.906236, -6.097786], [106.896907, -6.097452], [106.895907, -6.096629]]], "type": "Polygon"}, "type": "Feature"}], "type": "FeatureCollection"}